<?xml version="1.0"?>
<gpx version="1.1" xmlns="http://www.topografix.com/GPX/1/1" xmlns:xsi="http://www.w3.org/2001/XMLSchema-instance" xsi:schemaLocation="http://www.topografix.com/GPX/1/1 http://www.topografix.com/GPX/1/1/gpx.xsd">
	<metadata>
		<name>Arth Goldau Rigi</name>
	</metadata>
	<trk type="hiking">
		<trkseg>
			<trkpt lat="47.04917000" lon="8.548500000">
				<ele>510.00000</ele>
			</trkpt>
			<trkpt lat="47.04912000" lon="8.548590000">
				<ele>509.00000</ele>
			</trkpt>
			<trkpt lat="47.04908000" lon="8.548640000">
				<ele>510.00000</ele>
			</trkpt>
			<trkpt lat="47.04907000" lon="8.548650000">
				<ele>510.00000</ele>
			</trkpt>
			<trkpt lat="47.04908000" lon="8.548510000">
				<ele>509.00000</ele>
			</trkpt>
			<trkpt lat="47.04909000" lon="8.548500000">
				<ele>509.00000</ele>
			</trkpt>
			<trkpt lat="47.04912000" lon="8.548450000">
				<ele>509.00000</ele>
			</trkpt>
			<trkpt lat="47.04916000" lon="8.548350000">
				<ele>509.00000</ele>
			</trkpt>
			<trkpt lat="47.04921000" lon="8.548270000">
				<ele>510.00000</ele>
			</trkpt>
			<trkpt lat="47.04933000" lon="8.548080000">
				<ele>510.00000</ele>
			</trkpt>
			<trkpt lat="47.04933000" lon="8.548060000">
				<ele>510.00000</ele>
			</trkpt>
			<trkpt lat="47.04934000" lon="8.548030000">
				<ele>510.00000</ele>
			</trkpt>
			<trkpt lat="47.04933000" lon="8.547990000">
				<ele>510.00000</ele>
			</trkpt>
			<trkpt lat="47.04933000" lon="8.547880000">
				<ele>510.00000</ele>
			</trkpt>
			<trkpt lat="47.04933000" lon="8.547810000">
				<ele>510.00000</ele>
			</trkpt>
			<trkpt lat="47.04932000" lon="8.547770000">
				<ele>510.00000</ele>
			</trkpt>
			<trkpt lat="47.04931000" lon="8.547750000">
				<ele>510.00000</ele>
			</trkpt>
			<trkpt lat="47.04929000" lon="8.547720000">
				<ele>510.00000</ele>
			</trkpt>
			<trkpt lat="47.04928000" lon="8.547710000">
				<ele>510.00000</ele>
			</trkpt>
			<trkpt lat="47.04925000" lon="8.547690000">
				<ele>510.00000</ele>
			</trkpt>
			<trkpt lat="47.04922000" lon="8.547680000">
				<ele>510.00000</ele>
			</trkpt>
			<trkpt lat="47.04923000" lon="8.547620000">
				<ele>510.00000</ele>
			</trkpt>
			<trkpt lat="47.04923000" lon="8.547570000">
				<ele>510.00000</ele>
			</trkpt>
			<trkpt lat="47.04921000" lon="8.547570000">
				<ele>510.00000</ele>
			</trkpt>
			<trkpt lat="47.04911000" lon="8.547560000">
				<ele>510.00000</ele>
			</trkpt>
			<trkpt lat="47.04893000" lon="8.547530000">
				<ele>510.00000</ele>
			</trkpt>
			<trkpt lat="47.04884000" lon="8.547520000">
				<ele>510.00000</ele>
			</trkpt>
			<trkpt lat="47.04878000" lon="8.547520000">
				<ele>510.00000</ele>
			</trkpt>
			<trkpt lat="47.04883000" lon="8.547080000">
				<ele>508.00000</ele>
			</trkpt>
			<trkpt lat="47.04885000" lon="8.546890000">
				<ele>507.00000</ele>
			</trkpt>
			<trkpt lat="47.04856000" lon="8.546860000">
				<ele>510.00000</ele>
			</trkpt>
			<trkpt lat="47.04842000" lon="8.546800000">
				<ele>512.00000</ele>
			</trkpt>
			<trkpt lat="47.04813000" lon="8.546580000">
				<ele>516.00000</ele>
			</trkpt>
			<trkpt lat="47.04796000" lon="8.546450000">
				<ele>517.00000</ele>
			</trkpt>
			<trkpt lat="47.04790000" lon="8.546450000">
				<ele>517.00000</ele>
			</trkpt>
			<trkpt lat="47.04767000" lon="8.546550000">
				<ele>519.00000</ele>
			</trkpt>
			<trkpt lat="47.04735000" lon="8.546730000">
				<ele>519.00000</ele>
			</trkpt>
			<trkpt lat="47.04732000" lon="8.546740000">
				<ele>519.00000</ele>
			</trkpt>
			<trkpt lat="47.04730000" lon="8.546690000">
				<ele>519.00000</ele>
			</trkpt>
			<trkpt lat="47.04713000" lon="8.546330000">
				<ele>521.00000</ele>
			</trkpt>
			<trkpt lat="47.04708000" lon="8.546220000">
				<ele>520.00000</ele>
			</trkpt>
			<trkpt lat="47.04705000" lon="8.546140000">
				<ele>520.00000</ele>
			</trkpt>
			<trkpt lat="47.04703000" lon="8.546080000">
				<ele>520.00000</ele>
			</trkpt>
			<trkpt lat="47.04699000" lon="8.545950000">
				<ele>520.00000</ele>
			</trkpt>
			<trkpt lat="47.04695000" lon="8.545830000">
				<ele>519.00000</ele>
			</trkpt>
			<trkpt lat="47.04695000" lon="8.545810000">
				<ele>519.00000</ele>
			</trkpt>
			<trkpt lat="47.04693000" lon="8.545760000">
				<ele>520.00000</ele>
			</trkpt>
			<trkpt lat="47.04706000" lon="8.545700000">
				<ele>519.00000</ele>
			</trkpt>
			<trkpt lat="47.04705000" lon="8.545670000">
				<ele>519.00000</ele>
			</trkpt>
			<trkpt lat="47.04705000" lon="8.545650000">
				<ele>519.00000</ele>
			</trkpt>
			<trkpt lat="47.04705000" lon="8.545640000">
				<ele>519.00000</ele>
			</trkpt>
			<trkpt lat="47.04704000" lon="8.545560000">
				<ele>519.00000</ele>
			</trkpt>
			<trkpt lat="47.04704000" lon="8.545460000">
				<ele>520.00000</ele>
			</trkpt>
			<trkpt lat="47.04705000" lon="8.545400000">
				<ele>520.00000</ele>
			</trkpt>
			<trkpt lat="47.04706000" lon="8.545340000">
				<ele>520.00000</ele>
			</trkpt>
			<trkpt lat="47.04708000" lon="8.545290000">
				<ele>520.00000</ele>
			</trkpt>
			<trkpt lat="47.04711000" lon="8.545240000">
				<ele>520.00000</ele>
			</trkpt>
			<trkpt lat="47.04718000" lon="8.545140000">
				<ele>521.00000</ele>
			</trkpt>
			<trkpt lat="47.04721000" lon="8.545080000">
				<ele>521.00000</ele>
			</trkpt>
			<trkpt lat="47.04723000" lon="8.545010000">
				<ele>521.00000</ele>
			</trkpt>
			<trkpt lat="47.04725000" lon="8.544930000">
				<ele>522.00000</ele>
			</trkpt>
			<trkpt lat="47.04725000" lon="8.544860000">
				<ele>523.00000</ele>
			</trkpt>
			<trkpt lat="47.04723000" lon="8.544780000">
				<ele>524.00000</ele>
			</trkpt>
			<trkpt lat="47.04721000" lon="8.544720000">
				<ele>525.00000</ele>
			</trkpt>
			<trkpt lat="47.04718000" lon="8.544670000">
				<ele>525.00000</ele>
			</trkpt>
			<trkpt lat="47.04708000" lon="8.544540000">
				<ele>526.00000</ele>
			</trkpt>
			<trkpt lat="47.04706000" lon="8.544520000">
				<ele>526.00000</ele>
			</trkpt>
			<trkpt lat="47.04675000" lon="8.544150000">
				<ele>526.00000</ele>
			</trkpt>
			<trkpt lat="47.04660000" lon="8.543860000">
				<ele>525.00000</ele>
			</trkpt>
			<trkpt lat="47.04663000" lon="8.543820000">
				<ele>524.00000</ele>
			</trkpt>
			<trkpt lat="47.04671000" lon="8.543690000">
				<ele>524.00000</ele>
			</trkpt>
			<trkpt lat="47.04673000" lon="8.543650000">
				<ele>523.00000</ele>
			</trkpt>
			<trkpt lat="47.04672000" lon="8.543610000">
				<ele>523.00000</ele>
			</trkpt>
			<trkpt lat="47.04661000" lon="8.543180000">
				<ele>523.00000</ele>
			</trkpt>
			<trkpt lat="47.04660000" lon="8.542980000">
				<ele>524.00000</ele>
			</trkpt>
			<trkpt lat="47.04657000" lon="8.542320000">
				<ele>525.00000</ele>
			</trkpt>
			<trkpt lat="47.04656000" lon="8.542200000">
				<ele>525.00000</ele>
			</trkpt>
			<trkpt lat="47.04653000" lon="8.542060000">
				<ele>525.00000</ele>
			</trkpt>
			<trkpt lat="47.04646000" lon="8.541940000">
				<ele>525.00000</ele>
			</trkpt>
			<trkpt lat="47.04643000" lon="8.541880000">
				<ele>525.00000</ele>
			</trkpt>
			<trkpt lat="47.04639000" lon="8.541800000">
				<ele>525.00000</ele>
			</trkpt>
			<trkpt lat="47.04627000" lon="8.541610000">
				<ele>526.00000</ele>
			</trkpt>
			<trkpt lat="47.04607000" lon="8.541250000">
				<ele>529.00000</ele>
			</trkpt>
			<trkpt lat="47.04585000" lon="8.540850000">
				<ele>534.00000</ele>
			</trkpt>
			<trkpt lat="47.04575000" lon="8.540640000">
				<ele>536.00000</ele>
			</trkpt>
			<trkpt lat="47.04558000" lon="8.540160000">
				<ele>542.00000</ele>
			</trkpt>
			<trkpt lat="47.04553000" lon="8.540020000">
				<ele>543.00000</ele>
			</trkpt>
			<trkpt lat="47.04553000" lon="8.539870000">
				<ele>545.00000</ele>
			</trkpt>
			<trkpt lat="47.04557000" lon="8.539760000">
				<ele>545.00000</ele>
			</trkpt>
			<trkpt lat="47.04566000" lon="8.539700000">
				<ele>547.00000</ele>
			</trkpt>
			<trkpt lat="47.04571000" lon="8.539680000">
				<ele>547.00000</ele>
			</trkpt>
			<trkpt lat="47.04593000" lon="8.539590000">
				<ele>548.00000</ele>
			</trkpt>
			<trkpt lat="47.04614000" lon="8.539550000">
				<ele>547.00000</ele>
			</trkpt>
			<trkpt lat="47.04634000" lon="8.539490000">
				<ele>547.00000</ele>
			</trkpt>
			<trkpt lat="47.04642000" lon="8.539450000">
				<ele>548.00000</ele>
			</trkpt>
			<trkpt lat="47.04646000" lon="8.539400000">
				<ele>548.00000</ele>
			</trkpt>
			<trkpt lat="47.04650000" lon="8.539320000">
				<ele>550.00000</ele>
			</trkpt>
			<trkpt lat="47.04650000" lon="8.539230000">
				<ele>551.00000</ele>
			</trkpt>
			<trkpt lat="47.04647000" lon="8.539160000">
				<ele>552.00000</ele>
			</trkpt>
			<trkpt lat="47.04638000" lon="8.539090000">
				<ele>553.00000</ele>
			</trkpt>
			<trkpt lat="47.04606000" lon="8.538940000">
				<ele>555.00000</ele>
			</trkpt>
			<trkpt lat="47.04598000" lon="8.538870000">
				<ele>556.00000</ele>
			</trkpt>
			<trkpt lat="47.04594000" lon="8.538730000">
				<ele>558.00000</ele>
			</trkpt>
			<trkpt lat="47.04588000" lon="8.537910000">
				<ele>566.00000</ele>
			</trkpt>
			<trkpt lat="47.04587000" lon="8.537620000">
				<ele>569.00000</ele>
			</trkpt>
			<trkpt lat="47.04584000" lon="8.537520000">
				<ele>569.00000</ele>
			</trkpt>
			<trkpt lat="47.04584000" lon="8.537500000">
				<ele>569.00000</ele>
			</trkpt>
			<trkpt lat="47.04573000" lon="8.537320000">
				<ele>571.00000</ele>
			</trkpt>
			<trkpt lat="47.04525000" lon="8.536520000">
				<ele>582.00000</ele>
			</trkpt>
			<trkpt lat="47.04511000" lon="8.536310000">
				<ele>586.00000</ele>
			</trkpt>
			<trkpt lat="47.04508000" lon="8.536220000">
				<ele>587.00000</ele>
			</trkpt>
			<trkpt lat="47.04509000" lon="8.536110000">
				<ele>587.00000</ele>
			</trkpt>
			<trkpt lat="47.04513000" lon="8.536030000">
				<ele>588.00000</ele>
			</trkpt>
			<trkpt lat="47.04520000" lon="8.535940000">
				<ele>588.00000</ele>
			</trkpt>
			<trkpt lat="47.04532000" lon="8.535890000">
				<ele>589.00000</ele>
			</trkpt>
			<trkpt lat="47.04542000" lon="8.535870000">
				<ele>590.00000</ele>
			</trkpt>
			<trkpt lat="47.04591000" lon="8.535870000">
				<ele>593.00000</ele>
			</trkpt>
			<trkpt lat="47.04610000" lon="8.535850000">
				<ele>595.00000</ele>
			</trkpt>
			<trkpt lat="47.04622000" lon="8.535830000">
				<ele>597.00000</ele>
			</trkpt>
			<trkpt lat="47.04633000" lon="8.535760000">
				<ele>599.00000</ele>
			</trkpt>
			<trkpt lat="47.04644000" lon="8.535650000">
				<ele>601.00000</ele>
			</trkpt>
			<trkpt lat="47.04656000" lon="8.535430000">
				<ele>602.00000</ele>
			</trkpt>
			<trkpt lat="47.04660000" lon="8.535380000">
				<ele>603.00000</ele>
			</trkpt>
			<trkpt lat="47.04665000" lon="8.535300000">
				<ele>603.00000</ele>
			</trkpt>
			<trkpt lat="47.04674000" lon="8.535230000">
				<ele>605.00000</ele>
			</trkpt>
			<trkpt lat="47.04696000" lon="8.535220000">
				<ele>607.00000</ele>
			</trkpt>
			<trkpt lat="47.04702000" lon="8.535220000">
				<ele>607.00000</ele>
			</trkpt>
			<trkpt lat="47.04707000" lon="8.535170000">
				<ele>609.00000</ele>
			</trkpt>
			<trkpt lat="47.04710000" lon="8.535050000">
				<ele>611.00000</ele>
			</trkpt>
			<trkpt lat="47.04712000" lon="8.534760000">
				<ele>615.00000</ele>
			</trkpt>
			<trkpt lat="47.04712000" lon="8.534560000">
				<ele>616.00000</ele>
			</trkpt>
			<trkpt lat="47.04710000" lon="8.534430000">
				<ele>617.00000</ele>
			</trkpt>
			<trkpt lat="47.04705000" lon="8.534310000">
				<ele>617.00000</ele>
			</trkpt>
			<trkpt lat="47.04672000" lon="8.533810000">
				<ele>621.00000</ele>
			</trkpt>
			<trkpt lat="47.04669000" lon="8.533700000">
				<ele>622.00000</ele>
			</trkpt>
			<trkpt lat="47.04670000" lon="8.533600000">
				<ele>624.00000</ele>
			</trkpt>
			<trkpt lat="47.04674000" lon="8.533520000">
				<ele>625.00000</ele>
			</trkpt>
			<trkpt lat="47.04682000" lon="8.533490000">
				<ele>625.00000</ele>
			</trkpt>
			<trkpt lat="47.04758000" lon="8.533510000">
				<ele>632.00000</ele>
			</trkpt>
			<trkpt lat="47.04765000" lon="8.533490000">
				<ele>633.00000</ele>
			</trkpt>
			<trkpt lat="47.04773000" lon="8.533420000">
				<ele>636.00000</ele>
			</trkpt>
			<trkpt lat="47.04777000" lon="8.533330000">
				<ele>637.00000</ele>
			</trkpt>
			<trkpt lat="47.04780000" lon="8.533210000">
				<ele>637.00000</ele>
			</trkpt>
			<trkpt lat="47.04783000" lon="8.532940000">
				<ele>638.00000</ele>
			</trkpt>
			<trkpt lat="47.04785000" lon="8.532650000">
				<ele>639.00000</ele>
			</trkpt>
			<trkpt lat="47.04784000" lon="8.532530000">
				<ele>640.00000</ele>
			</trkpt>
			<trkpt lat="47.04783000" lon="8.532400000">
				<ele>641.00000</ele>
			</trkpt>
			<trkpt lat="47.04769000" lon="8.531900000">
				<ele>644.00000</ele>
			</trkpt>
			<trkpt lat="47.04765000" lon="8.531720000">
				<ele>644.00000</ele>
			</trkpt>
			<trkpt lat="47.04763000" lon="8.531630000">
				<ele>645.00000</ele>
			</trkpt>
			<trkpt lat="47.04762000" lon="8.531440000">
				<ele>645.00000</ele>
			</trkpt>
			<trkpt lat="47.04761000" lon="8.531280000">
				<ele>645.00000</ele>
			</trkpt>
			<trkpt lat="47.04758000" lon="8.531180000">
				<ele>646.00000</ele>
			</trkpt>
			<trkpt lat="47.04747000" lon="8.531020000">
				<ele>649.00000</ele>
			</trkpt>
			<trkpt lat="47.04744000" lon="8.530980000">
				<ele>650.00000</ele>
			</trkpt>
			<trkpt lat="47.04742000" lon="8.530950000">
				<ele>650.00000</ele>
			</trkpt>
			<trkpt lat="47.04735000" lon="8.530710000">
				<ele>650.00000</ele>
			</trkpt>
			<trkpt lat="47.04729000" lon="8.530560000">
				<ele>651.00000</ele>
			</trkpt>
			<trkpt lat="47.04708000" lon="8.530250000">
				<ele>654.00000</ele>
			</trkpt>
			<trkpt lat="47.04698000" lon="8.530050000">
				<ele>658.00000</ele>
			</trkpt>
			<trkpt lat="47.04692000" lon="8.529910000">
				<ele>661.00000</ele>
			</trkpt>
			<trkpt lat="47.04689000" lon="8.529830000">
				<ele>662.00000</ele>
			</trkpt>
			<trkpt lat="47.04688000" lon="8.529800000">
				<ele>662.00000</ele>
			</trkpt>
			<trkpt lat="47.04683000" lon="8.529610000">
				<ele>665.00000</ele>
			</trkpt>
			<trkpt lat="47.04677000" lon="8.529500000">
				<ele>666.00000</ele>
			</trkpt>
			<trkpt lat="47.04668000" lon="8.529370000">
				<ele>668.00000</ele>
			</trkpt>
			<trkpt lat="47.04657000" lon="8.529220000">
				<ele>669.00000</ele>
			</trkpt>
			<trkpt lat="47.04652000" lon="8.529130000">
				<ele>670.00000</ele>
			</trkpt>
			<trkpt lat="47.04651000" lon="8.529030000">
				<ele>671.00000</ele>
			</trkpt>
			<trkpt lat="47.04653000" lon="8.528970000">
				<ele>672.00000</ele>
			</trkpt>
			<trkpt lat="47.04658000" lon="8.528910000">
				<ele>673.00000</ele>
			</trkpt>
			<trkpt lat="47.04662000" lon="8.528890000">
				<ele>673.00000</ele>
			</trkpt>
			<trkpt lat="47.04688000" lon="8.528780000">
				<ele>677.00000</ele>
			</trkpt>
			<trkpt lat="47.04699000" lon="8.528720000">
				<ele>678.00000</ele>
			</trkpt>
			<trkpt lat="47.04708000" lon="8.528640000">
				<ele>678.00000</ele>
			</trkpt>
			<trkpt lat="47.04715000" lon="8.528500000">
				<ele>679.00000</ele>
			</trkpt>
			<trkpt lat="47.04721000" lon="8.528320000">
				<ele>682.00000</ele>
			</trkpt>
			<trkpt lat="47.04724000" lon="8.528110000">
				<ele>682.00000</ele>
			</trkpt>
			<trkpt lat="47.04732000" lon="8.527670000">
				<ele>688.00000</ele>
			</trkpt>
			<trkpt lat="47.04735000" lon="8.527500000">
				<ele>690.00000</ele>
			</trkpt>
			<trkpt lat="47.04735000" lon="8.527360000">
				<ele>693.00000</ele>
			</trkpt>
			<trkpt lat="47.04732000" lon="8.527230000">
				<ele>696.00000</ele>
			</trkpt>
			<trkpt lat="47.04714000" lon="8.526910000">
				<ele>699.00000</ele>
			</trkpt>
			<trkpt lat="47.04711000" lon="8.526850000">
				<ele>700.00000</ele>
			</trkpt>
			<trkpt lat="47.04709000" lon="8.526750000">
				<ele>701.00000</ele>
			</trkpt>
			<trkpt lat="47.04710000" lon="8.526640000">
				<ele>702.00000</ele>
			</trkpt>
			<trkpt lat="47.04713000" lon="8.526570000">
				<ele>703.00000</ele>
			</trkpt>
			<trkpt lat="47.04729000" lon="8.526400000">
				<ele>706.00000</ele>
			</trkpt>
			<trkpt lat="47.04733000" lon="8.526360000">
				<ele>707.00000</ele>
			</trkpt>
			<trkpt lat="47.04738000" lon="8.526260000">
				<ele>708.00000</ele>
			</trkpt>
			<trkpt lat="47.04740000" lon="8.526100000">
				<ele>710.00000</ele>
			</trkpt>
			<trkpt lat="47.04739000" lon="8.525810000">
				<ele>710.00000</ele>
			</trkpt>
			<trkpt lat="47.04738000" lon="8.525570000">
				<ele>712.00000</ele>
			</trkpt>
			<trkpt lat="47.04737000" lon="8.525350000">
				<ele>712.00000</ele>
			</trkpt>
			<trkpt lat="47.04733000" lon="8.525060000">
				<ele>713.00000</ele>
			</trkpt>
			<trkpt lat="47.04719000" lon="8.524680000">
				<ele>714.00000</ele>
			</trkpt>
			<trkpt lat="47.04713000" lon="8.524580000">
				<ele>715.00000</ele>
			</trkpt>
			<trkpt lat="47.04702000" lon="8.524400000">
				<ele>715.00000</ele>
			</trkpt>
			<trkpt lat="47.04697000" lon="8.524210000">
				<ele>716.00000</ele>
			</trkpt>
			<trkpt lat="47.04686000" lon="8.523680000">
				<ele>719.00000</ele>
			</trkpt>
			<trkpt lat="47.04679000" lon="8.523380000">
				<ele>723.00000</ele>
			</trkpt>
			<trkpt lat="47.04665000" lon="8.522780000">
				<ele>729.00000</ele>
			</trkpt>
			<trkpt lat="47.04664000" lon="8.522760000">
				<ele>729.00000</ele>
			</trkpt>
			<trkpt lat="47.04660000" lon="8.522630000">
				<ele>728.00000</ele>
			</trkpt>
			<trkpt lat="47.04644000" lon="8.522170000">
				<ele>730.00000</ele>
			</trkpt>
			<trkpt lat="47.04639000" lon="8.522040000">
				<ele>731.00000</ele>
			</trkpt>
			<trkpt lat="47.04608000" lon="8.520960000">
				<ele>738.00000</ele>
			</trkpt>
			<trkpt lat="47.04598000" lon="8.520730000">
				<ele>740.00000</ele>
			</trkpt>
			<trkpt lat="47.04587000" lon="8.520520000">
				<ele>741.00000</ele>
			</trkpt>
			<trkpt lat="47.04574000" lon="8.520330000">
				<ele>742.00000</ele>
			</trkpt>
			<trkpt lat="47.04571000" lon="8.520280000">
				<ele>742.00000</ele>
			</trkpt>
			<trkpt lat="47.04566000" lon="8.520210000">
				<ele>742.00000</ele>
			</trkpt>
			<trkpt lat="47.04550000" lon="8.519970000">
				<ele>743.00000</ele>
			</trkpt>
			<trkpt lat="47.04524000" lon="8.519590000">
				<ele>747.00000</ele>
			</trkpt>
			<trkpt lat="47.04521000" lon="8.519530000">
				<ele>748.00000</ele>
			</trkpt>
			<trkpt lat="47.04519000" lon="8.519490000">
				<ele>749.00000</ele>
			</trkpt>
			<trkpt lat="47.04519000" lon="8.519480000">
				<ele>749.00000</ele>
			</trkpt>
			<trkpt lat="47.04516000" lon="8.519420000">
				<ele>751.00000</ele>
			</trkpt>
			<trkpt lat="47.04513000" lon="8.519200000">
				<ele>758.00000</ele>
			</trkpt>
			<trkpt lat="47.04511000" lon="8.519160000">
				<ele>759.00000</ele>
			</trkpt>
			<trkpt lat="47.04509000" lon="8.519220000">
				<ele>758.00000</ele>
			</trkpt>
			<trkpt lat="47.04505000" lon="8.519280000">
				<ele>756.00000</ele>
			</trkpt>
			<trkpt lat="47.04502000" lon="8.519290000">
				<ele>756.00000</ele>
			</trkpt>
			<trkpt lat="47.04499000" lon="8.519310000">
				<ele>756.00000</ele>
			</trkpt>
			<trkpt lat="47.04495000" lon="8.519300000">
				<ele>756.00000</ele>
			</trkpt>
			<trkpt lat="47.04494000" lon="8.519300000">
				<ele>756.00000</ele>
			</trkpt>
			<trkpt lat="47.04493000" lon="8.519300000">
				<ele>756.00000</ele>
			</trkpt>
			<trkpt lat="47.04490000" lon="8.519300000">
				<ele>756.00000</ele>
			</trkpt>
			<trkpt lat="47.04488000" lon="8.519270000">
				<ele>757.00000</ele>
			</trkpt>
			<trkpt lat="47.04489000" lon="8.519250000">
				<ele>758.00000</ele>
			</trkpt>
			<trkpt lat="47.04495000" lon="8.519190000">
				<ele>760.00000</ele>
			</trkpt>
			<trkpt lat="47.04502000" lon="8.519110000">
				<ele>762.00000</ele>
			</trkpt>
			<trkpt lat="47.04505000" lon="8.519040000">
				<ele>764.00000</ele>
			</trkpt>
			<trkpt lat="47.04505000" lon="8.518980000">
				<ele>765.00000</ele>
			</trkpt>
			<trkpt lat="47.04496000" lon="8.518690000">
				<ele>773.00000</ele>
			</trkpt>
			<trkpt lat="47.04494000" lon="8.518650000">
				<ele>774.00000</ele>
			</trkpt>
			<trkpt lat="47.04489000" lon="8.518580000">
				<ele>776.00000</ele>
			</trkpt>
			<trkpt lat="47.04467000" lon="8.518490000">
				<ele>781.00000</ele>
			</trkpt>
			<trkpt lat="47.04455000" lon="8.518440000">
				<ele>786.00000</ele>
			</trkpt>
			<trkpt lat="47.04453000" lon="8.518410000">
				<ele>788.00000</ele>
			</trkpt>
			<trkpt lat="47.04453000" lon="8.518370000">
				<ele>791.00000</ele>
			</trkpt>
			<trkpt lat="47.04471000" lon="8.518150000">
				<ele>797.00000</ele>
			</trkpt>
			<trkpt lat="47.04471000" lon="8.518110000">
				<ele>799.00000</ele>
			</trkpt>
			<trkpt lat="47.04463000" lon="8.518080000">
				<ele>803.00000</ele>
			</trkpt>
			<trkpt lat="47.04458000" lon="8.518100000">
				<ele>804.00000</ele>
			</trkpt>
			<trkpt lat="47.04453000" lon="8.518150000">
				<ele>803.00000</ele>
			</trkpt>
			<trkpt lat="47.04446000" lon="8.518170000">
				<ele>804.00000</ele>
			</trkpt>
			<trkpt lat="47.04447000" lon="8.518140000">
				<ele>805.00000</ele>
			</trkpt>
			<trkpt lat="47.04448000" lon="8.518110000">
				<ele>806.00000</ele>
			</trkpt>
			<trkpt lat="47.04455000" lon="8.517990000">
				<ele>810.00000</ele>
			</trkpt>
			<trkpt lat="47.04452000" lon="8.517990000">
				<ele>811.00000</ele>
			</trkpt>
			<trkpt lat="47.04450000" lon="8.517990000">
				<ele>812.00000</ele>
			</trkpt>
			<trkpt lat="47.04429000" lon="8.518120000">
				<ele>811.00000</ele>
			</trkpt>
			<trkpt lat="47.04418000" lon="8.518150000">
				<ele>813.00000</ele>
			</trkpt>
			<trkpt lat="47.04409000" lon="8.518100000">
				<ele>815.00000</ele>
			</trkpt>
			<trkpt lat="47.04400000" lon="8.518040000">
				<ele>817.00000</ele>
			</trkpt>
			<trkpt lat="47.04382000" lon="8.517900000">
				<ele>821.00000</ele>
			</trkpt>
			<trkpt lat="47.04369000" lon="8.517800000">
				<ele>822.00000</ele>
			</trkpt>
			<trkpt lat="47.04362000" lon="8.517750000">
				<ele>823.00000</ele>
			</trkpt>
			<trkpt lat="47.04354000" lon="8.517680000">
				<ele>827.00000</ele>
			</trkpt>
			<trkpt lat="47.04354000" lon="8.517630000">
				<ele>830.00000</ele>
			</trkpt>
			<trkpt lat="47.04359000" lon="8.517630000">
				<ele>830.00000</ele>
			</trkpt>
			<trkpt lat="47.04385000" lon="8.517650000">
				<ele>833.00000</ele>
			</trkpt>
			<trkpt lat="47.04388000" lon="8.517610000">
				<ele>836.00000</ele>
			</trkpt>
			<trkpt lat="47.04378000" lon="8.517580000">
				<ele>836.00000</ele>
			</trkpt>
			<trkpt lat="47.04377000" lon="8.517520000">
				<ele>839.00000</ele>
			</trkpt>
			<trkpt lat="47.04389000" lon="8.517510000">
				<ele>841.00000</ele>
			</trkpt>
			<trkpt lat="47.04394000" lon="8.517470000">
				<ele>843.00000</ele>
			</trkpt>
			<trkpt lat="47.04393000" lon="8.517450000">
				<ele>844.00000</ele>
			</trkpt>
			<trkpt lat="47.04390000" lon="8.517400000">
				<ele>846.00000</ele>
			</trkpt>
			<trkpt lat="47.04369000" lon="8.517340000">
				<ele>847.00000</ele>
			</trkpt>
			<trkpt lat="47.04359000" lon="8.517240000">
				<ele>851.00000</ele>
			</trkpt>
			<trkpt lat="47.04344000" lon="8.517080000">
				<ele>854.00000</ele>
			</trkpt>
			<trkpt lat="47.04338000" lon="8.516900000">
				<ele>858.00000</ele>
			</trkpt>
			<trkpt lat="47.04330000" lon="8.516770000">
				<ele>863.00000</ele>
			</trkpt>
			<trkpt lat="47.04325000" lon="8.516780000">
				<ele>862.00000</ele>
			</trkpt>
			<trkpt lat="47.04323000" lon="8.516750000">
				<ele>864.00000</ele>
			</trkpt>
			<trkpt lat="47.04312000" lon="8.516590000">
				<ele>874.00000</ele>
			</trkpt>
			<trkpt lat="47.04304000" lon="8.516430000">
				<ele>889.00000</ele>
			</trkpt>
			<trkpt lat="47.04309000" lon="8.516410000">
				<ele>890.00000</ele>
			</trkpt>
			<trkpt lat="47.04320000" lon="8.516410000">
				<ele>887.00000</ele>
			</trkpt>
			<trkpt lat="47.04326000" lon="8.516410000">
				<ele>885.00000</ele>
			</trkpt>
			<trkpt lat="47.04341000" lon="8.516510000">
				<ele>877.00000</ele>
			</trkpt>
			<trkpt lat="47.04351000" lon="8.516620000">
				<ele>870.00000</ele>
			</trkpt>
			<trkpt lat="47.04355000" lon="8.516590000">
				<ele>872.00000</ele>
			</trkpt>
			<trkpt lat="47.04360000" lon="8.516550000">
				<ele>874.00000</ele>
			</trkpt>
			<trkpt lat="47.04361000" lon="8.516540000">
				<ele>875.00000</ele>
			</trkpt>
			<trkpt lat="47.04364000" lon="8.516520000">
				<ele>876.00000</ele>
			</trkpt>
			<trkpt lat="47.04365000" lon="8.516480000">
				<ele>879.00000</ele>
			</trkpt>
			<trkpt lat="47.04364000" lon="8.516460000">
				<ele>880.00000</ele>
			</trkpt>
			<trkpt lat="47.04362000" lon="8.516440000">
				<ele>881.00000</ele>
			</trkpt>
			<trkpt lat="47.04358000" lon="8.516450000">
				<ele>881.00000</ele>
			</trkpt>
			<trkpt lat="47.04350000" lon="8.516430000">
				<ele>882.00000</ele>
			</trkpt>
			<trkpt lat="47.04346000" lon="8.516410000">
				<ele>883.00000</ele>
			</trkpt>
			<trkpt lat="47.04346000" lon="8.516370000">
				<ele>886.00000</ele>
			</trkpt>
			<trkpt lat="47.04348000" lon="8.516360000">
				<ele>887.00000</ele>
			</trkpt>
			<trkpt lat="47.04352000" lon="8.516360000">
				<ele>887.00000</ele>
			</trkpt>
			<trkpt lat="47.04358000" lon="8.516300000">
				<ele>892.00000</ele>
			</trkpt>
			<trkpt lat="47.04371000" lon="8.516030000">
				<ele>906.00000</ele>
			</trkpt>
			<trkpt lat="47.04380000" lon="8.515930000">
				<ele>907.00000</ele>
			</trkpt>
			<trkpt lat="47.04386000" lon="8.515860000">
				<ele>907.00000</ele>
			</trkpt>
			<trkpt lat="47.04389000" lon="8.515830000">
				<ele>907.00000</ele>
			</trkpt>
			<trkpt lat="47.04391000" lon="8.515810000">
				<ele>907.00000</ele>
			</trkpt>
			<trkpt lat="47.04393000" lon="8.515790000">
				<ele>907.00000</ele>
			</trkpt>
			<trkpt lat="47.04397000" lon="8.515760000">
				<ele>907.00000</ele>
			</trkpt>
			<trkpt lat="47.04405000" lon="8.515640000">
				<ele>908.00000</ele>
			</trkpt>
			<trkpt lat="47.04411000" lon="8.515540000">
				<ele>910.00000</ele>
			</trkpt>
			<trkpt lat="47.04411000" lon="8.515520000">
				<ele>911.00000</ele>
			</trkpt>
			<trkpt lat="47.04412000" lon="8.515490000">
				<ele>912.00000</ele>
			</trkpt>
			<trkpt lat="47.04418000" lon="8.515410000">
				<ele>913.00000</ele>
			</trkpt>
			<trkpt lat="47.04422000" lon="8.515360000">
				<ele>915.00000</ele>
			</trkpt>
			<trkpt lat="47.04429000" lon="8.515250000">
				<ele>920.00000</ele>
			</trkpt>
			<trkpt lat="47.04432000" lon="8.515180000">
				<ele>924.00000</ele>
			</trkpt>
			<trkpt lat="47.04434000" lon="8.515090000">
				<ele>929.00000</ele>
			</trkpt>
			<trkpt lat="47.04439000" lon="8.515000000">
				<ele>934.00000</ele>
			</trkpt>
			<trkpt lat="47.04441000" lon="8.514950000">
				<ele>936.00000</ele>
			</trkpt>
			<trkpt lat="47.04442000" lon="8.514860000">
				<ele>939.00000</ele>
			</trkpt>
			<trkpt lat="47.04442000" lon="8.514840000">
				<ele>940.00000</ele>
			</trkpt>
			<trkpt lat="47.04441000" lon="8.514830000">
				<ele>940.00000</ele>
			</trkpt>
			<trkpt lat="47.04439000" lon="8.514820000">
				<ele>940.00000</ele>
			</trkpt>
			<trkpt lat="47.04433000" lon="8.514820000">
				<ele>940.00000</ele>
			</trkpt>
			<trkpt lat="47.04424000" lon="8.514820000">
				<ele>939.00000</ele>
			</trkpt>
			<trkpt lat="47.04403000" lon="8.514840000">
				<ele>937.00000</ele>
			</trkpt>
			<trkpt lat="47.04384000" lon="8.514840000">
				<ele>937.00000</ele>
			</trkpt>
			<trkpt lat="47.04380000" lon="8.514850000">
				<ele>937.00000</ele>
			</trkpt>
			<trkpt lat="47.04373000" lon="8.514850000">
				<ele>938.00000</ele>
			</trkpt>
			<trkpt lat="47.04368000" lon="8.514830000">
				<ele>940.00000</ele>
			</trkpt>
			<trkpt lat="47.04365000" lon="8.514770000">
				<ele>942.00000</ele>
			</trkpt>
			<trkpt lat="47.04366000" lon="8.514740000">
				<ele>942.00000</ele>
			</trkpt>
			<trkpt lat="47.04365000" lon="8.514710000">
				<ele>943.00000</ele>
			</trkpt>
			<trkpt lat="47.04366000" lon="8.514680000">
				<ele>945.00000</ele>
			</trkpt>
			<trkpt lat="47.04366000" lon="8.514640000">
				<ele>947.00000</ele>
			</trkpt>
			<trkpt lat="47.04366000" lon="8.514590000">
				<ele>949.00000</ele>
			</trkpt>
			<trkpt lat="47.04370000" lon="8.514510000">
				<ele>953.00000</ele>
			</trkpt>
			<trkpt lat="47.04378000" lon="8.514410000">
				<ele>958.00000</ele>
			</trkpt>
			<trkpt lat="47.04400000" lon="8.514110000">
				<ele>971.00000</ele>
			</trkpt>
			<trkpt lat="47.04420000" lon="8.513790000">
				<ele>980.00000</ele>
			</trkpt>
			<trkpt lat="47.04414000" lon="8.513790000">
				<ele>982.00000</ele>
			</trkpt>
			<trkpt lat="47.04408000" lon="8.513810000">
				<ele>983.00000</ele>
			</trkpt>
			<trkpt lat="47.04408000" lon="8.513820000">
				<ele>983.00000</ele>
			</trkpt>
			<trkpt lat="47.04406000" lon="8.513830000">
				<ele>983.00000</ele>
			</trkpt>
			<trkpt lat="47.04403000" lon="8.513850000">
				<ele>983.00000</ele>
			</trkpt>
			<trkpt lat="47.04399000" lon="8.513880000">
				<ele>983.00000</ele>
			</trkpt>
			<trkpt lat="47.04394000" lon="8.513910000">
				<ele>983.00000</ele>
			</trkpt>
			<trkpt lat="47.04391000" lon="8.513920000">
				<ele>984.00000</ele>
			</trkpt>
			<trkpt lat="47.04378000" lon="8.513950000">
				<ele>986.00000</ele>
			</trkpt>
			<trkpt lat="47.04373000" lon="8.513940000">
				<ele>988.00000</ele>
			</trkpt>
			<trkpt lat="47.04371000" lon="8.513960000">
				<ele>987.00000</ele>
			</trkpt>
			<trkpt lat="47.04365000" lon="8.513980000">
				<ele>987.00000</ele>
			</trkpt>
			<trkpt lat="47.04361000" lon="8.514000000">
				<ele>987.00000</ele>
			</trkpt>
			<trkpt lat="47.04359000" lon="8.514010000">
				<ele>987.00000</ele>
			</trkpt>
			<trkpt lat="47.04355000" lon="8.514000000">
				<ele>989.00000</ele>
			</trkpt>
			<trkpt lat="47.04349000" lon="8.514040000">
				<ele>988.00000</ele>
			</trkpt>
			<trkpt lat="47.04345000" lon="8.514090000">
				<ele>986.00000</ele>
			</trkpt>
			<trkpt lat="47.04344000" lon="8.514100000">
				<ele>986.00000</ele>
			</trkpt>
			<trkpt lat="47.04335000" lon="8.514080000">
				<ele>991.00000</ele>
			</trkpt>
			<trkpt lat="47.04330000" lon="8.514100000">
				<ele>992.00000</ele>
			</trkpt>
			<trkpt lat="47.04327000" lon="8.514090000">
				<ele>994.00000</ele>
			</trkpt>
			<trkpt lat="47.04323000" lon="8.514060000">
				<ele>998.00000</ele>
			</trkpt>
			<trkpt lat="47.04321000" lon="8.514070000">
				<ele>998.00000</ele>
			</trkpt>
			<trkpt lat="47.04317000" lon="8.514010000">
				<ele>1003.0000</ele>
			</trkpt>
			<trkpt lat="47.04310000" lon="8.513970000">
				<ele>1009.0000</ele>
			</trkpt>
			<trkpt lat="47.04306000" lon="8.513930000">
				<ele>1013.0000</ele>
			</trkpt>
			<trkpt lat="47.04296000" lon="8.513890000">
				<ele>1018.0000</ele>
			</trkpt>
			<trkpt lat="47.04289000" lon="8.513890000">
				<ele>1019.0000</ele>
			</trkpt>
			<trkpt lat="47.04284000" lon="8.513870000">
				<ele>1021.0000</ele>
			</trkpt>
			<trkpt lat="47.04280000" lon="8.513880000">
				<ele>1022.0000</ele>
			</trkpt>
			<trkpt lat="47.04278000" lon="8.513890000">
				<ele>1021.0000</ele>
			</trkpt>
			<trkpt lat="47.04274000" lon="8.513870000">
				<ele>1022.0000</ele>
			</trkpt>
			<trkpt lat="47.04271000" lon="8.513860000">
				<ele>1023.0000</ele>
			</trkpt>
			<trkpt lat="47.04263000" lon="8.513870000">
				<ele>1022.0000</ele>
			</trkpt>
			<trkpt lat="47.04259000" lon="8.513860000">
				<ele>1023.0000</ele>
			</trkpt>
			<trkpt lat="47.04259000" lon="8.513840000">
				<ele>1024.0000</ele>
			</trkpt>
			<trkpt lat="47.04260000" lon="8.513830000">
				<ele>1025.0000</ele>
			</trkpt>
			<trkpt lat="47.04265000" lon="8.513810000">
				<ele>1026.0000</ele>
			</trkpt>
			<trkpt lat="47.04270000" lon="8.513780000">
				<ele>1027.0000</ele>
			</trkpt>
			<trkpt lat="47.04275000" lon="8.513740000">
				<ele>1029.0000</ele>
			</trkpt>
			<trkpt lat="47.04278000" lon="8.513730000">
				<ele>1029.0000</ele>
			</trkpt>
			<trkpt lat="47.04281000" lon="8.513710000">
				<ele>1030.0000</ele>
			</trkpt>
			<trkpt lat="47.04291000" lon="8.513700000">
				<ele>1028.0000</ele>
			</trkpt>
			<trkpt lat="47.04307000" lon="8.513700000">
				<ele>1024.0000</ele>
			</trkpt>
			<trkpt lat="47.04316000" lon="8.513750000">
				<ele>1019.0000</ele>
			</trkpt>
			<trkpt lat="47.04328000" lon="8.513720000">
				<ele>1016.0000</ele>
			</trkpt>
			<trkpt lat="47.04346000" lon="8.513580000">
				<ele>1016.0000</ele>
			</trkpt>
			<trkpt lat="47.04356000" lon="8.513350000">
				<ele>1020.0000</ele>
			</trkpt>
			<trkpt lat="47.04357000" lon="8.513330000">
				<ele>1021.0000</ele>
			</trkpt>
			<trkpt lat="47.04358000" lon="8.513320000">
				<ele>1021.0000</ele>
			</trkpt>
			<trkpt lat="47.04369000" lon="8.513200000">
				<ele>1023.0000</ele>
			</trkpt>
			<trkpt lat="47.04387000" lon="8.512910000">
				<ele>1034.0000</ele>
			</trkpt>
			<trkpt lat="47.04398000" lon="8.512740000">
				<ele>1040.0000</ele>
			</trkpt>
			<trkpt lat="47.04424000" lon="8.512630000">
				<ele>1038.0000</ele>
			</trkpt>
			<trkpt lat="47.04427000" lon="8.512600000">
				<ele>1038.0000</ele>
			</trkpt>
			<trkpt lat="47.04429000" lon="8.512580000">
				<ele>1039.0000</ele>
			</trkpt>
			<trkpt lat="47.04454000" lon="8.512310000">
				<ele>1045.0000</ele>
			</trkpt>
			<trkpt lat="47.04464000" lon="8.512180000">
				<ele>1051.0000</ele>
			</trkpt>
			<trkpt lat="47.04466000" lon="8.512150000">
				<ele>1052.0000</ele>
			</trkpt>
			<trkpt lat="47.04473000" lon="8.511960000">
				<ele>1059.0000</ele>
			</trkpt>
			<trkpt lat="47.04479000" lon="8.511870000">
				<ele>1061.0000</ele>
			</trkpt>
			<trkpt lat="47.04493000" lon="8.511850000">
				<ele>1060.0000</ele>
			</trkpt>
			<trkpt lat="47.04496000" lon="8.511830000">
				<ele>1060.0000</ele>
			</trkpt>
			<trkpt lat="47.04500000" lon="8.511800000">
				<ele>1061.0000</ele>
			</trkpt>
			<trkpt lat="47.04509000" lon="8.511620000">
				<ele>1065.0000</ele>
			</trkpt>
			<trkpt lat="47.04518000" lon="8.511580000">
				<ele>1066.0000</ele>
			</trkpt>
			<trkpt lat="47.04528000" lon="8.511610000">
				<ele>1064.0000</ele>
			</trkpt>
			<trkpt lat="47.04537000" lon="8.511560000">
				<ele>1064.0000</ele>
			</trkpt>
			<trkpt lat="47.04541000" lon="8.511430000">
				<ele>1068.0000</ele>
			</trkpt>
			<trkpt lat="47.04542000" lon="8.511360000">
				<ele>1070.0000</ele>
			</trkpt>
			<trkpt lat="47.04546000" lon="8.511310000">
				<ele>1071.0000</ele>
			</trkpt>
			<trkpt lat="47.04551000" lon="8.511260000">
				<ele>1071.0000</ele>
			</trkpt>
			<trkpt lat="47.04565000" lon="8.511210000">
				<ele>1070.0000</ele>
			</trkpt>
			<trkpt lat="47.04567000" lon="8.511210000">
				<ele>1070.0000</ele>
			</trkpt>
			<trkpt lat="47.04569000" lon="8.511200000">
				<ele>1069.0000</ele>
			</trkpt>
			<trkpt lat="47.04576000" lon="8.511110000">
				<ele>1070.0000</ele>
			</trkpt>
			<trkpt lat="47.04581000" lon="8.511000000">
				<ele>1074.0000</ele>
			</trkpt>
			<trkpt lat="47.04596000" lon="8.510900000">
				<ele>1078.0000</ele>
			</trkpt>
			<trkpt lat="47.04602000" lon="8.510850000">
				<ele>1080.0000</ele>
			</trkpt>
			<trkpt lat="47.04610000" lon="8.510710000">
				<ele>1085.0000</ele>
			</trkpt>
			<trkpt lat="47.04626000" lon="8.510600000">
				<ele>1086.0000</ele>
			</trkpt>
			<trkpt lat="47.04634000" lon="8.510520000">
				<ele>1088.0000</ele>
			</trkpt>
			<trkpt lat="47.04639000" lon="8.510510000">
				<ele>1088.0000</ele>
			</trkpt>
			<trkpt lat="47.04647000" lon="8.510490000">
				<ele>1087.0000</ele>
			</trkpt>
			<trkpt lat="47.04652000" lon="8.510460000">
				<ele>1087.0000</ele>
			</trkpt>
			<trkpt lat="47.04656000" lon="8.510350000">
				<ele>1090.0000</ele>
			</trkpt>
			<trkpt lat="47.04675000" lon="8.510270000">
				<ele>1090.0000</ele>
			</trkpt>
			<trkpt lat="47.04679000" lon="8.510230000">
				<ele>1090.0000</ele>
			</trkpt>
			<trkpt lat="47.04683000" lon="8.510180000">
				<ele>1091.0000</ele>
			</trkpt>
			<trkpt lat="47.04696000" lon="8.510150000">
				<ele>1089.0000</ele>
			</trkpt>
			<trkpt lat="47.04720000" lon="8.510090000">
				<ele>1084.0000</ele>
			</trkpt>
			<trkpt lat="47.04722000" lon="8.510080000">
				<ele>1084.0000</ele>
			</trkpt>
			<trkpt lat="47.04744000" lon="8.509940000">
				<ele>1085.0000</ele>
			</trkpt>
			<trkpt lat="47.04773000" lon="8.509720000">
				<ele>1090.0000</ele>
			</trkpt>
			<trkpt lat="47.04796000" lon="8.509630000">
				<ele>1090.0000</ele>
			</trkpt>
			<trkpt lat="47.04803000" lon="8.509580000">
				<ele>1091.0000</ele>
			</trkpt>
			<trkpt lat="47.04804000" lon="8.509570000">
				<ele>1091.0000</ele>
			</trkpt>
			<trkpt lat="47.04821000" lon="8.509460000">
				<ele>1093.0000</ele>
			</trkpt>
			<trkpt lat="47.04830000" lon="8.509350000">
				<ele>1097.0000</ele>
			</trkpt>
			<trkpt lat="47.04857000" lon="8.509310000">
				<ele>1093.0000</ele>
			</trkpt>
			<trkpt lat="47.04863000" lon="8.509170000">
				<ele>1099.0000</ele>
			</trkpt>
			<trkpt lat="47.04856000" lon="8.509070000">
				<ele>1105.0000</ele>
			</trkpt>
			<trkpt lat="47.04846000" lon="8.509030000">
				<ele>1110.0000</ele>
			</trkpt>
			<trkpt lat="47.04845000" lon="8.509020000">
				<ele>1111.0000</ele>
			</trkpt>
			<trkpt lat="47.04839000" lon="8.509000000">
				<ele>1114.0000</ele>
			</trkpt>
			<trkpt lat="47.04827000" lon="8.509010000">
				<ele>1116.0000</ele>
			</trkpt>
			<trkpt lat="47.04819000" lon="8.509040000">
				<ele>1116.0000</ele>
			</trkpt>
			<trkpt lat="47.04811000" lon="8.509030000">
				<ele>1118.0000</ele>
			</trkpt>
			<trkpt lat="47.04801000" lon="8.509070000">
				<ele>1117.0000</ele>
			</trkpt>
			<trkpt lat="47.04788000" lon="8.509030000">
				<ele>1121.0000</ele>
			</trkpt>
			<trkpt lat="47.04773000" lon="8.509110000">
				<ele>1118.0000</ele>
			</trkpt>
			<trkpt lat="47.04764000" lon="8.509150000">
				<ele>1118.0000</ele>
			</trkpt>
			<trkpt lat="47.04759000" lon="8.509140000">
				<ele>1119.0000</ele>
			</trkpt>
			<trkpt lat="47.04736000" lon="8.509110000">
				<ele>1128.0000</ele>
			</trkpt>
			<trkpt lat="47.04725000" lon="8.509120000">
				<ele>1131.0000</ele>
			</trkpt>
			<trkpt lat="47.04707000" lon="8.509150000">
				<ele>1135.0000</ele>
			</trkpt>
			<trkpt lat="47.04701000" lon="8.509070000">
				<ele>1142.0000</ele>
			</trkpt>
			<trkpt lat="47.04705000" lon="8.508990000">
				<ele>1145.0000</ele>
			</trkpt>
			<trkpt lat="47.04715000" lon="8.508910000">
				<ele>1146.0000</ele>
			</trkpt>
			<trkpt lat="47.04725000" lon="8.508830000">
				<ele>1147.0000</ele>
			</trkpt>
			<trkpt lat="47.04726000" lon="8.508810000">
				<ele>1147.0000</ele>
			</trkpt>
			<trkpt lat="47.04727000" lon="8.508810000">
				<ele>1147.0000</ele>
			</trkpt>
			<trkpt lat="47.04730000" lon="8.508780000">
				<ele>1147.0000</ele>
			</trkpt>
			<trkpt lat="47.04764000" lon="8.508360000">
				<ele>1156.0000</ele>
			</trkpt>
			<trkpt lat="47.04777000" lon="8.508100000">
				<ele>1161.0000</ele>
			</trkpt>
			<trkpt lat="47.04791000" lon="8.507960000">
				<ele>1163.0000</ele>
			</trkpt>
			<trkpt lat="47.04792000" lon="8.507950000">
				<ele>1163.0000</ele>
			</trkpt>
			<trkpt lat="47.04805000" lon="8.507790000">
				<ele>1164.0000</ele>
			</trkpt>
			<trkpt lat="47.04826000" lon="8.507660000">
				<ele>1163.0000</ele>
			</trkpt>
			<trkpt lat="47.04831000" lon="8.507600000">
				<ele>1163.0000</ele>
			</trkpt>
			<trkpt lat="47.04838000" lon="8.507520000">
				<ele>1164.0000</ele>
			</trkpt>
			<trkpt lat="47.04849000" lon="8.507310000">
				<ele>1170.0000</ele>
			</trkpt>
			<trkpt lat="47.04851000" lon="8.507280000">
				<ele>1171.0000</ele>
			</trkpt>
			<trkpt lat="47.04854000" lon="8.507160000">
				<ele>1175.0000</ele>
			</trkpt>
			<trkpt lat="47.04858000" lon="8.507150000">
				<ele>1174.0000</ele>
			</trkpt>
			<trkpt lat="47.04859000" lon="8.507150000">
				<ele>1174.0000</ele>
			</trkpt>
			<trkpt lat="47.04860000" lon="8.507160000">
				<ele>1174.0000</ele>
			</trkpt>
			<trkpt lat="47.04873000" lon="8.507220000">
				<ele>1169.0000</ele>
			</trkpt>
			<trkpt lat="47.04883000" lon="8.507220000">
				<ele>1168.0000</ele>
			</trkpt>
			<trkpt lat="47.04899000" lon="8.507160000">
				<ele>1168.0000</ele>
			</trkpt>
			<trkpt lat="47.04908000" lon="8.507090000">
				<ele>1171.0000</ele>
			</trkpt>
			<trkpt lat="47.04912000" lon="8.506970000">
				<ele>1176.0000</ele>
			</trkpt>
			<trkpt lat="47.04913000" lon="8.506780000">
				<ele>1182.0000</ele>
			</trkpt>
			<trkpt lat="47.04918000" lon="8.506630000">
				<ele>1187.0000</ele>
			</trkpt>
			<trkpt lat="47.04922000" lon="8.506630000">
				<ele>1187.0000</ele>
			</trkpt>
			<trkpt lat="47.04924000" lon="8.506620000">
				<ele>1187.0000</ele>
			</trkpt>
			<trkpt lat="47.04929000" lon="8.506620000">
				<ele>1187.0000</ele>
			</trkpt>
			<trkpt lat="47.04938000" lon="8.506730000">
				<ele>1182.0000</ele>
			</trkpt>
			<trkpt lat="47.04946000" lon="8.506750000">
				<ele>1181.0000</ele>
			</trkpt>
			<trkpt lat="47.04957000" lon="8.506700000">
				<ele>1183.0000</ele>
			</trkpt>
			<trkpt lat="47.04991000" lon="8.506450000">
				<ele>1190.0000</ele>
			</trkpt>
			<trkpt lat="47.04996000" lon="8.506380000">
				<ele>1192.0000</ele>
			</trkpt>
			<trkpt lat="47.05001000" lon="8.506330000">
				<ele>1194.0000</ele>
			</trkpt>
			<trkpt lat="47.05006000" lon="8.506300000">
				<ele>1194.0000</ele>
			</trkpt>
			<trkpt lat="47.05011000" lon="8.506250000">
				<ele>1194.0000</ele>
			</trkpt>
			<trkpt lat="47.05016000" lon="8.506180000">
				<ele>1195.0000</ele>
			</trkpt>
			<trkpt lat="47.05019000" lon="8.506160000">
				<ele>1195.0000</ele>
			</trkpt>
			<trkpt lat="47.05022000" lon="8.506120000">
				<ele>1195.0000</ele>
			</trkpt>
			<trkpt lat="47.05023000" lon="8.506110000">
				<ele>1195.0000</ele>
			</trkpt>
			<trkpt lat="47.05024000" lon="8.506090000">
				<ele>1196.0000</ele>
			</trkpt>
			<trkpt lat="47.05026000" lon="8.506050000">
				<ele>1197.0000</ele>
			</trkpt>
			<trkpt lat="47.05028000" lon="8.506030000">
				<ele>1197.0000</ele>
			</trkpt>
			<trkpt lat="47.05034000" lon="8.506010000">
				<ele>1196.0000</ele>
			</trkpt>
			<trkpt lat="47.05041000" lon="8.505950000">
				<ele>1196.0000</ele>
			</trkpt>
			<trkpt lat="47.05043000" lon="8.505920000">
				<ele>1196.0000</ele>
			</trkpt>
			<trkpt lat="47.05047000" lon="8.505890000">
				<ele>1196.0000</ele>
			</trkpt>
			<trkpt lat="47.05049000" lon="8.505840000">
				<ele>1197.0000</ele>
			</trkpt>
			<trkpt lat="47.05053000" lon="8.505810000">
				<ele>1197.0000</ele>
			</trkpt>
			<trkpt lat="47.05059000" lon="8.505760000">
				<ele>1196.0000</ele>
			</trkpt>
			<trkpt lat="47.05061000" lon="8.505740000">
				<ele>1197.0000</ele>
			</trkpt>
			<trkpt lat="47.05067000" lon="8.505650000">
				<ele>1198.0000</ele>
			</trkpt>
			<trkpt lat="47.05071000" lon="8.505590000">
				<ele>1200.0000</ele>
			</trkpt>
			<trkpt lat="47.05074000" lon="8.505550000">
				<ele>1200.0000</ele>
			</trkpt>
			<trkpt lat="47.05077000" lon="8.505520000">
				<ele>1201.0000</ele>
			</trkpt>
			<trkpt lat="47.05080000" lon="8.505480000">
				<ele>1202.0000</ele>
			</trkpt>
			<trkpt lat="47.05086000" lon="8.505450000">
				<ele>1202.0000</ele>
			</trkpt>
			<trkpt lat="47.05089000" lon="8.505400000">
				<ele>1204.0000</ele>
			</trkpt>
			<trkpt lat="47.05094000" lon="8.505350000">
				<ele>1205.0000</ele>
			</trkpt>
			<trkpt lat="47.05097000" lon="8.505310000">
				<ele>1206.0000</ele>
			</trkpt>
			<trkpt lat="47.05101000" lon="8.505250000">
				<ele>1208.0000</ele>
			</trkpt>
			<trkpt lat="47.05105000" lon="8.505160000">
				<ele>1210.0000</ele>
			</trkpt>
			<trkpt lat="47.05106000" lon="8.505130000">
				<ele>1210.0000</ele>
			</trkpt>
			<trkpt lat="47.05107000" lon="8.505040000">
				<ele>1213.0000</ele>
			</trkpt>
			<trkpt lat="47.05108000" lon="8.505010000">
				<ele>1214.0000</ele>
			</trkpt>
			<trkpt lat="47.05115000" lon="8.504850000">
				<ele>1217.0000</ele>
			</trkpt>
			<trkpt lat="47.05119000" lon="8.504720000">
				<ele>1220.0000</ele>
			</trkpt>
			<trkpt lat="47.05125000" lon="8.504640000">
				<ele>1221.0000</ele>
			</trkpt>
			<trkpt lat="47.05126000" lon="8.504620000">
				<ele>1221.0000</ele>
			</trkpt>
			<trkpt lat="47.05126000" lon="8.504600000">
				<ele>1222.0000</ele>
			</trkpt>
			<trkpt lat="47.05126000" lon="8.504570000">
				<ele>1223.0000</ele>
			</trkpt>
			<trkpt lat="47.05126000" lon="8.504560000">
				<ele>1223.0000</ele>
			</trkpt>
			<trkpt lat="47.05127000" lon="8.504530000">
				<ele>1224.0000</ele>
			</trkpt>
			<trkpt lat="47.05128000" lon="8.504480000">
				<ele>1226.0000</ele>
			</trkpt>
			<trkpt lat="47.05135000" lon="8.504220000">
				<ele>1233.0000</ele>
			</trkpt>
			<trkpt lat="47.05145000" lon="8.503800000">
				<ele>1241.0000</ele>
			</trkpt>
			<trkpt lat="47.05158000" lon="8.503410000">
				<ele>1238.0000</ele>
			</trkpt>
			<trkpt lat="47.05161000" lon="8.503350000">
				<ele>1237.0000</ele>
			</trkpt>
			<trkpt lat="47.05168000" lon="8.503200000">
				<ele>1235.0000</ele>
			</trkpt>
			<trkpt lat="47.05170000" lon="8.503070000">
				<ele>1237.0000</ele>
			</trkpt>
			<trkpt lat="47.05171000" lon="8.502960000">
				<ele>1238.0000</ele>
			</trkpt>
			<trkpt lat="47.05177000" lon="8.502890000">
				<ele>1236.0000</ele>
			</trkpt>
			<trkpt lat="47.05179000" lon="8.502870000">
				<ele>1236.0000</ele>
			</trkpt>
			<trkpt lat="47.05184000" lon="8.502850000">
				<ele>1234.0000</ele>
			</trkpt>
			<trkpt lat="47.05187000" lon="8.502850000">
				<ele>1233.0000</ele>
			</trkpt>
			<trkpt lat="47.05189000" lon="8.502860000">
				<ele>1232.0000</ele>
			</trkpt>
			<trkpt lat="47.05195000" lon="8.502880000">
				<ele>1230.0000</ele>
			</trkpt>
			<trkpt lat="47.05204000" lon="8.502930000">
				<ele>1228.0000</ele>
			</trkpt>
			<trkpt lat="47.05209000" lon="8.502930000">
				<ele>1228.0000</ele>
			</trkpt>
			<trkpt lat="47.05218000" lon="8.502900000">
				<ele>1228.0000</ele>
			</trkpt>
			<trkpt lat="47.05225000" lon="8.502890000">
				<ele>1228.0000</ele>
			</trkpt>
			<trkpt lat="47.05229000" lon="8.502880000">
				<ele>1229.0000</ele>
			</trkpt>
			<trkpt lat="47.05230000" lon="8.502880000">
				<ele>1229.0000</ele>
			</trkpt>
			<trkpt lat="47.05234000" lon="8.502890000">
				<ele>1229.0000</ele>
			</trkpt>
			<trkpt lat="47.05237000" lon="8.502890000">
				<ele>1230.0000</ele>
			</trkpt>
			<trkpt lat="47.05240000" lon="8.502870000">
				<ele>1231.0000</ele>
			</trkpt>
			<trkpt lat="47.05244000" lon="8.502840000">
				<ele>1232.0000</ele>
			</trkpt>
			<trkpt lat="47.05248000" lon="8.502780000">
				<ele>1234.0000</ele>
			</trkpt>
			<trkpt lat="47.05250000" lon="8.502720000">
				<ele>1236.0000</ele>
			</trkpt>
			<trkpt lat="47.05251000" lon="8.502700000">
				<ele>1236.0000</ele>
			</trkpt>
			<trkpt lat="47.05252000" lon="8.502670000">
				<ele>1237.0000</ele>
			</trkpt>
			<trkpt lat="47.05247000" lon="8.502640000">
				<ele>1238.0000</ele>
			</trkpt>
			<trkpt lat="47.05241000" lon="8.502630000">
				<ele>1238.0000</ele>
			</trkpt>
			<trkpt lat="47.05235000" lon="8.502600000">
				<ele>1239.0000</ele>
			</trkpt>
			<trkpt lat="47.05233000" lon="8.502570000">
				<ele>1240.0000</ele>
			</trkpt>
			<trkpt lat="47.05231000" lon="8.502510000">
				<ele>1242.0000</ele>
			</trkpt>
			<trkpt lat="47.05234000" lon="8.502440000">
				<ele>1245.0000</ele>
			</trkpt>
			<trkpt lat="47.05237000" lon="8.502360000">
				<ele>1248.0000</ele>
			</trkpt>
			<trkpt lat="47.05240000" lon="8.502310000">
				<ele>1250.0000</ele>
			</trkpt>
			<trkpt lat="47.05244000" lon="8.502280000">
				<ele>1251.0000</ele>
			</trkpt>
			<trkpt lat="47.05248000" lon="8.502240000">
				<ele>1252.0000</ele>
			</trkpt>
			<trkpt lat="47.05256000" lon="8.502200000">
				<ele>1252.0000</ele>
			</trkpt>
			<trkpt lat="47.05268000" lon="8.502170000">
				<ele>1250.0000</ele>
			</trkpt>
			<trkpt lat="47.05277000" lon="8.502170000">
				<ele>1248.0000</ele>
			</trkpt>
			<trkpt lat="47.05280000" lon="8.502110000">
				<ele>1250.0000</ele>
			</trkpt>
			<trkpt lat="47.05279000" lon="8.502060000">
				<ele>1253.0000</ele>
			</trkpt>
			<trkpt lat="47.05292000" lon="8.501890000">
				<ele>1256.0000</ele>
			</trkpt>
			<trkpt lat="47.05299000" lon="8.501710000">
				<ele>1262.0000</ele>
			</trkpt>
			<trkpt lat="47.05295000" lon="8.501550000">
				<ele>1271.0000</ele>
			</trkpt>
			<trkpt lat="47.05297000" lon="8.501490000">
				<ele>1273.0000</ele>
			</trkpt>
			<trkpt lat="47.05301000" lon="8.501320000">
				<ele>1279.0000</ele>
			</trkpt>
			<trkpt lat="47.05308000" lon="8.501070000">
				<ele>1286.0000</ele>
			</trkpt>
			<trkpt lat="47.05319000" lon="8.500920000">
				<ele>1288.0000</ele>
			</trkpt>
			<trkpt lat="47.05331000" lon="8.500730000">
				<ele>1292.0000</ele>
			</trkpt>
			<trkpt lat="47.05335000" lon="8.500670000">
				<ele>1294.0000</ele>
			</trkpt>
			<trkpt lat="47.05348000" lon="8.500570000">
				<ele>1294.0000</ele>
			</trkpt>
			<trkpt lat="47.05358000" lon="8.500510000">
				<ele>1292.0000</ele>
			</trkpt>
			<trkpt lat="47.05387000" lon="8.500470000">
				<ele>1288.0000</ele>
			</trkpt>
			<trkpt lat="47.05400000" lon="8.500320000">
				<ele>1291.0000</ele>
			</trkpt>
			<trkpt lat="47.05401000" lon="8.500320000">
				<ele>1291.0000</ele>
			</trkpt>
			<trkpt lat="47.05416000" lon="8.500260000">
				<ele>1294.0000</ele>
			</trkpt>
			<trkpt lat="47.05440000" lon="8.500230000">
				<ele>1296.0000</ele>
			</trkpt>
			<trkpt lat="47.05441000" lon="8.500230000">
				<ele>1296.0000</ele>
			</trkpt>
			<trkpt lat="47.05446000" lon="8.500220000">
				<ele>1297.0000</ele>
			</trkpt>
			<trkpt lat="47.05453000" lon="8.500180000">
				<ele>1298.0000</ele>
			</trkpt>
			<trkpt lat="47.05472000" lon="8.500060000">
				<ele>1301.0000</ele>
			</trkpt>
			<trkpt lat="47.05477000" lon="8.500060000">
				<ele>1301.0000</ele>
			</trkpt>
			<trkpt lat="47.05481000" lon="8.500020000">
				<ele>1303.0000</ele>
			</trkpt>
			<trkpt lat="47.05491000" lon="8.499910000">
				<ele>1308.0000</ele>
			</trkpt>
			<trkpt lat="47.05499000" lon="8.499890000">
				<ele>1310.0000</ele>
			</trkpt>
			<trkpt lat="47.05504000" lon="8.499820000">
				<ele>1313.0000</ele>
			</trkpt>
			<trkpt lat="47.05514000" lon="8.499670000">
				<ele>1321.0000</ele>
			</trkpt>
			<trkpt lat="47.05522000" lon="8.499610000">
				<ele>1325.0000</ele>
			</trkpt>
			<trkpt lat="47.05528000" lon="8.499520000">
				<ele>1332.0000</ele>
			</trkpt>
			<trkpt lat="47.05530000" lon="8.499490000">
				<ele>1333.0000</ele>
			</trkpt>
			<trkpt lat="47.05535000" lon="8.499430000">
				<ele>1337.0000</ele>
			</trkpt>
			<trkpt lat="47.05546000" lon="8.499380000">
				<ele>1339.0000</ele>
			</trkpt>
			<trkpt lat="47.05548000" lon="8.499350000">
				<ele>1341.0000</ele>
			</trkpt>
			<trkpt lat="47.05553000" lon="8.499350000">
				<ele>1340.0000</ele>
			</trkpt>
			<trkpt lat="47.05557000" lon="8.499340000">
				<ele>1340.0000</ele>
			</trkpt>
			<trkpt lat="47.05558000" lon="8.499340000">
				<ele>1339.0000</ele>
			</trkpt>
			<trkpt lat="47.05560000" lon="8.499330000">
				<ele>1339.0000</ele>
			</trkpt>
			<trkpt lat="47.05564000" lon="8.499270000">
				<ele>1339.0000</ele>
			</trkpt>
			<trkpt lat="47.05563000" lon="8.499240000">
				<ele>1342.0000</ele>
			</trkpt>
			<trkpt lat="47.05563000" lon="8.499220000">
				<ele>1343.0000</ele>
			</trkpt>
			<trkpt lat="47.05566000" lon="8.499190000">
				<ele>1343.0000</ele>
			</trkpt>
			<trkpt lat="47.05567000" lon="8.499170000">
				<ele>1343.0000</ele>
			</trkpt>
			<trkpt lat="47.05567000" lon="8.499140000">
				<ele>1345.0000</ele>
			</trkpt>
			<trkpt lat="47.05569000" lon="8.499130000">
				<ele>1344.0000</ele>
			</trkpt>
			<trkpt lat="47.05570000" lon="8.499100000">
				<ele>1345.0000</ele>
			</trkpt>
			<trkpt lat="47.05570000" lon="8.499060000">
				<ele>1347.0000</ele>
			</trkpt>
			<trkpt lat="47.05560000" lon="8.499040000">
				<ele>1353.0000</ele>
			</trkpt>
			<trkpt lat="47.05556000" lon="8.499000000">
				<ele>1357.0000</ele>
			</trkpt>
			<trkpt lat="47.05556000" lon="8.498970000">
				<ele>1358.0000</ele>
			</trkpt>
			<trkpt lat="47.05558000" lon="8.498950000">
				<ele>1358.0000</ele>
			</trkpt>
			<trkpt lat="47.05563000" lon="8.498940000">
				<ele>1356.0000</ele>
			</trkpt>
			<trkpt lat="47.05564000" lon="8.498920000">
				<ele>1357.0000</ele>
			</trkpt>
			<trkpt lat="47.05561000" lon="8.498890000">
				<ele>1360.0000</ele>
			</trkpt>
			<trkpt lat="47.05560000" lon="8.498880000">
				<ele>1361.0000</ele>
			</trkpt>
			<trkpt lat="47.05560000" lon="8.498860000">
				<ele>1361.0000</ele>
			</trkpt>
			<trkpt lat="47.05566000" lon="8.498860000">
				<ele>1358.0000</ele>
			</trkpt>
			<trkpt lat="47.05568000" lon="8.498840000">
				<ele>1358.0000</ele>
			</trkpt>
			<trkpt lat="47.05571000" lon="8.498840000">
				<ele>1356.0000</ele>
			</trkpt>
			<trkpt lat="47.05573000" lon="8.498820000">
				<ele>1356.0000</ele>
			</trkpt>
			<trkpt lat="47.05570000" lon="8.498790000">
				<ele>1359.0000</ele>
			</trkpt>
			<trkpt lat="47.05570000" lon="8.498760000">
				<ele>1359.0000</ele>
			</trkpt>
			<trkpt lat="47.05571000" lon="8.498750000">
				<ele>1359.0000</ele>
			</trkpt>
			<trkpt lat="47.05573000" lon="8.498740000">
				<ele>1359.0000</ele>
			</trkpt>
			<trkpt lat="47.05572000" lon="8.498720000">
				<ele>1360.0000</ele>
			</trkpt>
			<trkpt lat="47.05563000" lon="8.498620000">
				<ele>1367.0000</ele>
			</trkpt>
			<trkpt lat="47.05565000" lon="8.498560000">
				<ele>1367.0000</ele>
			</trkpt>
			<trkpt lat="47.05565000" lon="8.498530000">
				<ele>1368.0000</ele>
			</trkpt>
			<trkpt lat="47.05565000" lon="8.498510000">
				<ele>1368.0000</ele>
			</trkpt>
			<trkpt lat="47.05567000" lon="8.498370000">
				<ele>1370.0000</ele>
			</trkpt>
			<trkpt lat="47.05568000" lon="8.498290000">
				<ele>1372.0000</ele>
			</trkpt>
			<trkpt lat="47.05568000" lon="8.498240000">
				<ele>1373.0000</ele>
			</trkpt>
			<trkpt lat="47.05566000" lon="8.498190000">
				<ele>1374.0000</ele>
			</trkpt>
			<trkpt lat="47.05565000" lon="8.498120000">
				<ele>1376.0000</ele>
			</trkpt>
			<trkpt lat="47.05567000" lon="8.498100000">
				<ele>1376.0000</ele>
			</trkpt>
			<trkpt lat="47.05566000" lon="8.498070000">
				<ele>1377.0000</ele>
			</trkpt>
			<trkpt lat="47.05566000" lon="8.498060000">
				<ele>1377.0000</ele>
			</trkpt>
			<trkpt lat="47.05567000" lon="8.498000000">
				<ele>1378.0000</ele>
			</trkpt>
			<trkpt lat="47.05568000" lon="8.497900000">
				<ele>1380.0000</ele>
			</trkpt>
			<trkpt lat="47.05568000" lon="8.497840000">
				<ele>1382.0000</ele>
			</trkpt>
			<trkpt lat="47.05567000" lon="8.497790000">
				<ele>1383.0000</ele>
			</trkpt>
			<trkpt lat="47.05565000" lon="8.497720000">
				<ele>1385.0000</ele>
			</trkpt>
			<trkpt lat="47.05565000" lon="8.497700000">
				<ele>1385.0000</ele>
			</trkpt>
			<trkpt lat="47.05566000" lon="8.497670000">
				<ele>1386.0000</ele>
			</trkpt>
			<trkpt lat="47.05566000" lon="8.497640000">
				<ele>1387.0000</ele>
			</trkpt>
			<trkpt lat="47.05564000" lon="8.497610000">
				<ele>1388.0000</ele>
			</trkpt>
			<trkpt lat="47.05563000" lon="8.497590000">
				<ele>1388.0000</ele>
			</trkpt>
			<trkpt lat="47.05565000" lon="8.497570000">
				<ele>1388.0000</ele>
			</trkpt>
			<trkpt lat="47.05567000" lon="8.497540000">
				<ele>1389.0000</ele>
			</trkpt>
			<trkpt lat="47.05568000" lon="8.497480000">
				<ele>1391.0000</ele>
			</trkpt>
			<trkpt lat="47.05567000" lon="8.497440000">
				<ele>1393.0000</ele>
			</trkpt>
			<trkpt lat="47.05560000" lon="8.497350000">
				<ele>1397.0000</ele>
			</trkpt>
			<trkpt lat="47.05558000" lon="8.497310000">
				<ele>1399.0000</ele>
			</trkpt>
			<trkpt lat="47.05555000" lon="8.497300000">
				<ele>1400.0000</ele>
			</trkpt>
			<trkpt lat="47.05553000" lon="8.497280000">
				<ele>1400.0000</ele>
			</trkpt>
			<trkpt lat="47.05550000" lon="8.497250000">
				<ele>1401.0000</ele>
			</trkpt>
			<trkpt lat="47.05550000" lon="8.497230000">
				<ele>1402.0000</ele>
			</trkpt>
			<trkpt lat="47.05552000" lon="8.497230000">
				<ele>1402.0000</ele>
			</trkpt>
			<trkpt lat="47.05553000" lon="8.497230000">
				<ele>1403.0000</ele>
			</trkpt>
			<trkpt lat="47.05556000" lon="8.497220000">
				<ele>1404.0000</ele>
			</trkpt>
			<trkpt lat="47.05559000" lon="8.497200000">
				<ele>1405.0000</ele>
			</trkpt>
			<trkpt lat="47.05563000" lon="8.497200000">
				<ele>1405.0000</ele>
			</trkpt>
			<trkpt lat="47.05568000" lon="8.497180000">
				<ele>1406.0000</ele>
			</trkpt>
			<trkpt lat="47.05569000" lon="8.497180000">
				<ele>1406.0000</ele>
			</trkpt>
			<trkpt lat="47.05573000" lon="8.497170000">
				<ele>1406.0000</ele>
			</trkpt>
			<trkpt lat="47.05574000" lon="8.497150000">
				<ele>1407.0000</ele>
			</trkpt>
			<trkpt lat="47.05573000" lon="8.497120000">
				<ele>1409.0000</ele>
			</trkpt>
			<trkpt lat="47.05571000" lon="8.497110000">
				<ele>1409.0000</ele>
			</trkpt>
			<trkpt lat="47.05570000" lon="8.497100000">
				<ele>1410.0000</ele>
			</trkpt>
			<trkpt lat="47.05569000" lon="8.497090000">
				<ele>1410.0000</ele>
			</trkpt>
			<trkpt lat="47.05567000" lon="8.497050000">
				<ele>1412.0000</ele>
			</trkpt>
			<trkpt lat="47.05564000" lon="8.496980000">
				<ele>1415.0000</ele>
			</trkpt>
			<trkpt lat="47.05559000" lon="8.496940000">
				<ele>1416.0000</ele>
			</trkpt>
			<trkpt lat="47.05558000" lon="8.496900000">
				<ele>1418.0000</ele>
			</trkpt>
			<trkpt lat="47.05558000" lon="8.496880000">
				<ele>1418.0000</ele>
			</trkpt>
			<trkpt lat="47.05558000" lon="8.496850000">
				<ele>1419.0000</ele>
			</trkpt>
			<trkpt lat="47.05555000" lon="8.496770000">
				<ele>1422.0000</ele>
			</trkpt>
			<trkpt lat="47.05555000" lon="8.496730000">
				<ele>1423.0000</ele>
			</trkpt>
			<trkpt lat="47.05554000" lon="8.496700000">
				<ele>1424.0000</ele>
			</trkpt>
			<trkpt lat="47.05554000" lon="8.496690000">
				<ele>1424.0000</ele>
			</trkpt>
			<trkpt lat="47.05554000" lon="8.496670000">
				<ele>1425.0000</ele>
			</trkpt>
			<trkpt lat="47.05556000" lon="8.496670000">
				<ele>1426.0000</ele>
			</trkpt>
			<trkpt lat="47.05556000" lon="8.496660000">
				<ele>1426.0000</ele>
			</trkpt>
			<trkpt lat="47.05555000" lon="8.496630000">
				<ele>1427.0000</ele>
			</trkpt>
			<trkpt lat="47.05552000" lon="8.496590000">
				<ele>1427.0000</ele>
			</trkpt>
			<trkpt lat="47.05549000" lon="8.496550000">
				<ele>1427.0000</ele>
			</trkpt>
			<trkpt lat="47.05549000" lon="8.496530000">
				<ele>1428.0000</ele>
			</trkpt>
			<trkpt lat="47.05549000" lon="8.496500000">
				<ele>1429.0000</ele>
			</trkpt>
			<trkpt lat="47.05548000" lon="8.496480000">
				<ele>1430.0000</ele>
			</trkpt>
			<trkpt lat="47.05545000" lon="8.496450000">
				<ele>1430.0000</ele>
			</trkpt>
			<trkpt lat="47.05543000" lon="8.496420000">
				<ele>1430.0000</ele>
			</trkpt>
			<trkpt lat="47.05543000" lon="8.496380000">
				<ele>1432.0000</ele>
			</trkpt>
			<trkpt lat="47.05543000" lon="8.496320000">
				<ele>1434.0000</ele>
			</trkpt>
			<trkpt lat="47.05542000" lon="8.496300000">
				<ele>1435.0000</ele>
			</trkpt>
			<trkpt lat="47.05534000" lon="8.496100000">
				<ele>1441.0000</ele>
			</trkpt>
			<trkpt lat="47.05536000" lon="8.496020000">
				<ele>1445.0000</ele>
			</trkpt>
			<trkpt lat="47.05536000" lon="8.495990000">
				<ele>1447.0000</ele>
			</trkpt>
			<trkpt lat="47.05535000" lon="8.495920000">
				<ele>1450.0000</ele>
			</trkpt>
			<trkpt lat="47.05535000" lon="8.495810000">
				<ele>1455.0000</ele>
			</trkpt>
			<trkpt lat="47.05532000" lon="8.495740000">
				<ele>1456.0000</ele>
			</trkpt>
			<trkpt lat="47.05524000" lon="8.495620000">
				<ele>1459.0000</ele>
			</trkpt>
			<trkpt lat="47.05522000" lon="8.495520000">
				<ele>1461.0000</ele>
			</trkpt>
			<trkpt lat="47.05519000" lon="8.495500000">
				<ele>1461.0000</ele>
			</trkpt>
			<trkpt lat="47.05510000" lon="8.495530000">
				<ele>1458.0000</ele>
			</trkpt>
			<trkpt lat="47.05512000" lon="8.495470000">
				<ele>1460.0000</ele>
			</trkpt>
			<trkpt lat="47.05515000" lon="8.495430000">
				<ele>1461.0000</ele>
			</trkpt>
			<trkpt lat="47.05525000" lon="8.495340000">
				<ele>1466.0000</ele>
			</trkpt>
			<trkpt lat="47.05530000" lon="8.495300000">
				<ele>1468.0000</ele>
			</trkpt>
			<trkpt lat="47.05531000" lon="8.495290000">
				<ele>1468.0000</ele>
			</trkpt>
			<trkpt lat="47.05535000" lon="8.495230000">
				<ele>1470.0000</ele>
			</trkpt>
			<trkpt lat="47.05537000" lon="8.495220000">
				<ele>1471.0000</ele>
			</trkpt>
			<trkpt lat="47.05538000" lon="8.495170000">
				<ele>1473.0000</ele>
			</trkpt>
			<trkpt lat="47.05539000" lon="8.495140000">
				<ele>1473.0000</ele>
			</trkpt>
			<trkpt lat="47.05537000" lon="8.495030000">
				<ele>1475.0000</ele>
			</trkpt>
			<trkpt lat="47.05531000" lon="8.494940000">
				<ele>1476.0000</ele>
			</trkpt>
			<trkpt lat="47.05527000" lon="8.494920000">
				<ele>1476.0000</ele>
			</trkpt>
			<trkpt lat="47.05523000" lon="8.494860000">
				<ele>1476.0000</ele>
			</trkpt>
			<trkpt lat="47.05523000" lon="8.494800000">
				<ele>1478.0000</ele>
			</trkpt>
			<trkpt lat="47.05525000" lon="8.494720000">
				<ele>1481.0000</ele>
			</trkpt>
			<trkpt lat="47.05528000" lon="8.494680000">
				<ele>1483.0000</ele>
			</trkpt>
			<trkpt lat="47.05534000" lon="8.494670000">
				<ele>1485.0000</ele>
			</trkpt>
			<trkpt lat="47.05551000" lon="8.494780000">
				<ele>1487.0000</ele>
			</trkpt>
			<trkpt lat="47.05563000" lon="8.494890000">
				<ele>1487.0000</ele>
			</trkpt>
			<trkpt lat="47.05571000" lon="8.494950000">
				<ele>1487.0000</ele>
			</trkpt>
			<trkpt lat="47.05572000" lon="8.494960000">
				<ele>1487.0000</ele>
			</trkpt>
			<trkpt lat="47.05582000" lon="8.494990000">
				<ele>1488.0000</ele>
			</trkpt>
			<trkpt lat="47.05587000" lon="8.494970000">
				<ele>1489.0000</ele>
			</trkpt>
			<trkpt lat="47.05591000" lon="8.494850000">
				<ele>1493.0000</ele>
			</trkpt>
			<trkpt lat="47.05591000" lon="8.494770000">
				<ele>1495.0000</ele>
			</trkpt>
			<trkpt lat="47.05590000" lon="8.494750000">
				<ele>1496.0000</ele>
			</trkpt>
			<trkpt lat="47.05586000" lon="8.494670000">
				<ele>1498.0000</ele>
			</trkpt>
			<trkpt lat="47.05576000" lon="8.494370000">
				<ele>1505.0000</ele>
			</trkpt>
			<trkpt lat="47.05573000" lon="8.494230000">
				<ele>1507.0000</ele>
			</trkpt>
			<trkpt lat="47.05573000" lon="8.494170000">
				<ele>1509.0000</ele>
			</trkpt>
			<trkpt lat="47.05573000" lon="8.493980000">
				<ele>1511.0000</ele>
			</trkpt>
			<trkpt lat="47.05573000" lon="8.493950000">
				<ele>1511.0000</ele>
			</trkpt>
			<trkpt lat="47.05574000" lon="8.493850000">
				<ele>1512.0000</ele>
			</trkpt>
			<trkpt lat="47.05575000" lon="8.493670000">
				<ele>1515.0000</ele>
			</trkpt>
			<trkpt lat="47.05574000" lon="8.493430000">
				<ele>1517.0000</ele>
			</trkpt>
			<trkpt lat="47.05573000" lon="8.493230000">
				<ele>1518.0000</ele>
			</trkpt>
			<trkpt lat="47.05573000" lon="8.493080000">
				<ele>1520.0000</ele>
			</trkpt>
			<trkpt lat="47.05568000" lon="8.492850000">
				<ele>1521.0000</ele>
			</trkpt>
			<trkpt lat="47.05566000" lon="8.492780000">
				<ele>1521.0000</ele>
			</trkpt>
			<trkpt lat="47.05566000" lon="8.492770000">
				<ele>1521.0000</ele>
			</trkpt>
			<trkpt lat="47.05566000" lon="8.492730000">
				<ele>1522.0000</ele>
			</trkpt>
			<trkpt lat="47.05571000" lon="8.492670000">
				<ele>1524.0000</ele>
			</trkpt>
			<trkpt lat="47.05573000" lon="8.492650000">
				<ele>1525.0000</ele>
			</trkpt>
			<trkpt lat="47.05578000" lon="8.492500000">
				<ele>1527.0000</ele>
			</trkpt>
			<trkpt lat="47.05578000" lon="8.492440000">
				<ele>1528.0000</ele>
			</trkpt>
			<trkpt lat="47.05581000" lon="8.492360000">
				<ele>1529.0000</ele>
			</trkpt>
			<trkpt lat="47.05587000" lon="8.492300000">
				<ele>1531.0000</ele>
			</trkpt>
			<trkpt lat="47.05596000" lon="8.492220000">
				<ele>1534.0000</ele>
			</trkpt>
			<trkpt lat="47.05606000" lon="8.492130000">
				<ele>1538.0000</ele>
			</trkpt>
			<trkpt lat="47.05611000" lon="8.492080000">
				<ele>1540.0000</ele>
			</trkpt>
			<trkpt lat="47.05622000" lon="8.491990000">
				<ele>1543.0000</ele>
			</trkpt>
			<trkpt lat="47.05622000" lon="8.492000000">
				<ele>1543.0000</ele>
			</trkpt>
			<trkpt lat="47.05625000" lon="8.491970000">
				<ele>1544.0000</ele>
			</trkpt>
			<trkpt lat="47.05629000" lon="8.491940000">
				<ele>1544.0000</ele>
			</trkpt>
			<trkpt lat="47.05634000" lon="8.491910000">
				<ele>1545.0000</ele>
			</trkpt>
			<trkpt lat="47.05636000" lon="8.491860000">
				<ele>1546.0000</ele>
			</trkpt>
			<trkpt lat="47.05643000" lon="8.491790000">
				<ele>1546.0000</ele>
			</trkpt>
			<trkpt lat="47.05651000" lon="8.491720000">
				<ele>1547.0000</ele>
			</trkpt>
			<trkpt lat="47.05654000" lon="8.491640000">
				<ele>1550.0000</ele>
			</trkpt>
			<trkpt lat="47.05655000" lon="8.491600000">
				<ele>1552.0000</ele>
			</trkpt>
			<trkpt lat="47.05660000" lon="8.491540000">
				<ele>1555.0000</ele>
			</trkpt>
			<trkpt lat="47.05664000" lon="8.491480000">
				<ele>1558.0000</ele>
			</trkpt>
			<trkpt lat="47.05666000" lon="8.491420000">
				<ele>1560.0000</ele>
			</trkpt>
			<trkpt lat="47.05669000" lon="8.491310000">
				<ele>1562.0000</ele>
			</trkpt>
			<trkpt lat="47.05672000" lon="8.491160000">
				<ele>1565.0000</ele>
			</trkpt>
			<trkpt lat="47.05677000" lon="8.491040000">
				<ele>1567.0000</ele>
			</trkpt>
			<trkpt lat="47.05680000" lon="8.490970000">
				<ele>1568.0000</ele>
			</trkpt>
			<trkpt lat="47.05683000" lon="8.490950000">
				<ele>1568.0000</ele>
			</trkpt>
			<trkpt lat="47.05686000" lon="8.490910000">
				<ele>1569.0000</ele>
			</trkpt>
			<trkpt lat="47.05687000" lon="8.490870000">
				<ele>1570.0000</ele>
			</trkpt>
			<trkpt lat="47.05688000" lon="8.490850000">
				<ele>1571.0000</ele>
			</trkpt>
			<trkpt lat="47.05693000" lon="8.490860000">
				<ele>1571.0000</ele>
			</trkpt>
			<trkpt lat="47.05696000" lon="8.490860000">
				<ele>1570.0000</ele>
			</trkpt>
			<trkpt lat="47.05703000" lon="8.490800000">
				<ele>1573.0000</ele>
			</trkpt>
			<trkpt lat="47.05705000" lon="8.490650000">
				<ele>1581.0000</ele>
			</trkpt>
			<trkpt lat="47.05710000" lon="8.490610000">
				<ele>1585.0000</ele>
			</trkpt>
			<trkpt lat="47.05713000" lon="8.490550000">
				<ele>1589.0000</ele>
			</trkpt>
			<trkpt lat="47.05717000" lon="8.490500000">
				<ele>1593.0000</ele>
			</trkpt>
			<trkpt lat="47.05722000" lon="8.490450000">
				<ele>1597.0000</ele>
			</trkpt>
			<trkpt lat="47.05729000" lon="8.490420000">
				<ele>1598.0000</ele>
			</trkpt>
			<trkpt lat="47.05739000" lon="8.490340000">
				<ele>1602.0000</ele>
			</trkpt>
			<trkpt lat="47.05740000" lon="8.490330000">
				<ele>1603.0000</ele>
			</trkpt>
			<trkpt lat="47.05748000" lon="8.490260000">
				<ele>1607.0000</ele>
			</trkpt>
			<trkpt lat="47.05750000" lon="8.490250000">
				<ele>1608.0000</ele>
			</trkpt>
			<trkpt lat="47.05757000" lon="8.490210000">
				<ele>1607.0000</ele>
			</trkpt>
			<trkpt lat="47.05760000" lon="8.490180000">
				<ele>1608.0000</ele>
			</trkpt>
			<trkpt lat="47.05761000" lon="8.490110000">
				<ele>1611.0000</ele>
			</trkpt>
			<trkpt lat="47.05757000" lon="8.490030000">
				<ele>1616.0000</ele>
			</trkpt>
			<trkpt lat="47.05751000" lon="8.489990000">
				<ele>1620.0000</ele>
			</trkpt>
			<trkpt lat="47.05738000" lon="8.490030000">
				<ele>1617.0000</ele>
			</trkpt>
			<trkpt lat="47.05732000" lon="8.490040000">
				<ele>1615.0000</ele>
			</trkpt>
			<trkpt lat="47.05730000" lon="8.490020000">
				<ele>1616.0000</ele>
			</trkpt>
			<trkpt lat="47.05725000" lon="8.490030000">
				<ele>1615.0000</ele>
			</trkpt>
			<trkpt lat="47.05725000" lon="8.489950000">
				<ele>1618.0000</ele>
			</trkpt>
			<trkpt lat="47.05726000" lon="8.489930000">
				<ele>1619.0000</ele>
			</trkpt>
			<trkpt lat="47.05734000" lon="8.489900000">
				<ele>1621.0000</ele>
			</trkpt>
			<trkpt lat="47.05734000" lon="8.489860000">
				<ele>1622.0000</ele>
			</trkpt>
			<trkpt lat="47.05737000" lon="8.489870000">
				<ele>1622.0000</ele>
			</trkpt>
			<trkpt lat="47.05737000" lon="8.489860000">
				<ele>1622.0000</ele>
			</trkpt>
			<trkpt lat="47.05742000" lon="8.489810000">
				<ele>1625.0000</ele>
			</trkpt>
			<trkpt lat="47.05742000" lon="8.489760000">
				<ele>1626.0000</ele>
			</trkpt>
			<trkpt lat="47.05745000" lon="8.489680000">
				<ele>1629.0000</ele>
			</trkpt>
			<trkpt lat="47.05750000" lon="8.489690000">
				<ele>1629.0000</ele>
			</trkpt>
			<trkpt lat="47.05752000" lon="8.489670000">
				<ele>1629.0000</ele>
			</trkpt>
			<trkpt lat="47.05752000" lon="8.489650000">
				<ele>1630.0000</ele>
			</trkpt>
			<trkpt lat="47.05753000" lon="8.489630000">
				<ele>1630.0000</ele>
			</trkpt>
			<trkpt lat="47.05754000" lon="8.489600000">
				<ele>1631.0000</ele>
			</trkpt>
			<trkpt lat="47.05757000" lon="8.489570000">
				<ele>1631.0000</ele>
			</trkpt>
			<trkpt lat="47.05761000" lon="8.489520000">
				<ele>1632.0000</ele>
			</trkpt>
			<trkpt lat="47.05768000" lon="8.489510000">
				<ele>1632.0000</ele>
			</trkpt>
			<trkpt lat="47.05769000" lon="8.489500000">
				<ele>1633.0000</ele>
			</trkpt>
			<trkpt lat="47.05770000" lon="8.489480000">
				<ele>1633.0000</ele>
			</trkpt>
			<trkpt lat="47.05771000" lon="8.489430000">
				<ele>1635.0000</ele>
			</trkpt>
			<trkpt lat="47.05774000" lon="8.489400000">
				<ele>1636.0000</ele>
			</trkpt>
			<trkpt lat="47.05778000" lon="8.489330000">
				<ele>1639.0000</ele>
			</trkpt>
			<trkpt lat="47.05782000" lon="8.489250000">
				<ele>1641.0000</ele>
			</trkpt>
			<trkpt lat="47.05788000" lon="8.489170000">
				<ele>1644.0000</ele>
			</trkpt>
			<trkpt lat="47.05793000" lon="8.489090000">
				<ele>1646.0000</ele>
			</trkpt>
			<trkpt lat="47.05795000" lon="8.489060000">
				<ele>1647.0000</ele>
			</trkpt>
			<trkpt lat="47.05800000" lon="8.489020000">
				<ele>1648.0000</ele>
			</trkpt>
			<trkpt lat="47.05806000" lon="8.488970000">
				<ele>1650.0000</ele>
			</trkpt>
			<trkpt lat="47.05807000" lon="8.488950000">
				<ele>1651.0000</ele>
			</trkpt>
			<trkpt lat="47.05813000" lon="8.488800000">
				<ele>1654.0000</ele>
			</trkpt>
			<trkpt lat="47.05815000" lon="8.488740000">
				<ele>1655.0000</ele>
			</trkpt>
			<trkpt lat="47.05815000" lon="8.488640000">
				<ele>1658.0000</ele>
			</trkpt>
			<trkpt lat="47.05816000" lon="8.488490000">
				<ele>1660.0000</ele>
			</trkpt>
			<trkpt lat="47.05817000" lon="8.488430000">
				<ele>1660.0000</ele>
			</trkpt>
			<trkpt lat="47.05819000" lon="8.488330000">
				<ele>1662.0000</ele>
			</trkpt>
			<trkpt lat="47.05819000" lon="8.488190000">
				<ele>1661.0000</ele>
			</trkpt>
			<trkpt lat="47.05818000" lon="8.488120000">
				<ele>1661.0000</ele>
			</trkpt>
			<trkpt lat="47.05816000" lon="8.488100000">
				<ele>1661.0000</ele>
			</trkpt>
			<trkpt lat="47.05816000" lon="8.488060000">
				<ele>1661.0000</ele>
			</trkpt>
			<trkpt lat="47.05814000" lon="8.488030000">
				<ele>1662.0000</ele>
			</trkpt>
			<trkpt lat="47.05814000" lon="8.488000000">
				<ele>1662.0000</ele>
			</trkpt>
			<trkpt lat="47.05813000" lon="8.487960000">
				<ele>1662.0000</ele>
			</trkpt>
			<trkpt lat="47.05811000" lon="8.487940000">
				<ele>1662.0000</ele>
			</trkpt>
			<trkpt lat="47.05810000" lon="8.487960000">
				<ele>1663.0000</ele>
			</trkpt>
			<trkpt lat="47.05809000" lon="8.487930000">
				<ele>1663.0000</ele>
			</trkpt>
			<trkpt lat="47.05807000" lon="8.487920000">
				<ele>1664.0000</ele>
			</trkpt>
			<trkpt lat="47.05803000" lon="8.487920000">
				<ele>1664.0000</ele>
			</trkpt>
			<trkpt lat="47.05802000" lon="8.487900000">
				<ele>1664.0000</ele>
			</trkpt>
			<trkpt lat="47.05802000" lon="8.487880000">
				<ele>1664.0000</ele>
			</trkpt>
			<trkpt lat="47.05801000" lon="8.487830000">
				<ele>1665.0000</ele>
			</trkpt>
			<trkpt lat="47.05800000" lon="8.487820000">
				<ele>1665.0000</ele>
			</trkpt>
			<trkpt lat="47.05800000" lon="8.487790000">
				<ele>1665.0000</ele>
			</trkpt>
			<trkpt lat="47.05799000" lon="8.487770000">
				<ele>1665.0000</ele>
			</trkpt>
			<trkpt lat="47.05798000" lon="8.487750000">
				<ele>1665.0000</ele>
			</trkpt>
			<trkpt lat="47.05797000" lon="8.487750000">
				<ele>1666.0000</ele>
			</trkpt>
			<trkpt lat="47.05797000" lon="8.487740000">
				<ele>1666.0000</ele>
			</trkpt>
			<trkpt lat="47.05796000" lon="8.487740000">
				<ele>1666.0000</ele>
			</trkpt>
			<trkpt lat="47.05795000" lon="8.487750000">
				<ele>1666.0000</ele>
			</trkpt>
			<trkpt lat="47.05793000" lon="8.487750000">
				<ele>1666.0000</ele>
			</trkpt>
			<trkpt lat="47.05789000" lon="8.487750000">
				<ele>1667.0000</ele>
			</trkpt>
			<trkpt lat="47.05788000" lon="8.487730000">
				<ele>1667.0000</ele>
			</trkpt>
			<trkpt lat="47.05788000" lon="8.487680000">
				<ele>1668.0000</ele>
			</trkpt>
			<trkpt lat="47.05789000" lon="8.487630000">
				<ele>1669.0000</ele>
			</trkpt>
			<trkpt lat="47.05789000" lon="8.487580000">
				<ele>1670.0000</ele>
			</trkpt>
			<trkpt lat="47.05786000" lon="8.487470000">
				<ele>1673.0000</ele>
			</trkpt>
			<trkpt lat="47.05784000" lon="8.487450000">
				<ele>1674.0000</ele>
			</trkpt>
			<trkpt lat="47.05783000" lon="8.487440000">
				<ele>1675.0000</ele>
			</trkpt>
			<trkpt lat="47.05783000" lon="8.487420000">
				<ele>1675.0000</ele>
			</trkpt>
			<trkpt lat="47.05784000" lon="8.487410000">
				<ele>1674.0000</ele>
			</trkpt>
			<trkpt lat="47.05784000" lon="8.487390000">
				<ele>1675.0000</ele>
			</trkpt>
			<trkpt lat="47.05784000" lon="8.487370000">
				<ele>1675.0000</ele>
			</trkpt>
			<trkpt lat="47.05785000" lon="8.487380000">
				<ele>1674.0000</ele>
			</trkpt>
			<trkpt lat="47.05785000" lon="8.487350000">
				<ele>1674.0000</ele>
			</trkpt>
			<trkpt lat="47.05783000" lon="8.487300000">
				<ele>1676.0000</ele>
			</trkpt>
			<trkpt lat="47.05781000" lon="8.487260000">
				<ele>1678.0000</ele>
			</trkpt>
			<trkpt lat="47.05780000" lon="8.487240000">
				<ele>1679.0000</ele>
			</trkpt>
			<trkpt lat="47.05779000" lon="8.487220000">
				<ele>1680.0000</ele>
			</trkpt>
			<trkpt lat="47.05777000" lon="8.487200000">
				<ele>1682.0000</ele>
			</trkpt>
			<trkpt lat="47.05775000" lon="8.487210000">
				<ele>1684.0000</ele>
			</trkpt>
			<trkpt lat="47.05772000" lon="8.487280000">
				<ele>1685.0000</ele>
			</trkpt>
			<trkpt lat="47.05771000" lon="8.487290000">
				<ele>1686.0000</ele>
			</trkpt>
			<trkpt lat="47.05769000" lon="8.487280000">
				<ele>1688.0000</ele>
			</trkpt>
			<trkpt lat="47.05768000" lon="8.487300000">
				<ele>1688.0000</ele>
			</trkpt>
			<trkpt lat="47.05767000" lon="8.487310000">
				<ele>1689.0000</ele>
			</trkpt>
			<trkpt lat="47.05766000" lon="8.487300000">
				<ele>1690.0000</ele>
			</trkpt>
			<trkpt lat="47.05767000" lon="8.487280000">
				<ele>1690.0000</ele>
			</trkpt>
			<trkpt lat="47.05768000" lon="8.487250000">
				<ele>1690.0000</ele>
			</trkpt>
			<trkpt lat="47.05768000" lon="8.487230000">
				<ele>1691.0000</ele>
			</trkpt>
			<trkpt lat="47.05764000" lon="8.487120000">
				<ele>1700.0000</ele>
			</trkpt>
			<trkpt lat="47.05761000" lon="8.487140000">
				<ele>1703.0000</ele>
			</trkpt>
			<trkpt lat="47.05759000" lon="8.487160000">
				<ele>1704.0000</ele>
			</trkpt>
			<trkpt lat="47.05759000" lon="8.487170000">
				<ele>1703.0000</ele>
			</trkpt>
			<trkpt lat="47.05758000" lon="8.487210000">
				<ele>1702.0000</ele>
			</trkpt>
			<trkpt lat="47.05750000" lon="8.487270000">
				<ele>1707.0000</ele>
			</trkpt>
			<trkpt lat="47.05747000" lon="8.487290000">
				<ele>1707.0000</ele>
			</trkpt>
			<trkpt lat="47.05744000" lon="8.487310000">
				<ele>1707.0000</ele>
			</trkpt>
			<trkpt lat="47.05735000" lon="8.487280000">
				<ele>1713.0000</ele>
			</trkpt>
			<trkpt lat="47.05726000" lon="8.487250000">
				<ele>1719.0000</ele>
			</trkpt>
			<trkpt lat="47.05725000" lon="8.487240000">
				<ele>1720.0000</ele>
			</trkpt>
			<trkpt lat="47.05725000" lon="8.487210000">
				<ele>1720.0000</ele>
			</trkpt>
			<trkpt lat="47.05723000" lon="8.487180000">
				<ele>1722.0000</ele>
			</trkpt>
			<trkpt lat="47.05724000" lon="8.487130000">
				<ele>1722.0000</ele>
			</trkpt>
			<trkpt lat="47.05724000" lon="8.487090000">
				<ele>1723.0000</ele>
			</trkpt>
			<trkpt lat="47.05724000" lon="8.487080000">
				<ele>1723.0000</ele>
			</trkpt>
			<trkpt lat="47.05726000" lon="8.487070000">
				<ele>1723.0000</ele>
			</trkpt>
			<trkpt lat="47.05728000" lon="8.487060000">
				<ele>1723.0000</ele>
			</trkpt>
			<trkpt lat="47.05729000" lon="8.487010000">
				<ele>1724.0000</ele>
			</trkpt>
			<trkpt lat="47.05729000" lon="8.486970000">
				<ele>1725.0000</ele>
			</trkpt>
			<trkpt lat="47.05729000" lon="8.486940000">
				<ele>1726.0000</ele>
			</trkpt>
			<trkpt lat="47.05730000" lon="8.486910000">
				<ele>1727.0000</ele>
			</trkpt>
			<trkpt lat="47.05730000" lon="8.486830000">
				<ele>1730.0000</ele>
			</trkpt>
			<trkpt lat="47.05731000" lon="8.486800000">
				<ele>1731.0000</ele>
			</trkpt>
			<trkpt lat="47.05732000" lon="8.486750000">
				<ele>1733.0000</ele>
			</trkpt>
			<trkpt lat="47.05734000" lon="8.486730000">
				<ele>1733.0000</ele>
			</trkpt>
			<trkpt lat="47.05736000" lon="8.486670000">
				<ele>1735.0000</ele>
			</trkpt>
			<trkpt lat="47.05738000" lon="8.486640000">
				<ele>1735.0000</ele>
			</trkpt>
			<trkpt lat="47.05739000" lon="8.486600000">
				<ele>1736.0000</ele>
			</trkpt>
			<trkpt lat="47.05740000" lon="8.486560000">
				<ele>1736.0000</ele>
			</trkpt>
			<trkpt lat="47.05739000" lon="8.486520000">
				<ele>1737.0000</ele>
			</trkpt>
			<trkpt lat="47.05733000" lon="8.486460000">
				<ele>1739.0000</ele>
			</trkpt>
			<trkpt lat="47.05727000" lon="8.486460000">
				<ele>1740.0000</ele>
			</trkpt>
			<trkpt lat="47.05726000" lon="8.486450000">
				<ele>1740.0000</ele>
			</trkpt>
			<trkpt lat="47.05726000" lon="8.486420000">
				<ele>1741.0000</ele>
			</trkpt>
			<trkpt lat="47.05726000" lon="8.486410000">
				<ele>1741.0000</ele>
			</trkpt>
			<trkpt lat="47.05723000" lon="8.486430000">
				<ele>1741.0000</ele>
			</trkpt>
			<trkpt lat="47.05721000" lon="8.486440000">
				<ele>1742.0000</ele>
			</trkpt>
			<trkpt lat="47.05721000" lon="8.486420000">
				<ele>1743.0000</ele>
			</trkpt>
			<trkpt lat="47.05722000" lon="8.486380000">
				<ele>1743.0000</ele>
			</trkpt>
			<trkpt lat="47.05723000" lon="8.486350000">
				<ele>1743.0000</ele>
			</trkpt>
			<trkpt lat="47.05723000" lon="8.486320000">
				<ele>1744.0000</ele>
			</trkpt>
			<trkpt lat="47.05723000" lon="8.486290000">
				<ele>1745.0000</ele>
			</trkpt>
			<trkpt lat="47.05722000" lon="8.486270000">
				<ele>1746.0000</ele>
			</trkpt>
			<trkpt lat="47.05718000" lon="8.486310000">
				<ele>1747.0000</ele>
			</trkpt>
			<trkpt lat="47.05716000" lon="8.486360000">
				<ele>1747.0000</ele>
			</trkpt>
			<trkpt lat="47.05712000" lon="8.486370000">
				<ele>1750.0000</ele>
			</trkpt>
			<trkpt lat="47.05709000" lon="8.486390000">
				<ele>1751.0000</ele>
			</trkpt>
			<trkpt lat="47.05709000" lon="8.486430000">
				<ele>1749.0000</ele>
			</trkpt>
			<trkpt lat="47.05708000" lon="8.486430000">
				<ele>1750.0000</ele>
			</trkpt>
			<trkpt lat="47.05707000" lon="8.486430000">
				<ele>1751.0000</ele>
			</trkpt>
			<trkpt lat="47.05706000" lon="8.486420000">
				<ele>1752.0000</ele>
			</trkpt>
			<trkpt lat="47.05706000" lon="8.486390000">
				<ele>1753.0000</ele>
			</trkpt>
			<trkpt lat="47.05706000" lon="8.486360000">
				<ele>1754.0000</ele>
			</trkpt>
			<trkpt lat="47.05707000" lon="8.486280000">
				<ele>1755.0000</ele>
			</trkpt>
			<trkpt lat="47.05707000" lon="8.486270000">
				<ele>1755.0000</ele>
			</trkpt>
			<trkpt lat="47.05708000" lon="8.486220000">
				<ele>1756.0000</ele>
			</trkpt>
			<trkpt lat="47.05708000" lon="8.486180000">
				<ele>1757.0000</ele>
			</trkpt>
			<trkpt lat="47.05708000" lon="8.486140000">
				<ele>1758.0000</ele>
			</trkpt>
			<trkpt lat="47.05704000" lon="8.486080000">
				<ele>1762.0000</ele>
			</trkpt>
			<trkpt lat="47.05702000" lon="8.486090000">
				<ele>1763.0000</ele>
			</trkpt>
			<trkpt lat="47.05698000" lon="8.486140000">
				<ele>1765.0000</ele>
			</trkpt>
			<trkpt lat="47.05697000" lon="8.486190000">
				<ele>1765.0000</ele>
			</trkpt>
			<trkpt lat="47.05695000" lon="8.486160000">
				<ele>1767.0000</ele>
			</trkpt>
			<trkpt lat="47.05688000" lon="8.486200000">
				<ele>1768.0000</ele>
			</trkpt>
			<trkpt lat="47.05685000" lon="8.486230000">
				<ele>1768.0000</ele>
			</trkpt>
			<trkpt lat="47.05682000" lon="8.486240000">
				<ele>1769.0000</ele>
			</trkpt>
			<trkpt lat="47.05680000" lon="8.486230000">
				<ele>1770.0000</ele>
			</trkpt>
			<trkpt lat="47.05681000" lon="8.486190000">
				<ele>1770.0000</ele>
			</trkpt>
			<trkpt lat="47.05679000" lon="8.486130000">
				<ele>1772.0000</ele>
			</trkpt>
			<trkpt lat="47.05672000" lon="8.486130000">
				<ele>1774.0000</ele>
			</trkpt>
			<trkpt lat="47.05672000" lon="8.486030000">
				<ele>1774.0000</ele>
			</trkpt>
			<trkpt lat="47.05672000" lon="8.485870000">
				<ele>1774.0000</ele>
			</trkpt>
			<trkpt lat="47.05672000" lon="8.485750000">
				<ele>1776.0000</ele>
			</trkpt>
			<trkpt lat="47.05672000" lon="8.485560000">
				<ele>1780.0000</ele>
			</trkpt>
			<trkpt lat="47.05673000" lon="8.485380000">
				<ele>1785.0000</ele>
			</trkpt>
			<trkpt lat="47.05676000" lon="8.485270000">
				<ele>1786.0000</ele>
			</trkpt>
			<trkpt lat="47.05670000" lon="8.485120000">
				<ele>1792.0000</ele>
			</trkpt>
			<trkpt lat="47.05664000" lon="8.484970000">
				<ele>1794.0000</ele>
			</trkpt>
			<trkpt lat="47.05660000" lon="8.484860000">
				<ele>1787.0000</ele>
			</trkpt>
			<trkpt lat="47.05650000" lon="8.484830000">
				<ele>1790.0000</ele>
			</trkpt>
			<trkpt lat="47.05643000" lon="8.484820000">
				<ele>1794.0000</ele>
			</trkpt>
			<trkpt lat="47.05636000" lon="8.484810000">
				<ele>1795.0000</ele>
			</trkpt>
			<trkpt lat="47.05630000" lon="8.484850000">
				<ele>1793.0000</ele>
			</trkpt>
			<trkpt lat="47.05622000" lon="8.484820000">
				<ele>1789.0000</ele>
			</trkpt>
			<trkpt lat="47.05613000" lon="8.484780000">
				<ele>1784.0000</ele>
			</trkpt>
			<trkpt lat="47.05614000" lon="8.484720000">
				<ele>1784.0000</ele>
			</trkpt>
			<trkpt lat="47.05617000" lon="8.484600000">
				<ele>1783.0000</ele>
			</trkpt>
			<trkpt lat="47.05623000" lon="8.484490000">
				<ele>1781.0000</ele>
			</trkpt>
			<trkpt lat="47.05626000" lon="8.484400000">
				<ele>1778.0000</ele>
			</trkpt>
			<trkpt lat="47.05628000" lon="8.484310000">
				<ele>1776.0000</ele>
			</trkpt>
			<trkpt lat="47.05628000" lon="8.484210000">
				<ele>1774.0000</ele>
			</trkpt>
			<trkpt lat="47.05618000" lon="8.483890000">
				<ele>1764.0000</ele>
			</trkpt>
			<trkpt lat="47.05610000" lon="8.483760000">
				<ele>1765.0000</ele>
			</trkpt>
			<trkpt lat="47.05607000" lon="8.483740000">
				<ele>1765.0000</ele>
			</trkpt>
			<trkpt lat="47.05599000" lon="8.483670000">
				<ele>1764.0000</ele>
			</trkpt>
			<trkpt lat="47.05594000" lon="8.483560000">
				<ele>1762.0000</ele>
			</trkpt>
			<trkpt lat="47.05590000" lon="8.483530000">
				<ele>1762.0000</ele>
			</trkpt>
			<trkpt lat="47.05589000" lon="8.483540000">
				<ele>1762.0000</ele>
			</trkpt>
			<trkpt lat="47.05577000" lon="8.483750000">
				<ele>1762.0000</ele>
			</trkpt>
			<trkpt lat="47.05570000" lon="8.483860000">
				<ele>1762.0000</ele>
			</trkpt>
			<trkpt lat="47.05570000" lon="8.483920000">
				<ele>1762.0000</ele>
			</trkpt>
			<trkpt lat="47.05570000" lon="8.484010000">
				<ele>1763.0000</ele>
			</trkpt>
			<trkpt lat="47.05573000" lon="8.484150000">
				<ele>1764.0000</ele>
			</trkpt>
		</trkseg>
	</trk>
</gpx>
