<?xml version="1.0"?>
<gpx version="1.1" xmlns="http://www.topografix.com/GPX/1/1" xmlns:xsi="http://www.w3.org/2001/XMLSchema-instance" xsi:schemaLocation="http://www.topografix.com/GPX/1/1 http://www.topografix.com/GPX/1/1/gpx.xsd">
	<metadata>
		<name>Ben Nevis</name>
	</metadata>
	<trk type="hiking">
		<trkseg>
			<trkpt lat="56.809961213614" lon="-5.07684356484695">
				<ele>70.7964054048061</ele>
			</trkpt>
			<trkpt lat="56.8117282194065" lon="-5.0762674301155">
				<ele>69.7499711634591</ele>
			</trkpt>
			<trkpt lat="56.8120158935347" lon="-5.07553717495566">
				<ele>69.2893235301599</ele>
			</trkpt>
			<trkpt lat="56.8118021180228" lon="-5.07509356375614">
				<ele>69.0290154190734</ele>
			</trkpt>
			<trkpt lat="56.8111036268603" lon="-5.0749871437567">
				<ele>69.6650681672618</ele>
			</trkpt>
			<trkpt lat="56.8091313010763" lon="-5.07623473953006">
				<ele>71.3500787662342</ele>
			</trkpt>
			<trkpt lat="56.8092262501735" lon="-5.07165423458517">
				<ele>94.8496484924108</ele>
			</trkpt>
			<trkpt lat="56.8091779585414" lon="-5.07106035837791">
				<ele>100.7341563683</ele>
			</trkpt>
			<trkpt lat="56.8076123797155" lon="-5.06893311060228">
				<ele>127.197124293074</ele>
			</trkpt>
			<trkpt lat="56.8042572595481" lon="-5.06244895883793">
				<ele>190.375473528169</ele>
			</trkpt>
			<trkpt lat="56.8027274084375" lon="-5.0603252811367">
				<ele>200.304275401868</ele>
			</trkpt>
			<trkpt lat="56.8019369786277" lon="-5.05773776128037">
				<ele>237.872764997184</ele>
			</trkpt>
			<trkpt lat="56.8027021877688" lon="-5.05842269264518">
				<ele>253.715240561403</ele>
			</trkpt>
			<trkpt lat="56.8019740162764" lon="-5.05659392817499">
				<ele>277.300215893425</ele>
			</trkpt>
			<trkpt lat="56.8014381198911" lon="-5.05535430262847">
				<ele>289.03818564862</ele>
			</trkpt>
			<trkpt lat="56.8011006091791" lon="-5.05372127707551">
				<ele>321.620869243518</ele>
			</trkpt>
			<trkpt lat="56.8014733746908" lon="-5.0539154379782">
				<ele>338.861469133757</ele>
			</trkpt>
			<trkpt lat="56.8005462012495" lon="-5.0495640649649">
				<ele>398.039921293035</ele>
			</trkpt>
			<trkpt lat="56.8003819394802" lon="-5.0463560774364">
				<ele>451.335533032194</ele>
			</trkpt>
			<trkpt lat="56.8014330245928" lon="-5.04380369815633">
				<ele>511.006713892333</ele>
			</trkpt>
			<trkpt lat="56.8022912583993" lon="-5.04289029020082">
				<ele>545.175066022202</ele>
			</trkpt>
			<trkpt lat="56.803111812733" lon="-5.04167887735196">
				<ele>579.806002920493</ele>
			</trkpt>
			<trkpt lat="56.8031544332751" lon="-5.04361562682505">
				<ele>597.822403262369</ele>
			</trkpt>
			<trkpt lat="56.8047269727816" lon="-5.04031879493676">
				<ele>629.676751649939</ele>
			</trkpt>
			<trkpt lat="56.8059182521695" lon="-5.03643373672542">
				<ele>684.307761193253</ele>
			</trkpt>
			<trkpt lat="56.8032690373755" lon="-5.03559677279284">
				<ele>727.48016652558</ele>
			</trkpt>
			<trkpt lat="56.8016560852704" lon="-5.03576119930806">
				<ele>730.412778522819</ele>
			</trkpt>
			<trkpt lat="56.8013735823715" lon="-5.03518131731093">
				<ele>755.414477929473</ele>
			</trkpt>
			<trkpt lat="56.8011906078185" lon="-5.03605120485631">
				<ele>735.181816792116</ele>
			</trkpt>
			<trkpt lat="56.8000413530883" lon="-5.03636779147871">
				<ele>759.883049535565</ele>
			</trkpt>
			<trkpt lat="56.7994082155868" lon="-5.03652953637663">
				<ele>767.170766131952</ele>
			</trkpt>
			<trkpt lat="56.7982611391667" lon="-5.03638758723999">
				<ele>774.982931350358</ele>
			</trkpt>
			<trkpt lat="56.7981470943505" lon="-5.03590328921772">
				<ele>792.088410900906</ele>
			</trkpt>
			<trkpt lat="56.8001404437283" lon="-5.03229653660299">
				<ele>868.765044349246</ele>
			</trkpt>
			<trkpt lat="56.7990128941246" lon="-5.03209075775459">
				<ele>900.709654399194</ele>
			</trkpt>
			<trkpt lat="56.7980902581544" lon="-5.03159029542529">
				<ele>928.188921926543</ele>
			</trkpt>
			<trkpt lat="56.7972840153781" lon="-5.03073887191991">
				<ele>948.387753166258</ele>
			</trkpt>
			<trkpt lat="56.7968210454545" lon="-5.02981691084536">
				<ele>959.821068631485</ele>
			</trkpt>
			<trkpt lat="56.7966128297799" lon="-5.02876809847703">
				<ele>985.470548202284</ele>
			</trkpt>
			<trkpt lat="56.7980776402863" lon="-5.02841122768229">
				<ele>1016.2169321971</ele>
			</trkpt>
			<trkpt lat="56.7990838270479" lon="-5.02695249820454">
				<ele>1048.00643733423</ele>
			</trkpt>
			<trkpt lat="56.7978517906934" lon="-5.02660741082275">
				<ele>1074.65186963044</ele>
			</trkpt>
			<trkpt lat="56.7969358770128" lon="-5.02582916739946">
				<ele>1089.51611520816</ele>
			</trkpt>
			<trkpt lat="56.7976865741037" lon="-5.02526718593824">
				<ele>1116.25591375213</ele>
			</trkpt>
			<trkpt lat="56.7984836164476" lon="-5.02390621174816">
				<ele>1145.90014067478</ele>
			</trkpt>
			<trkpt lat="56.7988733824146" lon="-5.02265982106992">
				<ele>1168.15590590518</ele>
			</trkpt>
			<trkpt lat="56.7973924146568" lon="-5.02145938717856">
				<ele>1206.38028830942</ele>
			</trkpt>
			<trkpt lat="56.7979884891347" lon="-5.02022961011023">
				<ele>1223.39479717333</ele>
			</trkpt>
			<trkpt lat="56.7980074992031" lon="-5.01944482483692">
				<ele>1236.4226926975</ele>
			</trkpt>
			<trkpt lat="56.7973565751658" lon="-5.01922864749855">
				<ele>1245.8084492581</ele>
			</trkpt>
			<trkpt lat="56.7971865287801" lon="-5.01808466748179">
				<ele>1261.57956532855</ele>
			</trkpt>
			<trkpt lat="56.7969512879786" lon="-5.01591983326382">
				<ele>1285.45296522882</ele>
			</trkpt>
			<trkpt lat="56.7964938358174" lon="-5.01067396979378">
				<ele>1347.04955715965</ele>
			</trkpt>
			<trkpt lat="56.7963299185279" lon="-5.00964521500204">
				<ele>1362.64242438413</ele>
			</trkpt>
			<trkpt lat="56.7965658502846" lon="-5.00843556890237">
				<ele>1374.23611644004</ele>
			</trkpt>
			<trkpt lat="56.7964077300269" lon="-5.00753833613947">
				<ele>1375.76944152825</ele>
			</trkpt>
			<trkpt lat="56.7962672484547" lon="-5.00628214980962">
				<ele>1376.14795137383</ele>
			</trkpt>
			<trkpt lat="56.7960113117261" lon="-5.00496758815661">
				<ele>1380.75230346993</ele>
			</trkpt>
			<trkpt lat="56.7968436266595" lon="-5.00362546205923">
				<ele>1381.75893999729</ele>
			</trkpt>
			<trkpt lat="56.7960113117261" lon="-5.00496758815661">
				<ele>1380.75230346993</ele>
			</trkpt>
			<trkpt lat="56.7962952473965" lon="-5.00661200584687">
				<ele>1375.45718972199</ele>
			</trkpt>
			<trkpt lat="56.7963753952653" lon="-5.00738831898705">
				<ele>1375.57633634657</ele>
			</trkpt>
			<trkpt lat="56.7965584573238" lon="-5.00836945307255">
				<ele>1374.69357402436</ele>
			</trkpt>
			<trkpt lat="56.7963502288713" lon="-5.00954855895334">
				<ele>1363.64732518047</ele>
			</trkpt>
			<trkpt lat="56.7965054603353" lon="-5.01093699579845">
				<ele>1342.6398262307</ele>
			</trkpt>
			<trkpt lat="56.7973031450378" lon="-5.01920796846949">
				<ele>1245.90560975485</ele>
			</trkpt>
			<trkpt lat="56.7980204300195" lon="-5.01928204950656">
				<ele>1238.77248418797</ele>
			</trkpt>
			<trkpt lat="56.7980295221998" lon="-5.02001995156641">
				<ele>1226.48329869099</ele>
			</trkpt>
			<trkpt lat="56.7974099603957" lon="-5.02147718085315">
				<ele>1206.25102929398</ele>
			</trkpt>
			<trkpt lat="56.7988215385864" lon="-5.02257373595387">
				<ele>1170.59586010221</ele>
			</trkpt>
			<trkpt lat="56.7985117190931" lon="-5.023859330487">
				<ele>1146.61162958201</ele>
			</trkpt>
			<trkpt lat="56.7977384160639" lon="-5.02535327211724">
				<ele>1113.52214233484</ele>
			</trkpt>
			<trkpt lat="56.7969269060492" lon="-5.02582844426936">
				<ele>1089.30359647889</ele>
			</trkpt>
			<trkpt lat="56.7979137934792" lon="-5.02664517382431">
				<ele>1073.34191649687</ele>
			</trkpt>
			<trkpt lat="56.7991009749635" lon="-5.02698664552369">
				<ele>1046.64748062566</ele>
			</trkpt>
			<trkpt lat="56.7980373875413" lon="-5.02858817827652">
				<ele>1010.92758204229</ele>
			</trkpt>
			<trkpt lat="56.7965781376437" lon="-5.02871615620252">
				<ele>986.1814971352</ele>
			</trkpt>
			<trkpt lat="56.7968786762491" lon="-5.03003451759709">
				<ele>955.616303217597</ele>
			</trkpt>
			<trkpt lat="56.7973272800686" lon="-5.03080789079083">
				<ele>946.723771896213</ele>
			</trkpt>
			<trkpt lat="56.7980910533236" lon="-5.03155759622598">
				<ele>929.128878218122</ele>
			</trkpt>
			<trkpt lat="56.7990479824112" lon="-5.03212635687474">
				<ele>898.929744163528</ele>
			</trkpt>
			<trkpt lat="56.8001392506534" lon="-5.03234558804122">
				<ele>867.364722754806</ele>
			</trkpt>
			<trkpt lat="56.7981393179263" lon="-5.0358535148841">
				<ele>793.737141838297</ele>
			</trkpt>
			<trkpt lat="56.7982728975138" lon="-5.03627386552552">
				<ele>779.21053250879</ele>
			</trkpt>
			<trkpt lat="56.7994098085291" lon="-5.036464135977">
				<ele>769.071491290815</ele>
			</trkpt>
			<trkpt lat="56.8011355880764" lon="-5.03609590259901">
				<ele>735.720977640711</ele>
			</trkpt>
			<trkpt lat="56.8013564367682" lon="-5.0351471641985">
				<ele>756.885431883857</ele>
			</trkpt>
			<trkpt lat="56.8016221925165" lon="-5.03567654107952">
				<ele>733.453853090294</ele>
			</trkpt>
			<trkpt lat="56.8033497751942" lon="-5.03560330405198">
				<ele>727.075194470584</ele>
			</trkpt>
			<trkpt lat="56.8058496712476" lon="-5.03629710617317">
				<ele>686.618041919544</ele>
			</trkpt>
			<trkpt lat="56.8047518914726" lon="-5.04040273687368">
				<ele>629.387575113215</ele>
			</trkpt>
			<trkpt lat="56.8031235290063" lon="-5.04377695893747">
				<ele>598.489520133473</ele>
			</trkpt>
			<trkpt lat="56.8031652387637" lon="-5.04169959119454">
				<ele>582.130179420114</ele>
			</trkpt>
			<trkpt lat="56.801369829722" lon="-5.04381495637026">
				<ele>508.194385882467</ele>
			</trkpt>
			<trkpt lat="56.8003289137762" lon="-5.04631900840747">
				<ele>449.065571699291</ele>
			</trkpt>
			<trkpt lat="56.8005168891959" lon="-5.04965998080947">
				<ele>393.475310568698</ele>
			</trkpt>
			<trkpt lat="56.801457836364" lon="-5.05381587371835">
				<ele>341.172562204301</ele>
			</trkpt>
			<trkpt lat="56.8010288433388" lon="-5.05371543831252">
				<ele>317.783342629671</ele>
			</trkpt>
			<trkpt lat="56.80143611628" lon="-5.05543605620136">
				<ele>286.215800804086</ele>
			</trkpt>
			<trkpt lat="56.8027759588619" lon="-5.05834678470161">
				<ele>259.530229135416</ele>
			</trkpt>
			<trkpt lat="56.8019521127506" lon="-5.05785367917484">
				<ele>235.265716645867</ele>
			</trkpt>
			<trkpt lat="56.8026825550886" lon="-5.06032162363069">
				<ele>198.659311553463</ele>
			</trkpt>
			<trkpt lat="56.8042743975242" lon="-5.06248312662862">
				<ele>189.893909618258</ele>
			</trkpt>
			<trkpt lat="56.8051623437798" lon="-5.06439071002693">
				<ele>170.629262714647</ele>
			</trkpt>
			<trkpt lat="56.8076384864308" lon="-5.06896801813928">
				<ele>126.879755467176</ele>
			</trkpt>
			<trkpt lat="56.8092248253554" lon="-5.07098226106913">
				<ele>101.613565904088</ele>
			</trkpt>
			<trkpt lat="56.8091280731842" lon="-5.07636556852843">
				<ele>71.1869888771325</ele>
			</trkpt>
			<trkpt lat="56.8110065643153" lon="-5.07491363750413">
				<ele>69.8473254516721</ele>
			</trkpt>
			<trkpt lat="56.8117164460328" lon="-5.07492266259459">
				<ele>68.9288967698812</ele>
			</trkpt>
			<trkpt lat="56.811978801238" lon="-5.0755832977045">
				<ele>69.3193692388013</ele>
			</trkpt>
			<trkpt lat="56.8117742824646" lon="-5.07622204397443">
				<ele>69.7199250487611</ele>
			</trkpt>
			<trkpt lat="56.8099530502169" lon="-5.07681012118546">
				<ele>70.7931795148179</ele>
			</trkpt>
		</trkseg>
	</trk>
</gpx>
