<?xml version="1.0"?>
<gpx version="1.1" xmlns="http://www.topografix.com/GPX/1/1" xmlns:xsi="http://www.w3.org/2001/XMLSchema-instance" xsi:schemaLocation="http://www.topografix.com/GPX/1/1 http://www.topografix.com/GPX/1/1/gpx.xsd">
	<metadata>
		<name>Krienseregg Pilatus</name>
	</metadata>
	<trk type="hiking">
		<trkseg>
			<trkpt lat="47.0140161983" lon="8.2645857255">
				<ele>1027.3</ele>
			</trkpt>
			<trkpt lat="47.0139718391" lon="8.2645560290">
				<ele>1027.3</ele>
			</trkpt>
			<trkpt lat="47.0138924843" lon="8.2645128659">
				<ele>1027.3</ele>
			</trkpt>
			<trkpt lat="47.0138424543" lon="8.2644798601">
				<ele>1027.0</ele>
			</trkpt>
			<trkpt lat="47.0137944019" lon="8.2644657573">
				<ele>1026.8</ele>
			</trkpt>
			<trkpt lat="47.0137723868" lon="8.2644761768">
				<ele>1026.4</ele>
			</trkpt>
			<trkpt lat="47.0137391261" lon="8.2645066651">
				<ele>1025.9</ele>
			</trkpt>
			<trkpt lat="47.0137272703" lon="8.2644678548">
				<ele>1025.4</ele>
			</trkpt>
			<trkpt lat="47.0137246505" lon="8.2644344076">
				<ele>1024.6</ele>
			</trkpt>
			<trkpt lat="47.0137170764" lon="8.2643956640">
				<ele>1023.7</ele>
			</trkpt>
			<trkpt lat="47.0136958856" lon="8.2643640222">
				<ele>1022.9</ele>
			</trkpt>
			<trkpt lat="47.0137241642" lon="8.2643095211">
				<ele>1022.9</ele>
			</trkpt>
			<trkpt lat="47.0137376272" lon="8.2642575276">
				<ele>1022.8</ele>
			</trkpt>
			<trkpt lat="47.0137634532" lon="8.2641413582">
				<ele>1022.1</ele>
			</trkpt>
			<trkpt lat="47.0137903534" lon="8.2640408556">
				<ele>1021.1</ele>
			</trkpt>
			<trkpt lat="47.0138074588" lon="8.2639802243">
				<ele>1020.5</ele>
			</trkpt>
			<trkpt lat="47.0138256422" lon="8.2639335252">
				<ele>1020.2</ele>
			</trkpt>
			<trkpt lat="47.0138474838" lon="8.2638747030">
				<ele>1020.1</ele>
			</trkpt>
			<trkpt lat="47.0138764797" lon="8.2638142546">
				<ele>1020.2</ele>
			</trkpt>
			<trkpt lat="47.0138995050" lon="8.2637571861">
				<ele>1020.5</ele>
			</trkpt>
			<trkpt lat="47.0139165638" lon="8.2637017758">
				<ele>1020.6</ele>
			</trkpt>
			<trkpt lat="47.0139033137" lon="8.2636191609">
				<ele>1020.5</ele>
			</trkpt>
			<trkpt lat="47.0138824725" lon="8.2635388095">
				<ele>1020.7</ele>
			</trkpt>
			<trkpt lat="47.0138454400" lon="8.2633920673">
				<ele>1021.3</ele>
			</trkpt>
			<trkpt lat="47.0138213287" lon="8.2632699080">
				<ele>1021.8</ele>
			</trkpt>
			<trkpt lat="47.0138008661" lon="8.2631356265">
				<ele>1022.0</ele>
			</trkpt>
			<trkpt lat="47.0137840052" lon="8.2629996504">
				<ele>1021.9</ele>
			</trkpt>
			<trkpt lat="47.0137743460" lon="8.2628516066">
				<ele>1021.3</ele>
			</trkpt>
			<trkpt lat="47.0137667792" lon="8.2627453529">
				<ele>1020.6</ele>
			</trkpt>
			<trkpt lat="47.0137104631" lon="8.2626331423">
				<ele>1019.4</ele>
			</trkpt>
			<trkpt lat="47.0136858470" lon="8.2625823130">
				<ele>1018.6</ele>
			</trkpt>
			<trkpt lat="47.0136612133" lon="8.2625314833">
				<ele>1017.6</ele>
			</trkpt>
			<trkpt lat="47.0136365515" lon="8.2624858615">
				<ele>1016.7</ele>
			</trkpt>
			<trkpt lat="47.0136176935" lon="8.2624612016">
				<ele>1016.1</ele>
			</trkpt>
			<trkpt lat="47.0135821686" lon="8.2624363115">
				<ele>1015.3</ele>
			</trkpt>
			<trkpt lat="47.0135464027" lon="8.2624462053">
				<ele>1014.4</ele>
			</trkpt>
			<trkpt lat="47.0135070358" lon="8.2624577663">
				<ele>1013.6</ele>
			</trkpt>
			<trkpt lat="47.0134676244" lon="8.2624780339">
				<ele>1012.7</ele>
			</trkpt>
			<trkpt lat="47.0134138792" lon="8.2625050645">
				<ele>1011.6</ele>
			</trkpt>
			<trkpt lat="47.0133626215" lon="8.2625164556">
				<ele>1010.7</ele>
			</trkpt>
			<trkpt lat="47.0133042966" lon="8.2625172836">
				<ele>1009.7</ele>
			</trkpt>
			<trkpt lat="47.0132591519" lon="8.2625078968">
				<ele>1008.9</ele>
			</trkpt>
			<trkpt lat="47.0132081191" lon="8.2624879769">
				<ele>1008.2</ele>
			</trkpt>
			<trkpt lat="47.0131357822" lon="8.2624520663">
				<ele>1007.1</ele>
			</trkpt>
			<trkpt lat="47.0130594254" lon="8.2624184749">
				<ele>1006.1</ele>
			</trkpt>
			<trkpt lat="47.0129943427" lon="8.2623670113">
				<ele>1005.2</ele>
			</trkpt>
			<trkpt lat="47.0128890645" lon="8.2622783955">
				<ele>1003.6</ele>
			</trkpt>
			<trkpt lat="47.0127932649" lon="8.2621951601">
				<ele>1001.9</ele>
			</trkpt>
			<trkpt lat="47.0127807799" lon="8.2621846844">
				<ele>1001.7</ele>
			</trkpt>
			<trkpt lat="47.0127353223" lon="8.2621465423">
				<ele>1001.3</ele>
			</trkpt>
			<trkpt lat="47.0124858559" lon="8.2619521837">
				<ele>999.0</ele>
			</trkpt>
			<trkpt lat="47.0123689733" lon="8.2618233840">
				<ele>998.3</ele>
			</trkpt>
			<trkpt lat="47.0122332647" lon="8.2616629813">
				<ele>997.3</ele>
			</trkpt>
			<trkpt lat="47.0121248140" lon="8.2615186488">
				<ele>996.3</ele>
			</trkpt>
			<trkpt lat="47.0120447470" lon="8.2613991080">
				<ele>995.3</ele>
			</trkpt>
			<trkpt lat="47.0119753922" lon="8.2612797325">
				<ele>994.4</ele>
			</trkpt>
			<trkpt lat="47.0119224210" lon="8.2611988795">
				<ele>993.7</ele>
			</trkpt>
			<trkpt lat="47.0118717242" lon="8.2611319886">
				<ele>993.1</ele>
			</trkpt>
			<trkpt lat="47.0118220745" lon="8.2610859996">
				<ele>992.5</ele>
			</trkpt>
			<trkpt lat="47.0117590021" lon="8.2610501149">
				<ele>991.6</ele>
			</trkpt>
			<trkpt lat="47.0116854184" lon="8.2610211588">
				<ele>990.6</ele>
			</trkpt>
			<trkpt lat="47.0116046862" lon="8.2609955650">
				<ele>989.7</ele>
			</trkpt>
			<trkpt lat="47.0115226991" lon="8.2609769090">
				<ele>988.8</ele>
			</trkpt>
			<trkpt lat="47.0114620833" lon="8.2609672866">
				<ele>988.6</ele>
			</trkpt>
			<trkpt lat="47.0114085418" lon="8.2609647170">
				<ele>988.3</ele>
			</trkpt>
			<trkpt lat="47.0113668466" lon="8.2609710351">
				<ele>988.0</ele>
			</trkpt>
			<trkpt lat="47.0113298224" lon="8.2609896025">
				<ele>987.8</ele>
			</trkpt>
			<trkpt lat="47.0112722950" lon="8.2610461406">
				<ele>987.4</ele>
			</trkpt>
			<trkpt lat="47.0112098593" lon="8.2611234744">
				<ele>987.1</ele>
			</trkpt>
			<trkpt lat="47.0111317128" lon="8.2612353787">
				<ele>986.5</ele>
			</trkpt>
			<trkpt lat="47.0110498647" lon="8.2613628633">
				<ele>985.6</ele>
			</trkpt>
			<trkpt lat="47.0109776006" lon="8.2614835513">
				<ele>985.3</ele>
			</trkpt>
			<trkpt lat="47.0109162685" lon="8.2615713297">
				<ele>985.4</ele>
			</trkpt>
			<trkpt lat="47.0108670534" lon="8.2616314659">
				<ele>985.5</ele>
			</trkpt>
			<trkpt lat="47.0108262835" lon="8.2616743452">
				<ele>985.6</ele>
			</trkpt>
			<trkpt lat="47.0107939553" lon="8.2617016780">
				<ele>985.7</ele>
			</trkpt>
			<trkpt lat="47.0107466733" lon="8.2617268476">
				<ele>985.9</ele>
			</trkpt>
			<trkpt lat="47.0106972772" lon="8.2617269713">
				<ele>986.0</ele>
			</trkpt>
			<trkpt lat="47.0106579317" lon="8.2617130318">
				<ele>985.9</ele>
			</trkpt>
			<trkpt lat="47.0106302362" lon="8.2617578476">
				<ele>986.2</ele>
			</trkpt>
			<trkpt lat="47.0105990037" lon="8.2617991238">
				<ele>986.5</ele>
			</trkpt>
			<trkpt lat="47.0105559000" lon="8.2618350108">
				<ele>986.8</ele>
			</trkpt>
			<trkpt lat="47.0105081007" lon="8.2618621051">
				<ele>987.1</ele>
			</trkpt>
			<trkpt lat="47.0104472358" lon="8.2618872637">
				<ele>987.5</ele>
			</trkpt>
			<trkpt lat="47.0103889399" lon="8.2619041625">
				<ele>987.9</ele>
			</trkpt>
			<trkpt lat="47.0103444102" lon="8.2618077779">
				<ele>988.5</ele>
			</trkpt>
			<trkpt lat="47.0103045639" lon="8.2617219332">
				<ele>989.3</ele>
			</trkpt>
			<trkpt lat="47.0102376555" lon="8.2615939055">
				<ele>990.7</ele>
			</trkpt>
			<trkpt lat="47.0101731090" lon="8.2614676508">
				<ele>991.8</ele>
			</trkpt>
			<trkpt lat="47.0101297160" lon="8.2613782404">
				<ele>992.7</ele>
			</trkpt>
			<trkpt lat="47.0100357144" lon="8.2612097789">
				<ele>994.3</ele>
			</trkpt>
			<trkpt lat="47.0099534964" lon="8.2610589112">
				<ele>995.7</ele>
			</trkpt>
			<trkpt lat="47.0098607287" lon="8.2608852355">
				<ele>997.3</ele>
			</trkpt>
			<trkpt lat="47.0097843687" lon="8.2607466232">
				<ele>998.6</ele>
			</trkpt>
			<trkpt lat="47.0096928085" lon="8.2605712445">
				<ele>1000.3</ele>
			</trkpt>
			<trkpt lat="47.0096058349" lon="8.2604185432">
				<ele>1001.9</ele>
			</trkpt>
			<trkpt lat="47.0095652518" lon="8.2604353342">
				<ele>1002.0</ele>
			</trkpt>
			<trkpt lat="47.0095187156" lon="8.2604520204">
				<ele>1002.2</ele>
			</trkpt>
			<trkpt lat="47.0094447879" lon="8.2604735076">
				<ele>1002.5</ele>
			</trkpt>
			<trkpt lat="47.0093815469" lon="8.2604951591">
				<ele>1002.7</ele>
			</trkpt>
			<trkpt lat="47.0093419340" lon="8.2605272060">
				<ele>1000.7</ele>
			</trkpt>
			<trkpt lat="47.0093118888" lon="8.2605497344">
				<ele>999.6</ele>
			</trkpt>
			<trkpt lat="47.0092755776" lon="8.2605039645">
				<ele>999.6</ele>
			</trkpt>
			<trkpt lat="47.0092459107" lon="8.2604913328">
				<ele>1000.6</ele>
			</trkpt>
			<trkpt lat="47.0091749812" lon="8.2604258721">
				<ele>1001.5</ele>
			</trkpt>
			<trkpt lat="47.0090982467" lon="8.2603394526">
				<ele>1002.1</ele>
			</trkpt>
			<trkpt lat="47.0090225346" lon="8.2602774043">
				<ele>1003.0</ele>
			</trkpt>
			<trkpt lat="47.0089716250" lon="8.2602400785">
				<ele>1003.6</ele>
			</trkpt>
			<trkpt lat="47.0089264874" lon="8.2602272229">
				<ele>1004.4</ele>
			</trkpt>
			<trkpt lat="47.0088657599" lon="8.2602332498">
				<ele>1004.7</ele>
			</trkpt>
			<trkpt lat="47.0088180109" lon="8.2602533889">
				<ele>1006.0</ele>
			</trkpt>
			<trkpt lat="47.0087820743" lon="8.2602859004">
				<ele>1006.6</ele>
			</trkpt>
			<trkpt lat="47.0087365183" lon="8.2603339135">
				<ele>1007.6</ele>
			</trkpt>
			<trkpt lat="47.0086849607" lon="8.2603870558">
				<ele>1008.0</ele>
			</trkpt>
			<trkpt lat="47.0086358875" lon="8.2604263090">
				<ele>1008.7</ele>
			</trkpt>
			<trkpt lat="47.0085618264" lon="8.2604651924">
				<ele>1009.3</ele>
			</trkpt>
			<trkpt lat="47.0084866532" lon="8.2604936175">
				<ele>1009.7</ele>
			</trkpt>
			<trkpt lat="47.0084651872" lon="8.2605002591">
				<ele>1010.0</ele>
			</trkpt>
			<trkpt lat="47.0084308152" lon="8.2604788490">
				<ele>1010.5</ele>
			</trkpt>
			<trkpt lat="47.0084035533" lon="8.2604645045">
				<ele>1011.1</ele>
			</trkpt>
			<trkpt lat="47.0083773536" lon="8.2604675884">
				<ele>1011.7</ele>
			</trkpt>
			<trkpt lat="47.0083084681" lon="8.2604923485">
				<ele>1012.5</ele>
			</trkpt>
			<trkpt lat="47.0082253166" lon="8.2605545669">
				<ele>1013.5</ele>
			</trkpt>
			<trkpt lat="47.0081900415" lon="8.2605775139">
				<ele>1013.9</ele>
			</trkpt>
			<trkpt lat="47.0081679628" lon="8.2605867490">
				<ele>1014.1</ele>
			</trkpt>
			<trkpt lat="47.0081429948" lon="8.2605837499">
				<ele>1014.3</ele>
			</trkpt>
			<trkpt lat="47.0081050573" lon="8.2605640342">
				<ele>1014.8</ele>
			</trkpt>
			<trkpt lat="47.0080437001" lon="8.2605285867">
				<ele>1015.5</ele>
			</trkpt>
			<trkpt lat="47.0080068883" lon="8.2605175812">
				<ele>1015.9</ele>
			</trkpt>
			<trkpt lat="47.0079795266" lon="8.2605171621">
				<ele>1016.2</ele>
			</trkpt>
			<trkpt lat="47.0079401716" lon="8.2605270011">
				<ele>1016.7</ele>
			</trkpt>
			<trkpt lat="47.0078720934" lon="8.2605607550">
				<ele>1017.5</ele>
			</trkpt>
			<trkpt lat="47.0078100452" lon="8.2605841602">
				<ele>1018.0</ele>
			</trkpt>
			<trkpt lat="47.0078016949" lon="8.2605852831">
				<ele>1018.1</ele>
			</trkpt>
			<trkpt lat="47.0077636010" lon="8.2605904054">
				<ele>1018.5</ele>
			</trkpt>
			<trkpt lat="47.0077005837" lon="8.2605807474">
				<ele>1019.0</ele>
			</trkpt>
			<trkpt lat="47.0076365378" lon="8.2605501904">
				<ele>1020.6</ele>
			</trkpt>
			<trkpt lat="47.0075868128" lon="8.2605146325">
				<ele>1023.1</ele>
			</trkpt>
			<trkpt lat="47.0075135461" lon="8.2604439304">
				<ele>1024.2</ele>
			</trkpt>
			<trkpt lat="47.0074211914" lon="8.2603781447">
				<ele>1025.3</ele>
			</trkpt>
			<trkpt lat="47.0073453951" lon="8.2603265250">
				<ele>1026.4</ele>
			</trkpt>
			<trkpt lat="47.0072849698" lon="8.2602890683">
				<ele>1027.6</ele>
			</trkpt>
			<trkpt lat="47.0072377030" lon="8.2602431197">
				<ele>1028.6</ele>
			</trkpt>
			<trkpt lat="47.0071466850" lon="8.2601564720">
				<ele>1030.4</ele>
			</trkpt>
			<trkpt lat="47.0070639676" lon="8.2600751720">
				<ele>1032.7</ele>
			</trkpt>
			<trkpt lat="47.0069622991" lon="8.2599796685">
				<ele>1035.6</ele>
			</trkpt>
			<trkpt lat="47.0069206778" lon="8.2599405008">
				<ele>1036.6</ele>
			</trkpt>
			<trkpt lat="47.0067919766" lon="8.2598300138">
				<ele>1040.0</ele>
			</trkpt>
			<trkpt lat="47.0066556949" lon="8.2597165845">
				<ele>1044.9</ele>
			</trkpt>
			<trkpt lat="47.0065630400" lon="8.2596260867">
				<ele>1048.6</ele>
			</trkpt>
			<trkpt lat="47.0064759570" lon="8.2595551760">
				<ele>1052.5</ele>
			</trkpt>
			<trkpt lat="47.0064345918" lon="8.2594739186">
				<ele>1055.0</ele>
			</trkpt>
			<trkpt lat="47.0064210074" lon="8.2594564578">
				<ele>1055.3</ele>
			</trkpt>
			<trkpt lat="47.0063457086" lon="8.2593352572">
				<ele>1056.8</ele>
			</trkpt>
			<trkpt lat="47.0062739430" lon="8.2592193445">
				<ele>1059.9</ele>
			</trkpt>
			<trkpt lat="47.0062314498" lon="8.2591699865">
				<ele>1062.1</ele>
			</trkpt>
			<trkpt lat="47.0061959705" lon="8.2591398688">
				<ele>1064.0</ele>
			</trkpt>
			<trkpt lat="47.0061283998" lon="8.2591040402">
				<ele>1066.7</ele>
			</trkpt>
			<trkpt lat="47.0060252941" lon="8.2590433277">
				<ele>1071.3</ele>
			</trkpt>
			<trkpt lat="47.0059327895" lon="8.2589984125">
				<ele>1074.6</ele>
			</trkpt>
			<trkpt lat="47.0058366137" lon="8.2589636463">
				<ele>1077.4</ele>
			</trkpt>
			<trkpt lat="47.0057378084" lon="8.2589343098">
				<ele>1080.6</ele>
			</trkpt>
			<trkpt lat="47.0056828182" lon="8.2589028429">
				<ele>1081.3</ele>
			</trkpt>
			<trkpt lat="47.0056430161" lon="8.2588771837">
				<ele>1082.0</ele>
			</trkpt>
			<trkpt lat="47.0056070983" lon="8.2588404586">
				<ele>1082.7</ele>
			</trkpt>
			<trkpt lat="47.0055788586" lon="8.2587954877">
				<ele>1083.8</ele>
			</trkpt>
			<trkpt lat="47.0055566704" lon="8.2587357758">
				<ele>1085.2</ele>
			</trkpt>
			<trkpt lat="47.0055491375" lon="8.2586897405">
				<ele>1086.0</ele>
			</trkpt>
			<trkpt lat="47.0055535010" lon="8.2586242278">
				<ele>1086.5</ele>
			</trkpt>
			<trkpt lat="47.0055743037" lon="8.2585178593">
				<ele>1087.1</ele>
			</trkpt>
			<trkpt lat="47.0055928833" lon="8.2584833609">
				<ele>1087.3</ele>
			</trkpt>
			<trkpt lat="47.0056016940" lon="8.2584500942">
				<ele>1087.6</ele>
			</trkpt>
			<trkpt lat="47.0056005473" lon="8.2584104162">
				<ele>1088.0</ele>
			</trkpt>
			<trkpt lat="47.0055907034" lon="8.2583893836">
				<ele>1088.2</ele>
			</trkpt>
			<trkpt lat="47.0055695407" lon="8.2583535815">
				<ele>1088.8</ele>
			</trkpt>
			<trkpt lat="47.0055340945" lon="8.2583175479">
				<ele>1089.4</ele>
			</trkpt>
			<trkpt lat="47.0054958566" lon="8.2582731214">
				<ele>1090.2</ele>
			</trkpt>
			<trkpt lat="47.0054617659" lon="8.2582475498">
				<ele>1090.8</ele>
			</trkpt>
			<trkpt lat="47.0054133021" lon="8.2582342908">
				<ele>1091.7</ele>
			</trkpt>
			<trkpt lat="47.0053490445" lon="8.2582333094">
				<ele>1093.3</ele>
			</trkpt>
			<trkpt lat="47.0052805201" lon="8.2582301721">
				<ele>1095.5</ele>
			</trkpt>
			<trkpt lat="47.0052092785" lon="8.2582082016">
				<ele>1097.3</ele>
			</trkpt>
			<trkpt lat="47.0051267688" lon="8.2581630997">
				<ele>1098.4</ele>
			</trkpt>
			<trkpt lat="47.0050685448" lon="8.2581183816">
				<ele>1099.6</ele>
			</trkpt>
			<trkpt lat="47.0050115778" lon="8.2580966295">
				<ele>1100.7</ele>
			</trkpt>
			<trkpt lat="47.0049776064" lon="8.2580543598">
				<ele>1101.9</ele>
			</trkpt>
			<trkpt lat="47.0049378489" lon="8.2580224426">
				<ele>1102.5</ele>
			</trkpt>
			<trkpt lat="47.0048936217" lon="8.2580155082">
				<ele>1102.9</ele>
			</trkpt>
			<trkpt lat="47.0048395152" lon="8.2579937998">
				<ele>1103.8</ele>
			</trkpt>
			<trkpt lat="47.0047457761" lon="8.2579213987">
				<ele>1106.9</ele>
			</trkpt>
			<trkpt lat="47.0046996838" lon="8.2578860277">
				<ele>1107.8</ele>
			</trkpt>
			<trkpt lat="47.0046847064" lon="8.2578745341">
				<ele>1108.0</ele>
			</trkpt>
			<trkpt lat="47.0046379710" lon="8.2578195510">
				<ele>1109.7</ele>
			</trkpt>
			<trkpt lat="47.0046084001" lon="8.2577606488">
				<ele>1111.2</ele>
			</trkpt>
			<trkpt lat="47.0045832539" lon="8.2576830225">
				<ele>1112.1</ele>
			</trkpt>
			<trkpt lat="47.0045757867" lon="8.2576591996">
				<ele>1112.7</ele>
			</trkpt>
			<trkpt lat="47.0045827681" lon="8.2576313756">
				<ele>1112.7</ele>
			</trkpt>
			<trkpt lat="47.0046170391" lon="8.2576039950">
				<ele>1112.7</ele>
			</trkpt>
			<trkpt lat="47.0046732412" lon="8.2575665865">
				<ele>1113.0</ele>
			</trkpt>
			<trkpt lat="47.0047378591" lon="8.2575171296">
				<ele>1113.8</ele>
			</trkpt>
			<trkpt lat="47.0047894183" lon="8.2574622396">
				<ele>1114.3</ele>
			</trkpt>
			<trkpt lat="47.0048458684" lon="8.2573900401">
				<ele>1115.0</ele>
			</trkpt>
			<trkpt lat="47.0048891604" lon="8.2573263319">
				<ele>1115.9</ele>
			</trkpt>
			<trkpt lat="47.0049300407" lon="8.2572678070">
				<ele>1116.6</ele>
			</trkpt>
			<trkpt lat="47.0049674986" lon="8.2571883612">
				<ele>1117.5</ele>
			</trkpt>
			<trkpt lat="47.0050086644" lon="8.2570898251">
				<ele>1119.2</ele>
			</trkpt>
			<trkpt lat="47.0050402143" lon="8.2570050551">
				<ele>1120.5</ele>
			</trkpt>
			<trkpt lat="47.0050766495" lon="8.2569012398">
				<ele>1121.9</ele>
			</trkpt>
			<trkpt lat="47.0051179887" lon="8.2567783523">
				<ele>1123.8</ele>
			</trkpt>
			<trkpt lat="47.0051471917" lon="8.2566883521">
				<ele>1124.4</ele>
			</trkpt>
			<trkpt lat="47.0051860318" lon="8.2565828238">
				<ele>1125.7</ele>
			</trkpt>
			<trkpt lat="47.0052212177" lon="8.2564876674">
				<ele>1127.7</ele>
			</trkpt>
			<trkpt lat="47.0052587248" lon="8.2564012519">
				<ele>1130.1</ele>
			</trkpt>
			<trkpt lat="47.0052865544" lon="8.2563373068">
				<ele>1131.6</ele>
			</trkpt>
			<trkpt lat="47.0053203138" lon="8.2562769366">
				<ele>1133.4</ele>
			</trkpt>
			<trkpt lat="47.0053491568" lon="8.2562373733">
				<ele>1134.6</ele>
			</trkpt>
			<trkpt lat="47.0053731587" lon="8.2562081647">
				<ele>1135.2</ele>
			</trkpt>
			<trkpt lat="47.0054090725" lon="8.2561774016">
				<ele>1135.7</ele>
			</trkpt>
			<trkpt lat="47.0054989217" lon="8.2560952676">
				<ele>1137.6</ele>
			</trkpt>
			<trkpt lat="47.0055982905" lon="8.2560115293">
				<ele>1139.3</ele>
			</trkpt>
			<trkpt lat="47.0057084710" lon="8.2559140556">
				<ele>1141.0</ele>
			</trkpt>
			<trkpt lat="47.0057796291" lon="8.2558379349">
				<ele>1141.4</ele>
			</trkpt>
			<trkpt lat="47.0056917817" lon="8.2557502668">
				<ele>1143.5</ele>
			</trkpt>
			<trkpt lat="47.0056196407" lon="8.2556865475">
				<ele>1145.6</ele>
			</trkpt>
			<trkpt lat="47.0055250044" lon="8.2556085733">
				<ele>1148.5</ele>
			</trkpt>
			<trkpt lat="47.0054327460" lon="8.2555288733">
				<ele>1151.2</ele>
			</trkpt>
			<trkpt lat="47.0053344924" lon="8.2554560520">
				<ele>1154.2</ele>
			</trkpt>
			<trkpt lat="47.0052481176" lon="8.2553851475">
				<ele>1156.9</ele>
			</trkpt>
			<trkpt lat="47.0051712340" lon="8.2553178723">
				<ele>1159.0</ele>
			</trkpt>
			<trkpt lat="47.0051086924" lon="8.2552438593">
				<ele>1160.8</ele>
			</trkpt>
			<trkpt lat="47.0050616219" lon="8.2551700819">
				<ele>1162.3</ele>
			</trkpt>
			<trkpt lat="47.0050193993" lon="8.2550824525">
				<ele>1163.7</ele>
			</trkpt>
			<trkpt lat="47.0049819068" lon="8.2550001160">
				<ele>1165.1</ele>
			</trkpt>
			<trkpt lat="47.0049127063" lon="8.2548581487">
				<ele>1168.3</ele>
			</trkpt>
			<trkpt lat="47.0048412455" lon="8.2546987764">
				<ele>1170.5</ele>
			</trkpt>
			<trkpt lat="47.0047885912" lon="8.2545727232">
				<ele>1172.1</ele>
			</trkpt>
			<trkpt lat="47.0047372459" lon="8.2544700308">
				<ele>1174.1</ele>
			</trkpt>
			<trkpt lat="47.0046809413" lon="8.2543550472">
				<ele>1176.6</ele>
			</trkpt>
			<trkpt lat="47.0046177334" lon="8.2542469021">
				<ele>1178.8</ele>
			</trkpt>
			<trkpt lat="47.0045647080" lon="8.2541730225">
				<ele>1180.3</ele>
			</trkpt>
			<trkpt lat="47.0045114854" lon="8.2541268075">
				<ele>1181.2</ele>
			</trkpt>
			<trkpt lat="47.0043971953" lon="8.2540332195">
				<ele>1182.5</ele>
			</trkpt>
			<trkpt lat="47.0043091358" lon="8.2539650806">
				<ele>1183.6</ele>
			</trkpt>
			<trkpt lat="47.0042529750" lon="8.2539297881">
				<ele>1184.7</ele>
			</trkpt>
			<trkpt lat="47.0042045050" lon="8.2539186108">
				<ele>1185.4</ele>
			</trkpt>
			<trkpt lat="47.0041300414" lon="8.2539069071">
				<ele>1186.0</ele>
			</trkpt>
			<trkpt lat="47.0040634482" lon="8.2539003333">
				<ele>1186.6</ele>
			</trkpt>
			<trkpt lat="47.0040026965" lon="8.2538743602">
				<ele>1186.9</ele>
			</trkpt>
			<trkpt lat="47.0039323508" lon="8.2538186151">
				<ele>1187.2</ele>
			</trkpt>
			<trkpt lat="47.0038542264" lon="8.2537600302">
				<ele>1187.6</ele>
			</trkpt>
			<trkpt lat="47.0037808566" lon="8.2537032401">
				<ele>1188.1</ele>
			</trkpt>
			<trkpt lat="47.0037275125" lon="8.2536728696">
				<ele>1188.4</ele>
			</trkpt>
			<trkpt lat="47.0036812080" lon="8.2536582409">
				<ele>1188.5</ele>
			</trkpt>
			<trkpt lat="47.0036384001" lon="8.2536541194">
				<ele>1188.7</ele>
			</trkpt>
			<trkpt lat="47.0035800752" lon="8.2536549824">
				<ele>1188.8</ele>
			</trkpt>
			<trkpt lat="47.0035181426" lon="8.2536609848">
				<ele>1189.3</ele>
			</trkpt>
			<trkpt lat="47.0034550683" lon="8.2536617759">
				<ele>1190.1</ele>
			</trkpt>
			<trkpt lat="47.0034110767" lon="8.2536558742">
				<ele>1190.8</ele>
			</trkpt>
			<trkpt lat="47.0033636093" lon="8.2536377696">
				<ele>1191.7</ele>
			</trkpt>
			<trkpt lat="47.0033067282" lon="8.2536038479">
				<ele>1193.1</ele>
			</trkpt>
			<trkpt lat="47.0032468479" lon="8.2535577569">
				<ele>1194.8</ele>
			</trkpt>
			<trkpt lat="47.0031742199" lon="8.2535295135">
				<ele>1196.4</ele>
			</trkpt>
			<trkpt lat="47.0031058287" lon="8.2535076068">
				<ele>1198.2</ele>
			</trkpt>
			<trkpt lat="47.0030349762" lon="8.2534953539">
				<ele>1199.8</ele>
			</trkpt>
			<trkpt lat="47.0029766760" lon="8.2534927197">
				<ele>1201.2</ele>
			</trkpt>
			<trkpt lat="47.0029409144" lon="8.2535008686">
				<ele>1202.2</ele>
			</trkpt>
			<trkpt lat="47.0029133921" lon="8.2535230677">
				<ele>1202.8</ele>
			</trkpt>
			<trkpt lat="47.0028917286" lon="8.2535575453">
				<ele>1203.4</ele>
			</trkpt>
			<trkpt lat="47.0028687325" lon="8.2536111218">
				<ele>1204.1</ele>
			</trkpt>
			<trkpt lat="47.0028409171" lon="8.2536733168">
				<ele>1205.2</ele>
			</trkpt>
			<trkpt lat="47.0028131476" lon="8.2537302923">
				<ele>1206.3</ele>
			</trkpt>
			<trkpt lat="47.0027759141" lon="8.2537784453">
				<ele>1207.3</ele>
			</trkpt>
			<trkpt lat="47.0027339597" lon="8.2538212931">
				<ele>1207.9</ele>
			</trkpt>
			<trkpt lat="47.0026721967" lon="8.2538553321">
				<ele>1208.6</ele>
			</trkpt>
			<trkpt lat="47.0026089368" lon="8.2538821952">
				<ele>1209.2</ele>
			</trkpt>
			<trkpt lat="47.0025648588" lon="8.2538884817">
				<ele>1209.6</ele>
			</trkpt>
			<trkpt lat="47.0025042089" lon="8.2538823400">
				<ele>1210.0</ele>
			</trkpt>
			<trkpt lat="47.0024008284" lon="8.2538599016">
				<ele>1210.3</ele>
			</trkpt>
			<trkpt lat="47.0022915489" lon="8.2538321403">
				<ele>1211.0</ele>
			</trkpt>
			<trkpt lat="47.0022225447" lon="8.2538293695">
				<ele>1211.3</ele>
			</trkpt>
			<trkpt lat="47.0021500165" lon="8.2538212988">
				<ele>1211.7</ele>
			</trkpt>
			<trkpt lat="47.0021095988" lon="8.2538137289">
				<ele>1212.0</ele>
			</trkpt>
			<trkpt lat="47.0020467226" lon="8.2537866726">
				<ele>1212.8</ele>
			</trkpt>
			<trkpt lat="47.0019958490" lon="8.2537441513">
				<ele>1213.8</ele>
			</trkpt>
			<trkpt lat="47.0019472966" lon="8.2537103699">
				<ele>1214.7</ele>
			</trkpt>
			<trkpt lat="47.0018974580" lon="8.2536904678">
				<ele>1215.5</ele>
			</trkpt>
			<trkpt lat="47.0018498670" lon="8.2536897450">
				<ele>1216.4</ele>
			</trkpt>
			<trkpt lat="47.0017938055" lon="8.2537063030">
				<ele>1217.3</ele>
			</trkpt>
			<trkpt lat="47.0017388137" lon="8.2537419829">
				<ele>1217.8</ele>
			</trkpt>
			<trkpt lat="47.0016681900" lon="8.2538000682">
				<ele>1218.5</ele>
			</trkpt>
			<trkpt lat="47.0016180547" lon="8.2538219100">
				<ele>1219.1</ele>
			</trkpt>
			<trkpt lat="47.0015550054" lon="8.2538192298">
				<ele>1219.8</ele>
			</trkpt>
			<trkpt lat="47.0014706668" lon="8.2537970680">
				<ele>1220.5</ele>
			</trkpt>
			<trkpt lat="47.0014278339" lon="8.2537964174">
				<ele>1221.2</ele>
			</trkpt>
			<trkpt lat="47.0013824608" lon="8.2538166089">
				<ele>1222.1</ele>
			</trkpt>
			<trkpt lat="47.0013417644" lon="8.2538507701">
				<ele>1222.8</ele>
			</trkpt>
			<trkpt lat="47.0012937846" lon="8.2539022166">
				<ele>1223.5</ele>
			</trkpt>
			<trkpt lat="47.0012386318" lon="8.2539605360">
				<ele>1223.9</ele>
			</trkpt>
			<trkpt lat="47.0011848175" lon="8.2539962465">
				<ele>1223.8</ele>
			</trkpt>
			<trkpt lat="47.0011430856" lon="8.2540077884">
				<ele>1223.5</ele>
			</trkpt>
			<trkpt lat="47.0010847452" lon="8.2540121091">
				<ele>1223.1</ele>
			</trkpt>
			<trkpt lat="47.0010300129" lon="8.2540112776">
				<ele>1223.0</ele>
			</trkpt>
			<trkpt lat="47.0009763345" lon="8.2540278712">
				<ele>1222.9</ele>
			</trkpt>
			<trkpt lat="47.0008844676" lon="8.2540612675">
				<ele>1222.8</ele>
			</trkpt>
			<trkpt lat="47.0007853972" lon="8.2541032325">
				<ele>1222.8</ele>
			</trkpt>
			<trkpt lat="47.0006875879" lon="8.2541348027">
				<ele>1222.9</ele>
			</trkpt>
			<trkpt lat="47.0006666550" lon="8.2541394784">
				<ele>1222.9</ele>
			</trkpt>
			<trkpt lat="47.0005636289" lon="8.2541624908">
				<ele>1223.1</ele>
			</trkpt>
			<trkpt lat="47.0004431822" lon="8.2541972012">
				<ele>1223.3</ele>
			</trkpt>
			<trkpt lat="47.0003394060" lon="8.2542304159">
				<ele>1223.8</ele>
			</trkpt>
			<trkpt lat="47.0002571012" lon="8.2542587367">
				<ele>1224.4</ele>
			</trkpt>
			<trkpt lat="47.0001544631" lon="8.2542989242">
				<ele>1225.5</ele>
			</trkpt>
			<trkpt lat="47.0000744590" lon="8.2543377067">
				<ele>1226.4</ele>
			</trkpt>
			<trkpt lat="47.0000116770" lon="8.2543682436">
				<ele>1226.9</ele>
			</trkpt>
			<trkpt lat="46.9999871333" lon="8.2544054496">
				<ele>1227.3</ele>
			</trkpt>
			<trkpt lat="46.9999238598" lon="8.2544671019">
				<ele>1228.3</ele>
			</trkpt>
			<trkpt lat="46.9998263169" lon="8.2545282463">
				<ele>1229.9</ele>
			</trkpt>
			<trkpt lat="46.9997632666" lon="8.2545585947">
				<ele>1231.0</ele>
			</trkpt>
			<trkpt lat="46.9996831850" lon="8.2545740761">
				<ele>1232.6</ele>
			</trkpt>
			<trkpt lat="46.9996132304" lon="8.2545709220">
				<ele>1233.9</ele>
			</trkpt>
			<trkpt lat="46.9995276301" lon="8.2545591805">
				<ele>1235.4</ele>
			</trkpt>
			<trkpt lat="46.9994349332" lon="8.2545410725">
				<ele>1236.0</ele>
			</trkpt>
			<trkpt lat="46.9993963818" lon="8.2545404864">
				<ele>1236.3</ele>
			</trkpt>
			<trkpt lat="46.9993192347" lon="8.2545455855">
				<ele>1237.7</ele>
			</trkpt>
			<trkpt lat="46.9992278045" lon="8.2545504543">
				<ele>1239.8</ele>
			</trkpt>
			<trkpt lat="46.9991633537" lon="8.2545766129">
				<ele>1241.2</ele>
			</trkpt>
			<trkpt lat="46.9990743735" lon="8.2546378733">
				<ele>1243.7</ele>
			</trkpt>
			<trkpt lat="46.9989940542" lon="8.2546867478">
				<ele>1246.1</ele>
			</trkpt>
			<trkpt lat="46.9989110920" lon="8.2547063661">
				<ele>1248.2</ele>
			</trkpt>
			<trkpt lat="46.9988339806" lon="8.2547051936">
				<ele>1249.9</ele>
			</trkpt>
			<trkpt lat="46.9987184308" lon="8.2546888156">
				<ele>1252.3</ele>
			</trkpt>
			<trkpt lat="46.9985901676" lon="8.2546513911">
				<ele>1254.7</ele>
			</trkpt>
			<trkpt lat="46.9984734554" lon="8.2545974309">
				<ele>1257.6</ele>
			</trkpt>
			<trkpt lat="46.9984120931" lon="8.2545902392">
				<ele>1258.9</ele>
			</trkpt>
			<trkpt lat="46.9983677559" lon="8.2545999918">
				<ele>1260.0</ele>
			</trkpt>
			<trkpt lat="46.9983262107" lon="8.2546181490">
				<ele>1261.4</ele>
			</trkpt>
			<trkpt lat="46.9982345571" lon="8.2546543334">
				<ele>1265.5</ele>
			</trkpt>
			<trkpt lat="46.9981300594" lon="8.2546903093">
				<ele>1268.8</ele>
			</trkpt>
			<trkpt lat="46.9980413178" lon="8.2547181885">
				<ele>1271.4</ele>
			</trkpt>
			<trkpt lat="46.9979341231" lon="8.2547311663">
				<ele>1273.4</ele>
			</trkpt>
			<trkpt lat="46.9978440625" lon="8.2547444044">
				<ele>1275.0</ele>
			</trkpt>
			<trkpt lat="46.9978068440" lon="8.2547563687">
				<ele>1275.5</ele>
			</trkpt>
			<trkpt lat="46.9977840566" lon="8.2547476731">
				<ele>1276.5</ele>
			</trkpt>
			<trkpt lat="46.9977498023" lon="8.2547450616">
				<ele>1277.9</ele>
			</trkpt>
			<trkpt lat="46.9977183451" lon="8.2547487512">
				<ele>1279.2</ele>
			</trkpt>
			<trkpt lat="46.9976827580" lon="8.2547336026">
				<ele>1280.0</ele>
			</trkpt>
			<trkpt lat="46.9976458206" lon="8.2547059031">
				<ele>1280.8</ele>
			</trkpt>
			<trkpt lat="46.9976088039" lon="8.2546907328">
				<ele>1281.6</ele>
			</trkpt>
			<trkpt lat="46.9975560728" lon="8.2546753233">
				<ele>1282.0</ele>
			</trkpt>
			<trkpt lat="46.9975117504" lon="8.2546829986">
				<ele>1282.3</ele>
			</trkpt>
			<trkpt lat="46.9974633165" lon="8.2546655641">
				<ele>1282.7</ele>
			</trkpt>
			<trkpt lat="46.9973920593" lon="8.2546456921">
				<ele>1283.2</ele>
			</trkpt>
			<trkpt lat="46.9973165864" lon="8.2546153296">
				<ele>1284.0</ele>
			</trkpt>
			<trkpt lat="46.9972497290" lon="8.2545788268">
				<ele>1284.8</ele>
			</trkpt>
			<trkpt lat="46.9971757600" lon="8.2545380477">
				<ele>1285.6</ele>
			</trkpt>
			<trkpt lat="46.9970917747" lon="8.2544991939">
				<ele>1286.5</ele>
			</trkpt>
			<trkpt lat="46.9970134195" lon="8.2544729559">
				<ele>1287.2</ele>
			</trkpt>
			<trkpt lat="46.9969465484" lon="8.2544385438">
				<ele>1287.8</ele>
			</trkpt>
			<trkpt lat="46.9968954548" lon="8.2543939318">
				<ele>1288.2</ele>
			</trkpt>
			<trkpt lat="46.9968700010" lon="8.2543580718">
				<ele>1288.2</ele>
			</trkpt>
			<trkpt lat="46.9968498957" lon="8.2543744640">
				<ele>1288.4</ele>
			</trkpt>
			<trkpt lat="46.9968084396" lon="8.2543800924">
				<ele>1288.7</ele>
			</trkpt>
			<trkpt lat="46.9967486652" lon="8.2543520466">
				<ele>1289.1</ele>
			</trkpt>
			<trkpt lat="46.9966878223" lon="8.2542718138">
				<ele>1289.7</ele>
			</trkpt>
			<trkpt lat="46.9966624962" lon="8.2542192449">
				<ele>1290.2</ele>
			</trkpt>
			<trkpt lat="46.9965657248" lon="8.2541718489">
				<ele>1292.1</ele>
			</trkpt>
			<trkpt lat="46.9964576669" lon="8.2541127509">
				<ele>1295.0</ele>
			</trkpt>
			<trkpt lat="46.9963537665" lon="8.2540559254">
				<ele>1297.0</ele>
			</trkpt>
			<trkpt lat="46.9961659500" lon="8.2539591501">
				<ele>1300.9</ele>
			</trkpt>
			<trkpt lat="46.9960736078" lon="8.2538909558">
				<ele>1302.8</ele>
			</trkpt>
			<trkpt lat="46.9959498441" lon="8.2538243644">
				<ele>1304.8</ele>
			</trkpt>
			<trkpt lat="46.9957803992" lon="8.2537550125">
				<ele>1307.9</ele>
			</trkpt>
			<trkpt lat="46.9956408765" lon="8.2536944483">
				<ele>1309.9</ele>
			</trkpt>
			<trkpt lat="46.9955183175" lon="8.2536591917">
				<ele>1312.1</ele>
			</trkpt>
			<trkpt lat="46.9953856988" lon="8.2536321281">
				<ele>1314.2</ele>
			</trkpt>
			<trkpt lat="46.9952916242" lon="8.2536077428">
				<ele>1315.9</ele>
			</trkpt>
			<trkpt lat="46.9952204766" lon="8.2535711872">
				<ele>1317.5</ele>
			</trkpt>
			<trkpt lat="46.9951536177" lon="8.2535346840">
				<ele>1318.6</ele>
			</trkpt>
			<trkpt lat="46.9950809455" lon="8.2535127167">
				<ele>1319.5</ele>
			</trkpt>
			<trkpt lat="46.9950011024" lon="8.2534948006">
				<ele>1320.5</ele>
			</trkpt>
			<trkpt lat="46.9948385526" lon="8.2534589377">
				<ele>1323.8</ele>
			</trkpt>
			<trkpt lat="46.9947030833" lon="8.2534318446">
				<ele>1327.8</ele>
			</trkpt>
			<trkpt lat="46.9946346022" lon="8.2534224466">
				<ele>1329.8</ele>
			</trkpt>
			<trkpt lat="46.9945687511" lon="8.2534444035">
				<ele>1331.7</ele>
			</trkpt>
			<trkpt lat="46.9945027604" lon="8.2534872349">
				<ele>1333.4</ele>
			</trkpt>
			<trkpt lat="46.9944541335" lon="8.2534969222">
				<ele>1334.6</ele>
			</trkpt>
			<trkpt lat="46.9943686357" lon="8.2534705877">
				<ele>1337.1</ele>
			</trkpt>
			<trkpt lat="46.9943215828" lon="8.2534615151">
				<ele>1338.4</ele>
			</trkpt>
			<trkpt lat="46.9942544333" lon="8.2534646813">
				<ele>1338.9</ele>
			</trkpt>
			<trkpt lat="46.9941717328" lon="8.2534894251">
				<ele>1338.9</ele>
			</trkpt>
			<trkpt lat="46.9940097666" lon="8.2535435738">
				<ele>1339.5</ele>
			</trkpt>
			<trkpt lat="46.9939000538" lon="8.2535731328">
				<ele>1340.7</ele>
			</trkpt>
			<trkpt lat="46.9938209983" lon="8.2536109632">
				<ele>1342.2</ele>
			</trkpt>
			<trkpt lat="46.9937472373" lon="8.2536547414">
				<ele>1344.1</ele>
			</trkpt>
			<trkpt lat="46.9936893960" lon="8.2537143606">
				<ele>1346.2</ele>
			</trkpt>
			<trkpt lat="46.9936381989" lon="8.2537704729">
				<ele>1348.1</ele>
			</trkpt>
			<trkpt lat="46.9935820091" lon="8.2538405936">
				<ele>1349.3</ele>
			</trkpt>
			<trkpt lat="46.9935272825" lon="8.2539044581">
				<ele>1350.4</ele>
			</trkpt>
			<trkpt lat="46.9934626383" lon="8.2539577337">
				<ele>1351.8</ele>
			</trkpt>
			<trkpt lat="46.9933594905" lon="8.2540041845">
				<ele>1354.1</ele>
			</trkpt>
			<trkpt lat="46.9932777474" lon="8.2540530275">
				<ele>1356.1</ele>
			</trkpt>
			<trkpt lat="46.9932391461" lon="8.2540586936">
				<ele>1356.9</ele>
			</trkpt>
			<trkpt lat="46.9931991767" lon="8.2540560066">
				<ele>1357.5</ele>
			</trkpt>
			<trkpt lat="46.9931392982" lon="8.2540425790">
				<ele>1358.4</ele>
			</trkpt>
			<trkpt lat="46.9930867006" lon="8.2540083860">
				<ele>1359.6</ele>
			</trkpt>
			<trkpt lat="46.9930338361" lon="8.2540117428">
				<ele>1360.6</ele>
			</trkpt>
			<trkpt lat="46.9929965224" lon="8.2540383172">
				<ele>1361.7</ele>
			</trkpt>
			<trkpt lat="46.9929624127" lon="8.2540788449">
				<ele>1362.9</ele>
			</trkpt>
			<trkpt lat="46.9929475245" lon="8.2541001752">
				<ele>1363.3</ele>
			</trkpt>
			<trkpt lat="46.9929291951" lon="8.2540717411">
				<ele>1363.1</ele>
			</trkpt>
			<trkpt lat="46.9929169697" lon="8.2540527850">
				<ele>1364.2</ele>
			</trkpt>
			<trkpt lat="46.9928589142" lon="8.2539627245">
				<ele>1364.7</ele>
			</trkpt>
			<trkpt lat="46.9927611412" lon="8.2538110637">
				<ele>1368.3</ele>
			</trkpt>
			<trkpt lat="46.9927397488" lon="8.2537778844">
				<ele>1370.0</ele>
			</trkpt>
			<trkpt lat="46.9926450457" lon="8.2536614749">
				<ele>1374.3</ele>
			</trkpt>
			<trkpt lat="46.9925940830" lon="8.2535980864">
				<ele>1374.7</ele>
			</trkpt>
			<trkpt lat="46.9925519114" lon="8.2535035306">
				<ele>1375.8</ele>
			</trkpt>
			<trkpt lat="46.9924922256" lon="8.2534629785">
				<ele>1377.2</ele>
			</trkpt>
			<trkpt lat="46.9924055206" lon="8.2534053131">
				<ele>1379.9</ele>
			</trkpt>
			<trkpt lat="46.9923114461" lon="8.2533809167">
				<ele>1383.2</ele>
			</trkpt>
			<trkpt lat="46.9922146159" lon="8.2533418808">
				<ele>1384.9</ele>
			</trkpt>
			<trkpt lat="46.9921007198" lon="8.2532900685">
				<ele>1386.0</ele>
			</trkpt>
			<trkpt lat="46.9919869896" lon="8.2532173706">
				<ele>1387.1</ele>
			</trkpt>
			<trkpt lat="46.9918989570" lon="8.2531771721">
				<ele>1388.9</ele>
			</trkpt>
			<trkpt lat="46.9918050344" lon="8.2530998323">
				<ele>1389.0</ele>
			</trkpt>
			<trkpt lat="46.9917539275" lon="8.2530573187">
				<ele>1389.4</ele>
			</trkpt>
			<trkpt lat="46.9917054576" lon="8.2530461327">
				<ele>1390.0</ele>
			</trkpt>
			<trkpt lat="46.9916541833" lon="8.2530265848">
				<ele>1391.3</ele>
			</trkpt>
			<trkpt lat="46.9915927587" lon="8.2530298254">
				<ele>1392.8</ele>
			</trkpt>
			<trkpt lat="46.9915314693" lon="8.2530121926">
				<ele>1394.2</ele>
			</trkpt>
			<trkpt lat="46.9914714572" lon="8.2530175473">
				<ele>1395.7</ele>
			</trkpt>
			<trkpt lat="46.9914399040" lon="8.2530358513">
				<ele>1396.1</ele>
			</trkpt>
			<trkpt lat="46.9913461106" lon="8.2529718278">
				<ele>1397.3</ele>
			</trkpt>
			<trkpt lat="46.9912566291" lon="8.2529036847">
				<ele>1398.8</ele>
			</trkpt>
			<trkpt lat="46.9911914323" lon="8.2528338175">
				<ele>1399.7</ele>
			</trkpt>
			<trkpt lat="46.9911252273" lon="8.2527055076">
				<ele>1400.5</ele>
			</trkpt>
			<trkpt lat="46.9910377271" lon="8.2525580924">
				<ele>1401.2</ele>
			</trkpt>
			<trkpt lat="46.9909264055" lon="8.2523477040">
				<ele>1402.3</ele>
			</trkpt>
			<trkpt lat="46.9908869143" lon="8.2522782275">
				<ele>1402.7</ele>
			</trkpt>
			<trkpt lat="46.9908331301" lon="8.2522106271">
				<ele>1403.2</ele>
			</trkpt>
			<trkpt lat="46.9908158787" lon="8.2522270683">
				<ele>1403.0</ele>
			</trkpt>
			<trkpt lat="46.9907887706" lon="8.2522224722">
				<ele>1402.7</ele>
			</trkpt>
			<trkpt lat="46.9907390316" lon="8.2521883258">
				<ele>1402.0</ele>
			</trkpt>
			<trkpt lat="46.9906665094" lon="8.2521454893">
				<ele>1401.2</ele>
			</trkpt>
			<trkpt lat="46.9905812503" lon="8.2520857573">
				<ele>1400.4</ele>
			</trkpt>
			<trkpt lat="46.9905342432" lon="8.2520683552">
				<ele>1399.9</ele>
			</trkpt>
			<trkpt lat="46.9904899960" lon="8.2520656048">
				<ele>1399.4</ele>
			</trkpt>
			<trkpt lat="46.9904427520" lon="8.2520815915">
				<ele>1398.5</ele>
			</trkpt>
			<trkpt lat="46.9904040412" lon="8.2521039468">
				<ele>1397.5</ele>
			</trkpt>
			<trkpt lat="46.9903673293" lon="8.2521401805">
				<ele>1396.4</ele>
			</trkpt>
			<trkpt lat="46.9903436355" lon="8.2521635636">
				<ele>1395.7</ele>
			</trkpt>
			<trkpt lat="46.9902674886" lon="8.2522291939">
				<ele>1393.5</ele>
			</trkpt>
			<trkpt lat="46.9901497140" lon="8.2523233999">
				<ele>1390.3</ele>
			</trkpt>
			<trkpt lat="46.9901066454" lon="8.2523482950">
				<ele>1389.3</ele>
			</trkpt>
			<trkpt lat="46.9900524155" lon="8.2523781690">
				<ele>1387.9</ele>
			</trkpt>
			<trkpt lat="46.9900267204" lon="8.2524040977">
				<ele>1387.1</ele>
			</trkpt>
			<trkpt lat="46.9900235451" lon="8.2524281724">
				<ele>1386.8</ele>
			</trkpt>
			<trkpt lat="46.9900278802" lon="8.2524523481">
				<ele>1386.5</ele>
			</trkpt>
			<trkpt lat="46.9900412098" lon="8.2524766731">
				<ele>1386.1</ele>
			</trkpt>
			<trkpt lat="46.9900882507" lon="8.2525332581">
				<ele>1385.0</ele>
			</trkpt>
			<trkpt lat="46.9901035563" lon="8.2525898369">
				<ele>1384.2</ele>
			</trkpt>
			<trkpt lat="46.9901042282" lon="8.2526962755">
				<ele>1382.9</ele>
			</trkpt>
			<trkpt lat="46.9900933239" lon="8.2528234263">
				<ele>1381.0</ele>
			</trkpt>
			<trkpt lat="46.9900973630" lon="8.2528589594">
				<ele>1380.5</ele>
			</trkpt>
			<trkpt lat="46.9901172321" lon="8.2528759633">
				<ele>1380.2</ele>
			</trkpt>
			<trkpt lat="46.9901628771" lon="8.2528829079">
				<ele>1379.7</ele>
			</trkpt>
			<trkpt lat="46.9902271059" lon="8.2528880674">
				<ele>1379.4</ele>
			</trkpt>
			<trkpt lat="46.9902626598" lon="8.2529094688">
				<ele>1379.2</ele>
			</trkpt>
			<trkpt lat="46.9902995285" lon="8.2529455129">
				<ele>1378.7</ele>
			</trkpt>
			<trkpt lat="46.9903642702" lon="8.2530800641">
				<ele>1377.3</ele>
			</trkpt>
			<trkpt lat="46.9904083086" lon="8.2531839518">
				<ele>1376.4</ele>
			</trkpt>
			<trkpt lat="46.9904170206" lon="8.2532257441">
				<ele>1375.9</ele>
			</trkpt>
			<trkpt lat="46.9904136850" lon="8.2532717442">
				<ele>1375.4</ele>
			</trkpt>
			<trkpt lat="46.9904028454" lon="8.2533198259">
				<ele>1374.7</ele>
			</trkpt>
			<trkpt lat="46.9903770567" lon="8.2533588992">
				<ele>1373.9</ele>
			</trkpt>
			<trkpt lat="46.9903272859" lon="8.2533954261">
				<ele>1372.8</ele>
			</trkpt>
			<trkpt lat="46.9902594146" lon="8.2534448372">
				<ele>1371.2</ele>
			</trkpt>
			<trkpt lat="46.9902036045" lon="8.2534856499">
				<ele>1369.9</ele>
			</trkpt>
			<trkpt lat="46.9901613532" lon="8.2535179000">
				<ele>1369.4</ele>
			</trkpt>
			<trkpt lat="46.9900800276" lon="8.2535605334">
				<ele>1368.4</ele>
			</trkpt>
			<trkpt lat="46.9900136896" lon="8.2536055767">
				<ele>1366.5</ele>
			</trkpt>
			<trkpt lat="46.9899519820" lon="8.2536226775">
				<ele>1365.9</ele>
			</trkpt>
			<trkpt lat="46.9899233960" lon="8.2536264158">
				<ele>1365.4</ele>
			</trkpt>
			<trkpt lat="46.9898877087" lon="8.2536237814">
				<ele>1364.7</ele>
			</trkpt>
			<trkpt lat="46.9898221059" lon="8.2536123479">
				<ele>1363.4</ele>
			</trkpt>
			<trkpt lat="46.9897137634" lon="8.2535856688">
				<ele>1361.1</ele>
			</trkpt>
			<trkpt lat="46.9895854986" lon="8.2535482371">
				<ele>1358.7</ele>
			</trkpt>
			<trkpt lat="46.9895226866" lon="8.2535452038">
				<ele>1357.5</ele>
			</trkpt>
			<trkpt lat="46.9894554844" lon="8.2535567006">
				<ele>1356.1</ele>
			</trkpt>
			<trkpt lat="46.9894039328" lon="8.2535767926">
				<ele>1355.0</ele>
			</trkpt>
			<trkpt lat="46.9893665898" lon="8.2536075247">
				<ele>1354.4</ele>
			</trkpt>
			<trkpt lat="46.9893319932" lon="8.2536529081">
				<ele>1354.0</ele>
			</trkpt>
			<trkpt lat="46.9892941813" lon="8.2537483365">
				<ele>1353.3</ele>
			</trkpt>
			<trkpt lat="46.9892462443" lon="8.2538623928">
				<ele>1352.0</ele>
			</trkpt>
			<trkpt lat="46.9891999572" lon="8.2539451623">
				<ele>1350.6</ele>
			</trkpt>
			<trkpt lat="46.9891653306" lon="8.2539947300">
				<ele>1349.9</ele>
			</trkpt>
			<trkpt lat="46.9891278984" lon="8.2540379901">
				<ele>1349.3</ele>
			</trkpt>
			<trkpt lat="46.9890720201" lon="8.2540642679">
				<ele>1348.4</ele>
			</trkpt>
			<trkpt lat="46.9890118910" lon="8.2540842161">
				<ele>1347.6</ele>
			</trkpt>
			<trkpt lat="46.9889460209" lon="8.2541103548">
				<ele>1347.0</ele>
			</trkpt>
			<trkpt lat="46.9888857923" lon="8.2541449237">
				<ele>1346.2</ele>
			</trkpt>
			<trkpt lat="46.9888555964" lon="8.2541736712">
				<ele>1345.8</ele>
			</trkpt>
			<trkpt lat="46.9888354455" lon="8.2541963191">
				<ele>1345.5</ele>
			</trkpt>
			<trkpt lat="46.9888065031" lon="8.2542501450">
				<ele>1344.7</ele>
			</trkpt>
			<trkpt lat="46.9887867819" lon="8.2542327454">
				<ele>1345.1</ele>
			</trkpt>
			<trkpt lat="46.9887653285" lon="8.2542365788">
				<ele>1345.7</ele>
			</trkpt>
			<trkpt lat="46.9886849044" lon="8.2543000468">
				<ele>1345.7</ele>
			</trkpt>
			<trkpt lat="46.9885239074" lon="8.2544478668">
				<ele>1346.4</ele>
			</trkpt>
			<trkpt lat="46.9883312360" lon="8.2546327678">
				<ele>1349.5</ele>
			</trkpt>
			<trkpt lat="46.9882391847" lon="8.2547252765">
				<ele>1350.3</ele>
			</trkpt>
			<trkpt lat="46.9881458902" lon="8.2547906400">
				<ele>1351.6</ele>
			</trkpt>
			<trkpt lat="46.9881087993" lon="8.2547858909">
				<ele>1352.8</ele>
			</trkpt>
			<trkpt lat="46.9880157022" lon="8.2548241311">
				<ele>1354.2</ele>
			</trkpt>
			<trkpt lat="46.9879081486" lon="8.2548871975">
				<ele>1357.0</ele>
			</trkpt>
			<trkpt lat="46.9878764211" lon="8.2549305300">
				<ele>1358.0</ele>
			</trkpt>
			<trkpt lat="46.9877946539" lon="8.2549814587">
				<ele>1359.4</ele>
			</trkpt>
			<trkpt lat="46.9877342109" lon="8.2550473207">
				<ele>1360.7</ele>
			</trkpt>
			<trkpt lat="46.9876935624" lon="8.2551406096">
				<ele>1362.0</ele>
			</trkpt>
			<trkpt lat="46.9876423977" lon="8.2553067842">
				<ele>1362.9</ele>
			</trkpt>
			<trkpt lat="46.9875825810" lon="8.2554832637">
				<ele>1363.2</ele>
			</trkpt>
			<trkpt lat="46.9874971069" lon="8.2556530877">
				<ele>1364.2</ele>
			</trkpt>
			<trkpt lat="46.9874449007" lon="8.2557649811">
				<ele>1364.2</ele>
			</trkpt>
			<trkpt lat="46.9873684096" lon="8.2558785970">
				<ele>1364.9</ele>
			</trkpt>
			<trkpt lat="46.9872935795" lon="8.2559588348">
				<ele>1365.8</ele>
			</trkpt>
			<trkpt lat="46.9872116227" lon="8.2560368969">
				<ele>1367.9</ele>
			</trkpt>
			<trkpt lat="46.9871999166" lon="8.2560763737">
				<ele>1367.7</ele>
			</trkpt>
			<trkpt lat="46.9871683182" lon="8.2561009256">
				<ele>1368.7</ele>
			</trkpt>
			<trkpt lat="46.9871364905" lon="8.2561588771">
				<ele>1370.1</ele>
			</trkpt>
			<trkpt lat="46.9871059370" lon="8.2562377088">
				<ele>1372.8</ele>
			</trkpt>
			<trkpt lat="46.9870543553" lon="8.2562619562">
				<ele>1375.2</ele>
			</trkpt>
			<trkpt lat="46.9870410684" lon="8.2563222824">
				<ele>1375.8</ele>
			</trkpt>
			<trkpt lat="46.9869664313" lon="8.2563754094">
				<ele>1379.4</ele>
			</trkpt>
			<trkpt lat="46.9869288939" lon="8.2564332734">
				<ele>1381.3</ele>
			</trkpt>
			<trkpt lat="46.9869061959" lon="8.2564120540">
				<ele>1382.8</ele>
			</trkpt>
			<trkpt lat="46.9868659631" lon="8.2564469109">
				<ele>1384.9</ele>
			</trkpt>
			<trkpt lat="46.9868184953" lon="8.2564941867">
				<ele>1387.0</ele>
			</trkpt>
			<trkpt lat="46.9867583938" lon="8.2565120521">
				<ele>1389.5</ele>
			</trkpt>
			<trkpt lat="46.9867281525" lon="8.2565470739">
				<ele>1390.6</ele>
			</trkpt>
			<trkpt lat="46.9866777941" lon="8.2566005573">
				<ele>1392.7</ele>
			</trkpt>
			<trkpt lat="46.9866176610" lon="8.2566314648">
				<ele>1391.7</ele>
			</trkpt>
			<trkpt lat="46.9865886997" lon="8.2566373009">
				<ele>1391.8</ele>
			</trkpt>
			<trkpt lat="46.9865626329" lon="8.2566363774">
				<ele>1392.1</ele>
			</trkpt>
			<trkpt lat="46.9865377643" lon="8.2566109528">
				<ele>1392.7</ele>
			</trkpt>
			<trkpt lat="46.9865175683" lon="8.2566398500">
				<ele>1392.3</ele>
			</trkpt>
			<trkpt lat="46.9865125777" lon="8.2567378511">
				<ele>1393.0</ele>
			</trkpt>
			<trkpt lat="46.9864982145" lon="8.2567501614">
				<ele>1394.1</ele>
			</trkpt>
			<trkpt lat="46.9864911773" lon="8.2567354582">
				<ele>1394.5</ele>
			</trkpt>
			<trkpt lat="46.9864811856" lon="8.2567353059">
				<ele>1395.3</ele>
			</trkpt>
			<trkpt lat="46.9864679286" lon="8.2567914340">
				<ele>1396.9</ele>
			</trkpt>
			<trkpt lat="46.9864430542" lon="8.2568745358">
				<ele>1396.8</ele>
			</trkpt>
			<trkpt lat="46.9862936903" lon="8.2569932890">
				<ele>1400.4</ele>
			</trkpt>
			<trkpt lat="46.9862133689" lon="8.2570421427">
				<ele>1402.7</ele>
			</trkpt>
			<trkpt lat="46.9862020943" lon="8.2570211103">
				<ele>1403.9</ele>
			</trkpt>
			<trkpt lat="46.9861793070" lon="8.2570124187">
				<ele>1405.8</ele>
			</trkpt>
			<trkpt lat="46.9861676751" lon="8.2570414460">
				<ele>1406.7</ele>
			</trkpt>
			<trkpt lat="46.9861507304" lon="8.2570518542">
				<ele>1407.0</ele>
			</trkpt>
			<trkpt lat="46.9861146149" lon="8.2570740267">
				<ele>1407.5</ele>
			</trkpt>
			<trkpt lat="46.9860669829" lon="8.2571442647">
				<ele>1407.9</ele>
			</trkpt>
			<trkpt lat="46.9860310469" lon="8.2571771063">
				<ele>1408.6</ele>
			</trkpt>
			<trkpt lat="46.9860122244" lon="8.2572123013">
				<ele>1409.0</ele>
			</trkpt>
			<trkpt lat="46.9859663415" lon="8.2572387139">
				<ele>1410.5</ele>
			</trkpt>
			<trkpt lat="46.9859278039" lon="8.2572360465">
				<ele>1412.0</ele>
			</trkpt>
			<trkpt lat="46.9859122623" lon="8.2572128438">
				<ele>1413.7</ele>
			</trkpt>
			<trkpt lat="46.9858852226" lon="8.2571999153">
				<ele>1415.3</ele>
			</trkpt>
			<trkpt lat="46.9858568748" lon="8.2571702657">
				<ele>1417.5</ele>
			</trkpt>
			<trkpt lat="46.9858240274" lon="8.2571697648">
				<ele>1418.8</ele>
			</trkpt>
			<trkpt lat="46.9858008378" lon="8.2572174221">
				<ele>1418.9</ele>
			</trkpt>
			<trkpt lat="46.9857750215" lon="8.2572337168">
				<ele>1419.8</ele>
			</trkpt>
			<trkpt lat="46.9857162342" lon="8.2572662098">
				<ele>1420.8</ele>
			</trkpt>
			<trkpt lat="46.9856887923" lon="8.2573096043">
				<ele>1422.0</ele>
			</trkpt>
			<trkpt lat="46.9856784133" lon="8.2573637086">
				<ele>1423.5</ele>
			</trkpt>
			<trkpt lat="46.9856678764" lon="8.2574386708">
				<ele>1423.9</ele>
			</trkpt>
			<trkpt lat="46.9855969741" lon="8.2575690541">
				<ele>1425.4</ele>
			</trkpt>
			<trkpt lat="46.9855751478" lon="8.2576250631">
				<ele>1427.7</ele>
			</trkpt>
			<trkpt lat="46.9855505243" lon="8.2576748035">
				<ele>1427.7</ele>
			</trkpt>
			<trkpt lat="46.9855344374" lon="8.2577267151">
				<ele>1427.5</ele>
			</trkpt>
			<trkpt lat="46.9855440205" lon="8.2577852958">
				<ele>1427.1</ele>
			</trkpt>
			<trkpt lat="46.9855450409" lon="8.2578416662">
				<ele>1427.9</ele>
			</trkpt>
			<trkpt lat="46.9855273371" lon="8.2579206779">
				<ele>1429.7</ele>
			</trkpt>
			<trkpt lat="46.9855225181" lon="8.2579957398">
				<ele>1430.3</ele>
			</trkpt>
			<trkpt lat="46.9855038491" lon="8.2580100507">
				<ele>1431.4</ele>
			</trkpt>
			<trkpt lat="46.9854964331" lon="8.2580496041">
				<ele>1431.8</ele>
			</trkpt>
			<trkpt lat="46.9854430761" lon="8.2581218197">
				<ele>1432.2</ele>
			</trkpt>
			<trkpt lat="46.9853954032" lon="8.2581983068">
				<ele>1432.2</ele>
			</trkpt>
			<trkpt lat="46.9853325274" lon="8.2582035985">
				<ele>1432.9</ele>
			</trkpt>
			<trkpt lat="46.9852994353" lon="8.2582385749">
				<ele>1433.7</ele>
			</trkpt>
			<trkpt lat="46.9852532792" lon="8.2583025560">
				<ele>1435.8</ele>
			</trkpt>
			<trkpt lat="46.9852045919" lon="8.2583206060">
				<ele>1439.0</ele>
			</trkpt>
			<trkpt lat="46.9851786859" lon="8.2583494146">
				<ele>1440.5</ele>
			</trkpt>
			<trkpt lat="46.9851674564" lon="8.2583221057">
				<ele>1442.3</ele>
			</trkpt>
			<trkpt lat="46.9851544266" lon="8.2583469518">
				<ele>1443.5</ele>
			</trkpt>
			<trkpt lat="46.9851426899" lon="8.2583905980">
				<ele>1444.7</ele>
			</trkpt>
			<trkpt lat="46.9851283371" lon="8.2584008153">
				<ele>1444.9</ele>
			</trkpt>
			<trkpt lat="46.9851213002" lon="8.2583860994">
				<ele>1445.7</ele>
			</trkpt>
			<trkpt lat="46.9850942502" lon="8.2583752499">
				<ele>1447.9</ele>
			</trkpt>
			<trkpt lat="46.9850829014" lon="8.2583646401">
				<ele>1449.3</ele>
			</trkpt>
			<trkpt lat="46.9850512577" lon="8.2583954535">
				<ele>1451.1</ele>
			</trkpt>
			<trkpt lat="46.9850127053" lon="8.2583948648">
				<ele>1453.6</ele>
			</trkpt>
			<trkpt lat="46.9849997351" lon="8.2584113676">
				<ele>1454.0</ele>
			</trkpt>
			<trkpt lat="46.9849750344" lon="8.2584049057">
				<ele>1454.8</ele>
			</trkpt>
			<trkpt lat="46.9849906626" lon="8.2583680327">
				<ele>1456.5</ele>
			</trkpt>
			<trkpt lat="46.9849724364" lon="8.2583627993">
				<ele>1457.2</ele>
			</trkpt>
			<trkpt lat="46.9849799464" lon="8.2583365212">
				<ele>1457.9</ele>
			</trkpt>
			<trkpt lat="46.9849636676" lon="8.2583163240">
				<ele>1459.5</ele>
			</trkpt>
			<trkpt lat="46.9849631716" lon="8.2582849429">
				<ele>1461.2</ele>
			</trkpt>
			<trkpt lat="46.9849380665" lon="8.2582717611">
				<ele>1462.8</ele>
			</trkpt>
			<trkpt lat="46.9849375740" lon="8.2582410990">
				<ele>1464.3</ele>
			</trkpt>
			<trkpt lat="46.9849841042" lon="8.2582003717">
				<ele>1467.3</ele>
			</trkpt>
			<trkpt lat="46.9850385948" lon="8.2581698942">
				<ele>1469.4</ele>
			</trkpt>
			<trkpt lat="46.9850600696" lon="8.2581618781">
				<ele>1469.8</ele>
			</trkpt>
			<trkpt lat="46.9850717764" lon="8.2581224033">
				<ele>1471.3</ele>
			</trkpt>
			<trkpt lat="46.9850418329" lon="8.2581156946">
				<ele>1473.3</ele>
			</trkpt>
			<trkpt lat="46.9850606661" lon="8.2580784083">
				<ele>1474.7</ele>
			</trkpt>
			<trkpt lat="46.9850753574" lon="8.2580202114">
				<ele>1477.6</ele>
			</trkpt>
			<trkpt lat="46.9850786235" lon="8.2579639198">
				<ele>1480.7</ele>
			</trkpt>
			<trkpt lat="46.9850212528" lon="8.2579985255">
				<ele>1482.8</ele>
			</trkpt>
			<trkpt lat="46.9850012414" lon="8.2580002997">
				<ele>1483.5</ele>
			</trkpt>
			<trkpt lat="46.9849913542" lon="8.2579855404">
				<ele>1485.2</ele>
			</trkpt>
			<trkpt lat="46.9850330789" lon="8.2579423646">
				<ele>1486.7</ele>
			</trkpt>
			<trkpt lat="46.9850548220" lon="8.2578967786">
				<ele>1487.8</ele>
			</trkpt>
			<trkpt lat="46.9850464067" lon="8.2578757901">
				<ele>1489.5</ele>
			</trkpt>
			<trkpt lat="46.9850609191" lon="8.2578426226">
				<ele>1491.5</ele>
			</trkpt>
			<trkpt lat="46.9850967553" lon="8.2578243889">
				<ele>1492.5</ele>
			</trkpt>
			<trkpt lat="46.9851054539" lon="8.2578057283">
				<ele>1493.4</ele>
			</trkpt>
			<trkpt lat="46.9850674231" lon="8.2577321184">
				<ele>1498.6</ele>
			</trkpt>
			<trkpt lat="46.9851445920" lon="8.2577249518">
				<ele>1501.3</ele>
			</trkpt>
			<trkpt lat="46.9851447114" lon="8.2577082527">
				<ele>1502.1</ele>
			</trkpt>
			<trkpt lat="46.9851775393" lon="8.2577108460">
				<ele>1502.8</ele>
			</trkpt>
			<trkpt lat="46.9851948661" lon="8.2576839730">
				<ele>1504.5</ele>
			</trkpt>
			<trkpt lat="46.9851793097" lon="8.2576628626">
				<ele>1506.3</ele>
			</trkpt>
			<trkpt lat="46.9851971028" lon="8.2575713110">
				<ele>1510.1</ele>
			</trkpt>
			<trkpt lat="46.9851804126" lon="8.2575084503">
				<ele>1514.6</ele>
			</trkpt>
			<trkpt lat="46.9851545872" lon="8.2575247573">
				<ele>1515.7</ele>
			</trkpt>
			<trkpt lat="46.9851378865" lon="8.2574639761">
				<ele>1518.8</ele>
			</trkpt>
			<trkpt lat="46.9851781941" lon="8.2574186858">
				<ele>1520.8</ele>
			</trkpt>
			<trkpt lat="46.9851785070" lon="8.2573748778">
				<ele>1523.1</ele>
			</trkpt>
			<trkpt lat="46.9851886478" lon="8.2573541467">
				<ele>1524.0</ele>
			</trkpt>
			<trkpt lat="46.9851789540" lon="8.2573122658">
				<ele>1528.0</ele>
			</trkpt>
			<trkpt lat="46.9851736616" lon="8.2572537638">
				<ele>1531.4</ele>
			</trkpt>
			<trkpt lat="46.9851551521" lon="8.2572451248">
				<ele>1532.4</ele>
			</trkpt>
			<trkpt lat="46.9851222391" lon="8.2572550593">
				<ele>1535.1</ele>
			</trkpt>
			<trkpt lat="46.9850520475" lon="8.2572852983">
				<ele>1540.0</ele>
			</trkpt>
			<trkpt lat="46.9849876936" lon="8.2572989126">
				<ele>1545.8</ele>
			</trkpt>
			<trkpt lat="46.9849544440" lon="8.2573547598">
				<ele>1546.9</ele>
			</trkpt>
			<trkpt lat="46.9849173232" lon="8.2573541936">
				<ele>1548.7</ele>
			</trkpt>
			<trkpt lat="46.9848740478" lon="8.2574140469">
				<ele>1546.6</ele>
			</trkpt>
			<trkpt lat="46.9848366439" lon="8.2574531297">
				<ele>1546.1</ele>
			</trkpt>
			<trkpt lat="46.9848051645" lon="8.2574609935">
				<ele>1546.7</ele>
			</trkpt>
			<trkpt lat="46.9847534035" lon="8.2575102936">
				<ele>1547.0</ele>
			</trkpt>
			<trkpt lat="46.9847368046" lon="8.2575342765">
				<ele>1547.0</ele>
			</trkpt>
			<trkpt lat="46.9847251775" lon="8.2575626098">
				<ele>1546.5</ele>
			</trkpt>
			<trkpt lat="46.9847132461" lon="8.2575683585">
				<ele>1546.5</ele>
			</trkpt>
			<trkpt lat="46.9846799590" lon="8.2575482616">
				<ele>1547.9</ele>
			</trkpt>
			<trkpt lat="46.9846415508" lon="8.2575428491">
				<ele>1548.9</ele>
			</trkpt>
			<trkpt lat="46.9846070010" lon="8.2575777646">
				<ele>1549.1</ele>
			</trkpt>
			<trkpt lat="46.9845859194" lon="8.2575823980">
				<ele>1549.6</ele>
			</trkpt>
			<trkpt lat="46.9845718770" lon="8.2575596294">
				<ele>1550.8</ele>
			</trkpt>
			<trkpt lat="46.9845412312" lon="8.2575552981">
				<ele>1552.5</ele>
			</trkpt>
			<trkpt lat="46.9845027758" lon="8.2575577281">
				<ele>1557.0</ele>
			</trkpt>
			<trkpt lat="46.9844861365" lon="8.2575830581">
				<ele>1559.1</ele>
			</trkpt>
			<trkpt lat="46.9844764163" lon="8.2575996234">
				<ele>1560.1</ele>
			</trkpt>
			<trkpt lat="46.9844783467" lon="8.2576546715">
				<ele>1559.9</ele>
			</trkpt>
			<trkpt lat="46.9844611024" lon="8.2577025851">
				<ele>1560.3</ele>
			</trkpt>
			<trkpt lat="46.9844478324" lon="8.2577014327">
				<ele>1560.6</ele>
			</trkpt>
			<trkpt lat="46.9844242882" lon="8.2576628069">
				<ele>1562.0</ele>
			</trkpt>
			<trkpt lat="46.9844248607" lon="8.2576441510">
				<ele>1562.7</ele>
			</trkpt>
			<trkpt lat="46.9844190525" lon="8.2576234464">
				<ele>1563.7</ele>
			</trkpt>
			<trkpt lat="46.9844274972" lon="8.2575911237">
				<ele>1563.9</ele>
			</trkpt>
			<trkpt lat="46.9844201836" lon="8.2575782395">
				<ele>1564.4</ele>
			</trkpt>
			<trkpt lat="46.9843658466" lon="8.2575878469">
				<ele>1566.5</ele>
			</trkpt>
			<trkpt lat="46.9843490073" lon="8.2575458575">
				<ele>1568.2</ele>
			</trkpt>
			<trkpt lat="46.9843332615" lon="8.2575518689">
				<ele>1568.2</ele>
			</trkpt>
			<trkpt lat="46.9843263437" lon="8.2575204673">
				<ele>1569.4</ele>
			</trkpt>
			<trkpt lat="46.9843408349" lon="8.2574914717">
				<ele>1570.3</ele>
			</trkpt>
			<trkpt lat="46.9843268801" lon="8.2574453545">
				<ele>1572.3</ele>
			</trkpt>
			<trkpt lat="46.9843141293" lon="8.2574305388">
				<ele>1573.3</ele>
			</trkpt>
			<trkpt lat="46.9843042866" lon="8.2574095289">
				<ele>1574.1</ele>
			</trkpt>
			<trkpt lat="46.9843089964" lon="8.2573490882">
				<ele>1576.3</ele>
			</trkpt>
			<trkpt lat="46.9843234621" lon="8.2573242642">
				<ele>1577.1</ele>
			</trkpt>
			<trkpt lat="46.9843150977" lon="8.2572949329">
				<ele>1578.1</ele>
			</trkpt>
			<trkpt lat="46.9842724269" lon="8.2572713171">
				<ele>1579.6</ele>
			</trkpt>
			<trkpt lat="46.9842727101" lon="8.2572316687">
				<ele>1580.2</ele>
			</trkpt>
			<trkpt lat="46.9842290737" lon="8.2571433666">
				<ele>1582.3</ele>
			</trkpt>
			<trkpt lat="46.9841608608" lon="8.2570964095">
				<ele>1585.1</ele>
			</trkpt>
			<trkpt lat="46.9841353036" lon="8.2570751601">
				<ele>1586.7</ele>
			</trkpt>
			<trkpt lat="46.9841198661" lon="8.2570373644">
				<ele>1587.5</ele>
			</trkpt>
			<trkpt lat="46.9841015099" lon="8.2570078681">
				<ele>1588.0</ele>
			</trkpt>
			<trkpt lat="46.9840889271" lon="8.2569701160">
				<ele>1588.5</ele>
			</trkpt>
			<trkpt lat="46.9840652173" lon="8.2569318991">
				<ele>1589.2</ele>
			</trkpt>
			<trkpt lat="46.9840110392" lon="8.2568595470">
				<ele>1591.3</ele>
			</trkpt>
			<trkpt lat="46.9839738983" lon="8.2568162732">
				<ele>1591.8</ele>
			</trkpt>
			<trkpt lat="46.9839266478" lon="8.2568096610">
				<ele>1592.3</ele>
			</trkpt>
			<trkpt lat="46.9838872016" lon="8.2568549254">
				<ele>1594.2</ele>
			</trkpt>
			<trkpt lat="46.9838292717" lon="8.2567574208">
				<ele>1600.2</ele>
			</trkpt>
			<trkpt lat="46.9837934376" lon="8.2566799573">
				<ele>1603.5</ele>
			</trkpt>
			<trkpt lat="46.9837835312" lon="8.2566512320">
				<ele>1605.7</ele>
			</trkpt>
			<trkpt lat="46.9837484515" lon="8.2566090168">
				<ele>1607.3</ele>
			</trkpt>
			<trkpt lat="46.9837296193" lon="8.2565581791">
				<ele>1609.5</ele>
			</trkpt>
			<trkpt lat="46.9836984388" lon="8.2565358304">
				<ele>1610.1</ele>
			</trkpt>
			<trkpt lat="46.9836707846" lon="8.2564452445">
				<ele>1612.2</ele>
			</trkpt>
			<trkpt lat="46.9836610283" lon="8.2563967017">
				<ele>1614.4</ele>
			</trkpt>
			<trkpt lat="46.9836019378" lon="8.2563190000">
				<ele>1616.6</ele>
			</trkpt>
			<trkpt lat="46.9835658993" lon="8.2562701598">
				<ele>1617.2</ele>
			</trkpt>
			<trkpt lat="46.9835358904" lon="8.2562258016">
				<ele>1617.7</ele>
			</trkpt>
			<trkpt lat="46.9834988355" lon="8.2561722606">
				<ele>1618.3</ele>
			</trkpt>
			<trkpt lat="46.9834707296" lon="8.2561437718">
				<ele>1618.1</ele>
			</trkpt>
			<trkpt lat="46.9834336540" lon="8.2561036064">
				<ele>1617.2</ele>
			</trkpt>
			<trkpt lat="46.9834069241" lon="8.2560262569">
				<ele>1618.3</ele>
			</trkpt>
			<trkpt lat="46.9833591955" lon="8.2559678041">
				<ele>1618.3</ele>
			</trkpt>
			<trkpt lat="46.9832989305" lon="8.2560086183">
				<ele>1619.3</ele>
			</trkpt>
			<trkpt lat="46.9832700721" lon="8.2560499233">
				<ele>1620.8</ele>
			</trkpt>
			<trkpt lat="46.9832387768" lon="8.2560867883">
				<ele>1619.1</ele>
			</trkpt>
			<trkpt lat="46.9832259229" lon="8.2561510833">
				<ele>1617.9</ele>
			</trkpt>
			<trkpt lat="46.9832005206" lon="8.2562405394">
				<ele>1618.8</ele>
			</trkpt>
			<trkpt lat="46.9831815429" lon="8.2562488893">
				<ele>1619.5</ele>
			</trkpt>
			<trkpt lat="46.9831514951" lon="8.2562567882">
				<ele>1620.3</ele>
			</trkpt>
			<trkpt lat="46.9831353879" lon="8.2563128695">
				<ele>1621.7</ele>
			</trkpt>
			<trkpt lat="46.9830892180" lon="8.2563789418">
				<ele>1622.6</ele>
			</trkpt>
			<trkpt lat="46.9830560370" lon="8.2564264321">
				<ele>1623.2</ele>
			</trkpt>
			<trkpt lat="46.9830186248" lon="8.2564655141">
				<ele>1623.9</ele>
			</trkpt>
			<trkpt lat="46.9829642775" lon="8.2564772017">
				<ele>1625.2</ele>
			</trkpt>
			<trkpt lat="46.9829330361" lon="8.2564516818">
				<ele>1626.3</ele>
			</trkpt>
			<trkpt lat="46.9829133206" lon="8.2564138348">
				<ele>1627.6</ele>
			</trkpt>
			<trkpt lat="46.9829407428" lon="8.2563725212">
				<ele>1629.1</ele>
			</trkpt>
			<trkpt lat="46.9829568502" lon="8.2563164144">
				<ele>1630.5</ele>
			</trkpt>
			<trkpt lat="46.9829802626" lon="8.2562374802">
				<ele>1631.9</ele>
			</trkpt>
			<trkpt lat="46.9829837614" lon="8.2561478065">
				<ele>1633.9</ele>
			</trkpt>
			<trkpt lat="46.9829911749" lon="8.2561103598">
				<ele>1634.5</ele>
			</trkpt>
			<trkpt lat="46.9829944419" lon="8.2560519779">
				<ele>1635.6</ele>
			</trkpt>
			<trkpt lat="46.9829737513" lon="8.2559494075">
				<ele>1637.6</ele>
			</trkpt>
			<trkpt lat="46.9829628185" lon="8.2558803991">
				<ele>1639.2</ele>
			</trkpt>
			<trkpt lat="46.9829635472" lon="8.2557781549">
				<ele>1641.0</ele>
			</trkpt>
			<trkpt lat="46.9829712729" lon="8.2556968892">
				<ele>1642.7</ele>
			</trkpt>
			<trkpt lat="46.9829960736" lon="8.2556221476">
				<ele>1644.4</ele>
			</trkpt>
			<trkpt lat="46.9830308494" lon="8.2555517296">
				<ele>1645.9</ele>
			</trkpt>
			<trkpt lat="46.9830353634" lon="8.2555204900">
				<ele>1646.7</ele>
			</trkpt>
			<trkpt lat="46.9830225379" lon="8.2555161230">
				<ele>1647.1</ele>
			</trkpt>
			<trkpt lat="46.9829995572" lon="8.2555345531">
				<ele>1647.6</ele>
			</trkpt>
			<trkpt lat="46.9829521684" lon="8.2555714043">
				<ele>1648.4</ele>
			</trkpt>
			<trkpt lat="46.9829104000" lon="8.2556208438">
				<ele>1649.2</ele>
			</trkpt>
			<trkpt lat="46.9828497930" lon="8.2557096482">
				<ele>1650.9</ele>
			</trkpt>
			<trkpt lat="46.9828195669" lon="8.2557425757">
				<ele>1651.8</ele>
			</trkpt>
			<trkpt lat="46.9828107498" lon="8.2557779214">
				<ele>1652.3</ele>
			</trkpt>
			<trkpt lat="46.9827675985" lon="8.2558210753">
				<ele>1653.7</ele>
			</trkpt>
			<trkpt lat="46.9827415846" lon="8.2558645029">
				<ele>1654.1</ele>
			</trkpt>
			<trkpt lat="46.9827158190" lon="8.2558724543">
				<ele>1654.8</ele>
			</trkpt>
			<trkpt lat="46.9827074822" lon="8.2558410323">
				<ele>1655.4</ele>
			</trkpt>
			<trkpt lat="46.9827205622" lon="8.2558078439">
				<ele>1656.1</ele>
			</trkpt>
			<trkpt lat="46.9827380416" lon="8.2557601146">
				<ele>1657.0</ele>
			</trkpt>
			<trkpt lat="46.9827427892" lon="8.2556954913">
				<ele>1658.2</ele>
			</trkpt>
			<trkpt lat="46.9827464171" lon="8.2555870402">
				<ele>1660.3</ele>
			</trkpt>
			<trkpt lat="46.9827586283" lon="8.2554766403">
				<ele>1662.5</ele>
			</trkpt>
			<trkpt lat="46.9827535090" lon="8.2553931000">
				<ele>1664.4</ele>
			</trkpt>
			<trkpt lat="46.9827582965" lon="8.2553222131">
				<ele>1665.9</ele>
			</trkpt>
			<trkpt lat="46.9827764102" lon="8.2551847795">
				<ele>1669.0</ele>
			</trkpt>
			<trkpt lat="46.9827900976" lon="8.2550681248">
				<ele>1671.9</ele>
			</trkpt>
			<trkpt lat="46.9828267759" lon="8.2549309605">
				<ele>1675.2</ele>
			</trkpt>
			<trkpt lat="46.9828332028" lon="8.2548308955">
				<ele>1677.4</ele>
			</trkpt>
			<trkpt lat="46.9828336038" lon="8.2547745624">
				<ele>1679.0</ele>
			</trkpt>
			<trkpt lat="46.9827804866" lon="8.2548133938">
				<ele>1680.9</ele>
			</trkpt>
			<trkpt lat="46.9827102214" lon="8.2548540696">
				<ele>1682.7</ele>
			</trkpt>
			<trkpt lat="46.9826788993" lon="8.2548410778">
				<ele>1683.8</ele>
			</trkpt>
			<trkpt lat="46.9825856090" lon="8.2549064343">
				<ele>1686.8</ele>
			</trkpt>
			<trkpt lat="46.9825282095" lon="8.2549452003">
				<ele>1688.9</ele>
			</trkpt>
			<trkpt lat="46.9824877988" lon="8.2550051093">
				<ele>1690.4</ele>
			</trkpt>
			<trkpt lat="46.9824825307" lon="8.2549424135">
				<ele>1691.6</ele>
			</trkpt>
			<trkpt lat="46.9824875852" lon="8.2548339846">
				<ele>1694.3</ele>
			</trkpt>
			<trkpt lat="46.9824955137" lon="8.2547235070">
				<ele>1696.7</ele>
			</trkpt>
			<trkpt lat="46.9825004492" lon="8.2546317765">
				<ele>1699.0</ele>
			</trkpt>
			<trkpt lat="46.9825195782" lon="8.2545527770">
				<ele>1701.2</ele>
			</trkpt>
			<trkpt lat="46.9825156376" lon="8.2545047219">
				<ele>1702.6</ele>
			</trkpt>
			<trkpt lat="46.9824876905" lon="8.2544174207">
				<ele>1705.4</ele>
			</trkpt>
			<trkpt lat="46.9824898560" lon="8.2543279073">
				<ele>1708.0</ele>
			</trkpt>
			<trkpt lat="46.9825242446" lon="8.2542321570">
				<ele>1708.6</ele>
			</trkpt>
			<trkpt lat="46.9825353404" lon="8.2541808261">
				<ele>1708.7</ele>
			</trkpt>
			<trkpt lat="46.9825697766" lon="8.2540783758">
				<ele>1709.2</ele>
			</trkpt>
			<trkpt lat="46.9825810863" lon="8.2539957145">
				<ele>1711.1</ele>
			</trkpt>
			<trkpt lat="46.9825349496" lon="8.2540196339">
				<ele>1712.1</ele>
			</trkpt>
			<trkpt lat="46.9824606351" lon="8.2541282046">
				<ele>1714.7</ele>
			</trkpt>
			<trkpt lat="46.9823690522" lon="8.2542333165">
				<ele>1717.8</ele>
			</trkpt>
			<trkpt lat="46.9823502648" lon="8.2542643260">
				<ele>1718.3</ele>
			</trkpt>
			<trkpt lat="46.9823172437" lon="8.2542888680">
				<ele>1719.4</ele>
			</trkpt>
			<trkpt lat="46.9822641711" lon="8.2543214488">
				<ele>1720.7</ele>
			</trkpt>
			<trkpt lat="46.9822732341" lon="8.2542527198">
				<ele>1722.1</ele>
			</trkpt>
			<trkpt lat="46.9822751171" lon="8.2541880663">
				<ele>1723.7</ele>
			</trkpt>
			<trkpt lat="46.9822885765" lon="8.2541027039">
				<ele>1725.7</ele>
			</trkpt>
			<trkpt lat="46.9822789260" lon="8.2540545752">
				<ele>1727.3</ele>
			</trkpt>
			<trkpt lat="46.9822849027" lon="8.2540171069">
				<ele>1727.8</ele>
			</trkpt>
			<trkpt lat="46.9822912547" lon="8.2539274648">
				<ele>1729.8</ele>
			</trkpt>
			<trkpt lat="46.9822916848" lon="8.2538669738">
				<ele>1730.7</ele>
			</trkpt>
			<trkpt lat="46.9823050104" lon="8.2538004017">
				<ele>1731.2</ele>
			</trkpt>
			<trkpt lat="46.9823110507" lon="8.2537545779">
				<ele>1731.6</ele>
			</trkpt>
			<trkpt lat="46.9823220065" lon="8.2536191157">
				<ele>1734.4</ele>
			</trkpt>
			<trkpt lat="46.9823246543" lon="8.2534480479">
				<ele>1738.3</ele>
			</trkpt>
			<trkpt lat="46.9823248074" lon="8.2534252785">
				<ele>1738.9</ele>
			</trkpt>
			<trkpt lat="46.9823191115" lon="8.2533886599">
				<ele>1739.8</ele>
			</trkpt>
			<trkpt lat="46.9823228798" lon="8.2533609008">
				<ele>1740.1</ele>
			</trkpt>
			<trkpt lat="46.9823326566" lon="8.2533245299">
				<ele>1740.6</ele>
			</trkpt>
			<trkpt lat="46.9823436528" lon="8.2532846988">
				<ele>1741.3</ele>
			</trkpt>
			<trkpt lat="46.9823535285" lon="8.2532344148">
				<ele>1742.2</ele>
			</trkpt>
			<trkpt lat="46.9823596691" lon="8.2532084374">
				<ele>1742.7</ele>
			</trkpt>
			<trkpt lat="46.9823478164" lon="8.2532013003">
				<ele>1743.1</ele>
			</trkpt>
			<trkpt lat="46.9823310096" lon="8.2532219043">
				<ele>1743.6</ele>
			</trkpt>
			<trkpt lat="46.9823118840" lon="8.2532337828">
				<ele>1744.2</ele>
			</trkpt>
			<trkpt lat="46.9822916176" lon="8.2532386998">
				<ele>1744.8</ele>
			</trkpt>
			<trkpt lat="46.9822665656" lon="8.2532470226">
				<ele>1745.6</ele>
			</trkpt>
			<trkpt lat="46.9822415675" lon="8.2532483762">
				<ele>1746.5</ele>
			</trkpt>
			<trkpt lat="46.9822200287" lon="8.2532654426">
				<ele>1747.4</ele>
			</trkpt>
			<trkpt lat="46.9822079661" lon="8.2532878642">
				<ele>1747.9</ele>
			</trkpt>
			<trkpt lat="46.9821720583" lon="8.2533168813">
				<ele>1749.1</ele>
			</trkpt>
			<trkpt lat="46.9821516313" lon="8.2533443876">
				<ele>1750.1</ele>
			</trkpt>
			<trkpt lat="46.9821313401" lon="8.2533527826">
				<ele>1750.9</ele>
			</trkpt>
			<trkpt lat="46.9821025817" lon="8.2533801623">
				<ele>1752.1</ele>
			</trkpt>
			<trkpt lat="46.9820654263" lon="8.2534178505">
				<ele>1754.0</ele>
			</trkpt>
			<trkpt lat="46.9820449252" lon="8.2534557913">
				<ele>1755.2</ele>
			</trkpt>
			<trkpt lat="46.9820220391" lon="8.2534937088">
				<ele>1756.8</ele>
			</trkpt>
			<trkpt lat="46.9819956902" lon="8.2535176464">
				<ele>1757.9</ele>
			</trkpt>
			<trkpt lat="46.9819899950" lon="8.2534827866">
				<ele>1758.9</ele>
			</trkpt>
			<trkpt lat="46.9819806912" lon="8.2534513506">
				<ele>1760.1</ele>
			</trkpt>
			<trkpt lat="46.9819632007" lon="8.2534006516">
				<ele>1762.0</ele>
			</trkpt>
			<trkpt lat="46.9819373910" lon="8.2533480935">
				<ele>1764.1</ele>
			</trkpt>
			<trkpt lat="46.9819188999" lon="8.2532713091">
				<ele>1766.9</ele>
			</trkpt>
			<trkpt lat="46.9819015533" lon="8.2531997407">
				<ele>1769.4</ele>
			</trkpt>
			<trkpt lat="46.9818983989" lon="8.2531423149">
				<ele>1771.1</ele>
			</trkpt>
			<trkpt lat="46.9819035137" lon="8.2530919719">
				<ele>1771.0</ele>
			</trkpt>
			<trkpt lat="46.9819241135" lon="8.2530401052">
				<ele>1770.4</ele>
			</trkpt>
			<trkpt lat="46.9819208146" lon="8.2530018033">
				<ele>1770.9</ele>
			</trkpt>
			<trkpt lat="46.9819126109" lon="8.2529842986">
				<ele>1771.3</ele>
			</trkpt>
			<trkpt lat="46.9819010299" lon="8.2529389010">
				<ele>1772.7</ele>
			</trkpt>
			<trkpt lat="46.9818954325" lon="8.2528883954">
				<ele>1774.0</ele>
			</trkpt>
			<trkpt lat="46.9818908242" lon="8.2528674538">
				<ele>1774.8</ele>
			</trkpt>
			<trkpt lat="46.9818764639" lon="8.2528794047">
				<ele>1775.1</ele>
			</trkpt>
			<trkpt lat="46.9818656162" lon="8.2528983662">
				<ele>1775.9</ele>
			</trkpt>
			<trkpt lat="46.9818486612" lon="8.2529398395">
				<ele>1777.0</ele>
			</trkpt>
			<trkpt lat="46.9818316691" lon="8.2529865366">
				<ele>1777.9</ele>
			</trkpt>
			<trkpt lat="46.9818147017" lon="8.2530297425">
				<ele>1778.9</ele>
			</trkpt>
			<trkpt lat="46.9817811990" lon="8.2530553303">
				<ele>1780.8</ele>
			</trkpt>
			<trkpt lat="46.9817691283" lon="8.2530794974">
				<ele>1781.3</ele>
			</trkpt>
			<trkpt lat="46.9817476012" lon="8.2530930724">
				<ele>1782.1</ele>
			</trkpt>
			<trkpt lat="46.9817443605" lon="8.2530478142">
				<ele>1783.1</ele>
			</trkpt>
			<trkpt lat="46.9817483916" lon="8.2529818076">
				<ele>1784.8</ele>
			</trkpt>
			<trkpt lat="46.9817298307" lon="8.2529154326">
				<ele>1786.7</ele>
			</trkpt>
			<trkpt lat="46.9817171378" lon="8.2528596081">
				<ele>1788.4</ele>
			</trkpt>
			<trkpt lat="46.9816924766" lon="8.2528122794">
				<ele>1790.0</ele>
			</trkpt>
			<trkpt lat="46.9816868387" lon="8.2527687178">
				<ele>1791.2</ele>
			</trkpt>
			<trkpt lat="46.9816609095" lon="8.2527335515">
				<ele>1792.9</ele>
			</trkpt>
			<trkpt lat="46.9816516674" lon="8.2526934139">
				<ele>1794.2</ele>
			</trkpt>
			<trkpt lat="46.9815999900" lon="8.2525969882">
				<ele>1798.5</ele>
			</trkpt>
			<trkpt lat="46.9815956284" lon="8.2525412903">
				<ele>1800.0</ele>
			</trkpt>
			<trkpt lat="46.9815913859" lon="8.2524681883">
				<ele>1801.9</ele>
			</trkpt>
			<trkpt lat="46.9815774701" lon="8.2524175442">
				<ele>1803.6</ele>
			</trkpt>
			<trkpt lat="46.9815425508" lon="8.2524744052">
				<ele>1804.7</ele>
			</trkpt>
			<trkpt lat="46.9815098392" lon="8.2525556369">
				<ele>1805.9</ele>
			</trkpt>
			<trkpt lat="46.9814892644" lon="8.2526040123">
				<ele>1807.4</ele>
			</trkpt>
			<trkpt lat="46.9814628458" lon="8.2526383976">
				<ele>1809.0</ele>
			</trkpt>
			<trkpt lat="46.9814482255" lon="8.2526851176">
				<ele>1810.2</ele>
			</trkpt>
			<trkpt lat="46.9814317194" lon="8.2526639959">
				<ele>1811.2</ele>
			</trkpt>
			<trkpt lat="46.9814104691" lon="8.2526070536">
				<ele>1813.2</ele>
			</trkpt>
			<trkpt lat="46.9813946009" lon="8.2525789843">
				<ele>1814.5</ele>
			</trkpt>
			<trkpt lat="46.9813918205" lon="8.2525511264">
				<ele>1815.0</ele>
			</trkpt>
			<trkpt lat="46.9814005594" lon="8.2524938816">
				<ele>1815.1</ele>
			</trkpt>
			<trkpt lat="46.9814115799" lon="8.2524505728">
				<ele>1814.8</ele>
			</trkpt>
			<trkpt lat="46.9814171559" lon="8.2524193500">
				<ele>1814.8</ele>
			</trkpt>
			<trkpt lat="46.9814185541" lon="8.2523906954">
				<ele>1815.2</ele>
			</trkpt>
			<trkpt lat="46.9814193445" lon="8.2523628787">
				<ele>1815.6</ele>
			</trkpt>
			<trkpt lat="46.9814195234" lon="8.2523376713">
				<ele>1816.3</ele>
			</trkpt>
			<trkpt lat="46.9814222820" lon="8.2522838015">
				<ele>1817.8</ele>
			</trkpt>
			<trkpt lat="46.9814260871" lon="8.2522508191">
				<ele>1818.5</ele>
			</trkpt>
			<trkpt lat="46.9814315908" lon="8.2522291582">
				<ele>1819.0</ele>
			</trkpt>
			<trkpt lat="46.9814347227" lon="8.2522074870">
				<ele>1819.7</ele>
			</trkpt>
			<trkpt lat="46.9814228619" lon="8.2522020829">
				<ele>1820.5</ele>
			</trkpt>
			<trkpt lat="46.9814007754" lon="8.2522121839">
				<ele>1821.6</ele>
			</trkpt>
			<trkpt lat="46.9813816685" lon="8.2522214573">
				<ele>1822.5</ele>
			</trkpt>
			<trkpt lat="46.9813583653" lon="8.2522358913">
				<ele>1823.7</ele>
			</trkpt>
			<trkpt lat="46.9813415930" lon="8.2522504114">
				<ele>1824.5</ele>
			</trkpt>
			<trkpt lat="46.9813290732" lon="8.2522537003">
				<ele>1825.1</ele>
			</trkpt>
			<trkpt lat="46.9813202149" lon="8.2522448631">
				<ele>1825.5</ele>
			</trkpt>
			<trkpt lat="46.9813233531" lon="8.2522223064">
				<ele>1826.1</ele>
			</trkpt>
			<trkpt lat="46.9813319702" lon="8.2521815797">
				<ele>1827.4</ele>
			</trkpt>
			<trkpt lat="46.9813424505" lon="8.2521295728">
				<ele>1828.2</ele>
			</trkpt>
			<trkpt lat="46.9813479982" lon="8.2521035611">
				<ele>1828.9</ele>
			</trkpt>
			<trkpt lat="46.9813498879" lon="8.2520879554">
				<ele>1829.3</ele>
			</trkpt>
			<trkpt lat="46.9813356148" lon="8.2520876364">
				<ele>1830.3</ele>
			</trkpt>
			<trkpt lat="46.9813248289" lon="8.2520978959">
				<ele>1830.5</ele>
			</trkpt>
			<trkpt lat="46.9813149790" lon="8.2521025216">
				<ele>1831.0</ele>
			</trkpt>
			<trkpt lat="46.9813005853" lon="8.2521179636">
				<ele>1832.0</ele>
			</trkpt>
			<trkpt lat="46.9812913512" lon="8.2521199929">
				<ele>1832.5</ele>
			</trkpt>
			<trkpt lat="46.9812887987" lon="8.2521021249">
				<ele>1833.1</ele>
			</trkpt>
			<trkpt lat="46.9812886418" lon="8.2520821368">
				<ele>1833.6</ele>
			</trkpt>
			<trkpt lat="46.9812870295" lon="8.2520586353">
				<ele>1834.3</ele>
			</trkpt>
			<trkpt lat="46.9812897985" lon="8.2520447758">
				<ele>1834.6</ele>
			</trkpt>
			<trkpt lat="46.9812952831" lon="8.2520270295">
				<ele>1835.0</ele>
			</trkpt>
			<trkpt lat="46.9812965906" lon="8.2520105293">
				<ele>1835.2</ele>
			</trkpt>
			<trkpt lat="46.9812846514" lon="8.2520155599">
				<ele>1835.7</ele>
			</trkpt>
			<trkpt lat="46.9812655167" lon="8.2520287479">
				<ele>1836.8</ele>
			</trkpt>
			<trkpt lat="46.9812538294" lon="8.2520416122">
				<ele>1837.8</ele>
			</trkpt>
			<trkpt lat="46.9812430713" lon="8.2520479700">
				<ele>1838.3</ele>
			</trkpt>
			<trkpt lat="46.9812346873" lon="8.2520552237">
				<ele>1838.7</ele>
			</trkpt>
			<trkpt lat="46.9812258968" lon="8.2520368376">
				<ele>1839.5</ele>
			</trkpt>
			<trkpt lat="46.9812275663" lon="8.2520107800">
				<ele>1840.0</ele>
			</trkpt>
			<trkpt lat="46.9812255986" lon="8.2519946666">
				<ele>1840.3</ele>
			</trkpt>
			<trkpt lat="46.9812254096" lon="8.2519785802">
				<ele>1840.7</ele>
			</trkpt>
			<trkpt lat="46.9812315872" lon="8.2519473666">
				<ele>1841.7</ele>
			</trkpt>
			<trkpt lat="46.9812449482" lon="8.2519084577">
				<ele>1842.2</ele>
			</trkpt>
			<trkpt lat="46.9812622263" lon="8.2518634979">
				<ele>1842.6</ele>
			</trkpt>
			<trkpt lat="46.9812692168" lon="8.2518427452">
				<ele>1842.7</ele>
			</trkpt>
			<trkpt lat="46.9812699467" lon="8.2518240670">
				<ele>1843.2</ele>
			</trkpt>
			<trkpt lat="46.9812754658" lon="8.2518002370">
				<ele>1843.7</ele>
			</trkpt>
			<trkpt lat="46.9812903060" lon="8.2517639431">
				<ele>1844.5</ele>
			</trkpt>
			<trkpt lat="46.9813141680" lon="8.2517134481">
				<ele>1846.0</ele>
			</trkpt>
			<trkpt lat="46.9813259288" lon="8.2516914454">
				<ele>1846.6</ele>
			</trkpt>
			<trkpt lat="46.9813397113" lon="8.2516773162">
				<ele>1846.8</ele>
			</trkpt>
			<trkpt lat="46.9813510884" lon="8.2516679257">
				<ele>1846.8</ele>
			</trkpt>
			<trkpt lat="46.9813670395" lon="8.2516614155">
				<ele>1846.5</ele>
			</trkpt>
			<trkpt lat="46.9813798871" lon="8.2516391597">
				<ele>1847.0</ele>
			</trkpt>
			<trkpt lat="46.9813952218" lon="8.2516018720">
				<ele>1848.2</ele>
			</trkpt>
			<trkpt lat="46.9814142574" lon="8.2515531007">
				<ele>1849.5</ele>
			</trkpt>
			<trkpt lat="46.9814309287" lon="8.2514487262">
				<ele>1851.7</ele>
			</trkpt>
			<trkpt lat="46.9814418323" lon="8.2513549567">
				<ele>1853.3</ele>
			</trkpt>
			<trkpt lat="46.9814507305" lon="8.2513358500">
				<ele>1853.9</ele>
			</trkpt>
			<trkpt lat="46.9814913778" lon="8.2513234752">
				<ele>1854.7</ele>
			</trkpt>
			<trkpt lat="46.9815130730" lon="8.2512948325">
				<ele>1855.9</ele>
			</trkpt>
			<trkpt lat="46.9815449514" lon="8.2512306339">
				<ele>1857.6</ele>
			</trkpt>
			<trkpt lat="46.9815570358" lon="8.2511369205">
				<ele>1859.9</ele>
			</trkpt>
			<trkpt lat="46.9815877250" lon="8.2510372246">
				<ele>1861.4</ele>
			</trkpt>
			<trkpt lat="46.9816382272" lon="8.2509649512">
				<ele>1862.4</ele>
			</trkpt>
			<trkpt lat="46.9817674304" lon="8.2508688377">
				<ele>1866.0</ele>
			</trkpt>
			<trkpt lat="46.9818221110" lon="8.2508112475">
				<ele>1866.9</ele>
			</trkpt>
			<trkpt lat="46.9818279144" lon="8.2507664599">
				<ele>1867.3</ele>
			</trkpt>
			<trkpt lat="46.9817423442" lon="8.2507505580">
				<ele>1868.8</ele>
			</trkpt>
			<trkpt lat="46.9816895978" lon="8.2507372320">
				<ele>1870.3</ele>
			</trkpt>
			<trkpt lat="46.9816382491" lon="8.2507281117">
				<ele>1872.3</ele>
			</trkpt>
			<trkpt lat="46.9815842231" lon="8.2506939077">
				<ele>1873.1</ele>
			</trkpt>
			<trkpt lat="46.9815001541" lon="8.2506675929">
				<ele>1875.7</ele>
			</trkpt>
			<trkpt lat="46.9813889159" lon="8.2506471439">
				<ele>1878.6</ele>
			</trkpt>
			<trkpt lat="46.9812889258" lon="8.2506497904">
				<ele>1881.2</ele>
			</trkpt>
			<trkpt lat="46.9812175790" lon="8.2506424602">
				<ele>1883.2</ele>
			</trkpt>
			<trkpt lat="46.9811832391" lon="8.2506523765">
				<ele>1884.3</ele>
			</trkpt>
			<trkpt lat="46.9811916513" lon="8.2506733622">
				<ele>1884.9</ele>
			</trkpt>
			<trkpt lat="46.9812694152" lon="8.2507830417">
				<ele>1888.2</ele>
			</trkpt>
			<trkpt lat="46.9812948448" lon="8.2508230770">
				<ele>1889.2</ele>
			</trkpt>
			<trkpt lat="46.9812491806" lon="8.2508182145">
				<ele>1890.1</ele>
			</trkpt>
			<trkpt lat="46.9811635807" lon="8.2508064838">
				<ele>1893.0</ele>
			</trkpt>
			<trkpt lat="46.9810838234" lon="8.2507760753">
				<ele>1895.1</ele>
			</trkpt>
			<trkpt lat="46.9809883606" lon="8.2507454036">
				<ele>1898.0</ele>
			</trkpt>
			<trkpt lat="46.9809383802" lon="8.2507446476">
				<ele>1900.1</ele>
			</trkpt>
			<trkpt lat="46.9807987142" lon="8.2507049897">
				<ele>1905.6</ele>
			</trkpt>
			<trkpt lat="46.9806732335" lon="8.2506780489">
				<ele>1908.5</ele>
			</trkpt>
			<trkpt lat="46.9805805073" lon="8.2506641185">
				<ele>1911.1</ele>
			</trkpt>
			<trkpt lat="46.9804906696" lon="8.2506460730">
				<ele>1913.0</ele>
			</trkpt>
			<trkpt lat="46.9804137921" lon="8.2506115243">
				<ele>1915.9</ele>
			</trkpt>
			<trkpt lat="46.9803126493" lon="8.2505766086">
				<ele>1918.6</ele>
			</trkpt>
			<trkpt lat="46.9801970611" lon="8.2505644250">
				<ele>1922.6</ele>
			</trkpt>
			<trkpt lat="46.9802493200" lon="8.2506465944">
				<ele>1925.1</ele>
			</trkpt>
			<trkpt lat="46.9803101283" lon="8.2507309854">
				<ele>1927.3</ele>
			</trkpt>
			<trkpt lat="46.9802599897" lon="8.2507531775">
				<ele>1929.0</ele>
			</trkpt>
			<trkpt lat="46.9802354938" lon="8.2507841007">
				<ele>1930.6</ele>
			</trkpt>
			<trkpt lat="46.9801928068" lon="8.2507625967">
				<ele>1932.1</ele>
			</trkpt>
			<trkpt lat="46.9801358226" lon="8.2507429431">
				<ele>1934.2</ele>
			</trkpt>
			<trkpt lat="46.9801623901" lon="8.2508226317">
				<ele>1936.9</ele>
			</trkpt>
			<trkpt lat="46.9802044944" lon="8.2509276109">
				<ele>1940.6</ele>
			</trkpt>
			<trkpt lat="46.9802724099" lon="8.2510162686">
				<ele>1942.9</ele>
			</trkpt>
			<trkpt lat="46.9802595442" lon="8.2510181662">
				<ele>1943.2</ele>
			</trkpt>
			<trkpt lat="46.9802110356" lon="8.2510111684">
				<ele>1945.2</ele>
			</trkpt>
			<trkpt lat="46.9801183285" lon="8.2509951584">
				<ele>1947.8</ele>
			</trkpt>
			<trkpt lat="46.9800612008" lon="8.2509963734">
				<ele>1949.3</ele>
			</trkpt>
			<trkpt lat="46.9800509888" lon="8.2510254459">
				<ele>1950.1</ele>
			</trkpt>
			<trkpt lat="46.9801106253" lon="8.2510743284">
				<ele>1951.4</ele>
			</trkpt>
			<trkpt lat="46.9801883445" lon="8.2511902695">
				<ele>1954.5</ele>
			</trkpt>
			<trkpt lat="46.9802136556" lon="8.2512470018">
				<ele>1956.6</ele>
			</trkpt>
			<trkpt lat="46.9801269200" lon="8.2511935114">
				<ele>1956.9</ele>
			</trkpt>
			<trkpt lat="46.9800528426" lon="8.2511673605">
				<ele>1958.6</ele>
			</trkpt>
			<trkpt lat="46.9800227656" lon="8.2511794202">
				<ele>1959.6</ele>
			</trkpt>
			<trkpt lat="46.9800125375" lon="8.2512126383">
				<ele>1961.4</ele>
			</trkpt>
			<trkpt lat="46.9800309100" lon="8.2512400513">
				<ele>1962.4</ele>
			</trkpt>
			<trkpt lat="46.9801130442" lon="8.2513372804">
				<ele>1965.1</ele>
			</trkpt>
			<trkpt lat="46.9801668969" lon="8.2513965241">
				<ele>1966.5</ele>
			</trkpt>
			<trkpt lat="46.9801652286" lon="8.2514298848">
				<ele>1967.2</ele>
			</trkpt>
			<trkpt lat="46.9801368349" lon="8.2514064917">
				<ele>1968.3</ele>
			</trkpt>
			<trkpt lat="46.9800498329" lon="8.2513905674">
				<ele>1971.1</ele>
			</trkpt>
			<trkpt lat="46.9799841217" lon="8.2513937571">
				<ele>1973.0</ele>
			</trkpt>
			<trkpt lat="46.9799853524" lon="8.2514208849">
				<ele>1974.1</ele>
			</trkpt>
			<trkpt lat="46.9800831566" lon="8.2515246154">
				<ele>1976.8</ele>
			</trkpt>
			<trkpt lat="46.9801340421" lon="8.2515984214">
				<ele>1978.2</ele>
			</trkpt>
			<trkpt lat="46.9801196647" lon="8.2516128109">
				<ele>1978.9</ele>
			</trkpt>
			<trkpt lat="46.9800299959" lon="8.2515697240">
				<ele>1981.1</ele>
			</trkpt>
			<trkpt lat="46.9799601801" lon="8.2515477959">
				<ele>1982.8</ele>
			</trkpt>
			<trkpt lat="46.9799330024" lon="8.2515536355">
				<ele>1983.9</ele>
			</trkpt>
			<trkpt lat="46.9799584420" lon="8.2515915909">
				<ele>1985.4</ele>
			</trkpt>
			<trkpt lat="46.9800220349" lon="8.2516864473">
				<ele>1988.2</ele>
			</trkpt>
			<trkpt lat="46.9800516148" lon="8.2517432315">
				<ele>1989.7</ele>
			</trkpt>
			<trkpt lat="46.9799876017" lon="8.2517088763">
				<ele>1990.6</ele>
			</trkpt>
			<trkpt lat="46.9799264154" lon="8.2516766561">
				<ele>1991.6</ele>
			</trkpt>
			<trkpt lat="46.9798636923" lon="8.2516610864">
				<ele>1992.8</ele>
			</trkpt>
			<trkpt lat="46.9798166346" lon="8.2516520305">
				<ele>1993.7</ele>
			</trkpt>
			<trkpt lat="46.9797940244" lon="8.2516183024">
				<ele>1994.2</ele>
			</trkpt>
			<trkpt lat="46.9797467996" lon="8.2516322071">
				<ele>1997.1</ele>
			</trkpt>
			<trkpt lat="46.9797110678" lon="8.2516358377">
				<ele>1998.3</ele>
			</trkpt>
			<trkpt lat="46.9797890129" lon="8.2517204758">
				<ele>1999.8</ele>
			</trkpt>
			<trkpt lat="46.9798825790" lon="8.2518178783">
				<ele>2002.7</ele>
			</trkpt>
			<trkpt lat="46.9799857964" lon="8.2519634076">
				<ele>2005.5</ele>
			</trkpt>
			<trkpt lat="46.9800876852" lon="8.2520943229">
				<ele>2008.8</ele>
			</trkpt>
			<trkpt lat="46.9800747604" lon="8.2521045625">
				<ele>2009.4</ele>
			</trkpt>
			<trkpt lat="46.9799749477" lon="8.2520821793">
				<ele>2012.3</ele>
			</trkpt>
			<trkpt lat="46.9798902568" lon="8.2520209918">
				<ele>2014.9</ele>
			</trkpt>
			<trkpt lat="46.9798310290" lon="8.2519944230">
				<ele>2016.8</ele>
			</trkpt>
			<trkpt lat="46.9797341873" lon="8.2519680803">
				<ele>2018.8</ele>
			</trkpt>
			<trkpt lat="46.9797081197" lon="8.2519461984">
				<ele>2019.4</ele>
			</trkpt>
			<trkpt lat="46.9795879884" lon="8.2519125718">
				<ele>2022.9</ele>
			</trkpt>
			<trkpt lat="46.9795687050" lon="8.2518829503">
				<ele>2023.1</ele>
			</trkpt>
			<trkpt lat="46.9795194753" lon="8.2518748241">
				<ele>2024.6</ele>
			</trkpt>
			<trkpt lat="46.9794137429" lon="8.2518634032">
				<ele>2029.4</ele>
			</trkpt>
			<trkpt lat="46.9793772925" lon="8.2518426479">
				<ele>2030.9</ele>
			</trkpt>
			<trkpt lat="46.9793277261" lon="8.2518033390">
				<ele>2031.9</ele>
			</trkpt>
			<trkpt lat="46.9792687785" lon="8.2517793678">
				<ele>2034.4</ele>
			</trkpt>
			<trkpt lat="46.9792024686" lon="8.2516656929">
				<ele>2036.9</ele>
			</trkpt>
			<trkpt lat="46.9792071485" lon="8.2517552020">
				<ele>2038.6</ele>
			</trkpt>
			<trkpt lat="46.9792137501" lon="8.2518264495">
				<ele>2039.3</ele>
			</trkpt>
			<trkpt lat="46.9792193422" lon="8.2518461983">
				<ele>2039.3</ele>
			</trkpt>
			<trkpt lat="46.9792385932" lon="8.2518816209">
				<ele>2039.9</ele>
			</trkpt>
			<trkpt lat="46.9792555360" lon="8.2519111683">
				<ele>2040.3</ele>
			</trkpt>
			<trkpt lat="46.9792881409" lon="8.2519687678">
				<ele>2041.2</ele>
			</trkpt>
			<trkpt lat="46.9792997272" lon="8.2519843717">
				<ele>2041.2</ele>
			</trkpt>
			<trkpt lat="46.9793136682" lon="8.2519949668">
				<ele>2041.6</ele>
			</trkpt>
			<trkpt lat="46.9793342853" lon="8.2520173949">
				<ele>2042.5</ele>
			</trkpt>
			<trkpt lat="46.9793688309" lon="8.2520540377">
				<ele>2044.3</ele>
			</trkpt>
			<trkpt lat="46.9794173394" lon="8.2520969376">
				<ele>2047.7</ele>
			</trkpt>
			<trkpt lat="46.9794743592" lon="8.2521480659">
				<ele>2050.9</ele>
			</trkpt>
			<trkpt lat="46.9794864594" lon="8.2522100784">
				<ele>2052.4</ele>
			</trkpt>
			<trkpt lat="46.9794923873" lon="8.2522617291">
				<ele>2054.4</ele>
			</trkpt>
			<trkpt lat="46.9794484777" lon="8.2522305918">
				<ele>2055.9</ele>
			</trkpt>
			<trkpt lat="46.9794237270" lon="8.2522515367">
				<ele>2057.0</ele>
			</trkpt>
			<trkpt lat="46.9794530274" lon="8.2522981505">
				<ele>2058.3</ele>
			</trkpt>
			<trkpt lat="46.9793998261" lon="8.2523043910">
				<ele>2060.0</ele>
			</trkpt>
			<trkpt lat="46.9793005835" lon="8.2522895636">
				<ele>2063.2</ele>
			</trkpt>
			<trkpt lat="46.9792887624" lon="8.2522717740">
				<ele>2063.4</ele>
			</trkpt>
			<trkpt lat="46.9792501268" lon="8.2522705211">
				<ele>2064.1</ele>
			</trkpt>
			<trkpt lat="46.9792694579" lon="8.2522921724">
				<ele>2065.0</ele>
			</trkpt>
			<trkpt lat="46.9793245733" lon="8.2523584820">
				<ele>2067.5</ele>
			</trkpt>
			<trkpt lat="46.9793944107" lon="8.2524361435">
				<ele>2069.7</ele>
			</trkpt>
			<trkpt lat="46.9793956054" lon="8.2524528479">
				<ele>2070.4</ele>
			</trkpt>
			<trkpt lat="46.9793143140" lon="8.2524325420">
				<ele>2072.2</ele>
			</trkpt>
			<trkpt lat="46.9793351353" lon="8.2524812607">
				<ele>2074.0</ele>
			</trkpt>
			<trkpt lat="46.9793909608" lon="8.2525533317">
				<ele>2074.4</ele>
			</trkpt>
			<trkpt lat="46.9794211843" lon="8.2526196366">
				<ele>2073.4</ele>
			</trkpt>
			<trkpt lat="46.9794652163" lon="8.2527387001">
				<ele>2066.6</ele>
			</trkpt>
			<trkpt lat="46.9795052292" lon="8.2528237268">
				<ele>2060.3</ele>
			</trkpt>
			<trkpt lat="46.9795303855" lon="8.2528724473">
				<ele>2060.3</ele>
			</trkpt>
			<trkpt lat="46.9795484620" lon="8.2529173639">
				<ele>2060.2</ele>
			</trkpt>
			<trkpt lat="46.9793275693" lon="8.2531056492">
				<ele>2060.2</ele>
			</trkpt>
			<trkpt lat="46.9792703643" lon="8.2531956444">
				<ele>2060.2</ele>
			</trkpt>
			<trkpt lat="46.9792465444" lon="8.2531257655">
				<ele>2061.0</ele>
			</trkpt>
			<trkpt lat="46.9792320708" lon="8.2530918397">
				<ele>2061.4</ele>
			</trkpt>
			<trkpt lat="46.9792260477" lon="8.2530759777">
				<ele>2061.7</ele>
			</trkpt>
			<trkpt lat="46.9792320708" lon="8.2530918397">
				<ele>2061.4</ele>
			</trkpt>
			<trkpt lat="46.9792465444" lon="8.2531257655">
				<ele>2061.0</ele>
			</trkpt>
			<trkpt lat="46.9792703643" lon="8.2531956444">
				<ele>2060.2</ele>
			</trkpt>
			<trkpt lat="46.9793018134" lon="8.2532649846">
				<ele>2060.2</ele>
			</trkpt>
			<trkpt lat="46.9793204410" lon="8.2533188301">
				<ele>2060.0</ele>
			</trkpt>
			<trkpt lat="46.9793311725" lon="8.2533465381">
				<ele>2060.0</ele>
			</trkpt>
			<trkpt lat="46.9793490908" lon="8.2533895783">
				<ele>2060.2</ele>
			</trkpt>
			<trkpt lat="46.9793665883" lon="8.2534263098">
				<ele>2060.5</ele>
			</trkpt>
			<trkpt lat="46.9793955785" lon="8.2534911716">
				<ele>2063.1</ele>
			</trkpt>
			<trkpt lat="46.9795423229" lon="8.2541203177">
				<ele>2063.1</ele>
			</trkpt>
			<trkpt lat="46.9796036856" lon="8.2542795264">
				<ele>2063.1</ele>
			</trkpt>
			<trkpt lat="46.9796246032" lon="8.2545139925">
				<ele>2067.2</ele>
			</trkpt>
			<trkpt lat="46.9796330953" lon="8.2545458642">
				<ele>2067.2</ele>
			</trkpt>
			<trkpt lat="46.9795770504" lon="8.2550799435">
				<ele>2067.2</ele>
			</trkpt>
		</trkseg>
	</trk>
</gpx>
