<?xml version="1.0"?>
<gpx version="1.1" xmlns="http://www.topografix.com/GPX/1/1" xmlns:xsi="http://www.w3.org/2001/XMLSchema-instance" xsi:schemaLocation="http://www.topografix.com/GPX/1/1 http://www.topografix.com/GPX/1/1/gpx.xsd">
	<metadata>
		<name>Lauterbrunnen Rotstockhuette</name>
	</metadata>
	<trk type="hiking">
		<trkseg>
			<trkpt lat="46.596090" lon="7.907488">
				<ele>809.679610</ele>
			</trkpt>
			<trkpt lat="46.596277" lon="7.907515">
				<ele>809.679610</ele>
			</trkpt>
			<trkpt lat="46.596700" lon="7.907576">
				<ele>809.679610</ele>
			</trkpt>
			<trkpt lat="46.597088" lon="7.907609">
				<ele>810.895856</ele>
			</trkpt>
			<trkpt lat="46.597297" lon="7.907516">
				<ele>813.493448</ele>
			</trkpt>
			<trkpt lat="46.597236" lon="7.907404">
				<ele>814.660621</ele>
			</trkpt>
			<trkpt lat="46.596963" lon="7.907283">
				<ele>818.052508</ele>
			</trkpt>
			<trkpt lat="46.596761" lon="7.907237">
				<ele>820.482597</ele>
			</trkpt>
			<trkpt lat="46.596586" lon="7.907189">
				<ele>822.599182</ele>
			</trkpt>
			<trkpt lat="46.596562" lon="7.907028">
				<ele>823.944640</ele>
			</trkpt>
			<trkpt lat="46.596460" lon="7.906669">
				<ele>827.117321</ele>
			</trkpt>
			<trkpt lat="46.596266" lon="7.906252">
				<ele>831.462071</ele>
			</trkpt>
			<trkpt lat="46.596255" lon="7.905791">
				<ele>840.290498</ele>
			</trkpt>
			<trkpt lat="46.596310" lon="7.905340">
				<ele>849.057101</ele>
			</trkpt>
			<trkpt lat="46.596290" lon="7.905291">
				<ele>850.147890</ele>
			</trkpt>
			<trkpt lat="46.596195" lon="7.905218">
				<ele>853.140172</ele>
			</trkpt>
			<trkpt lat="46.596358" lon="7.904909">
				<ele>860.595883</ele>
			</trkpt>
			<trkpt lat="46.596455" lon="7.904652">
				<ele>866.207789</ele>
			</trkpt>
			<trkpt lat="46.596453" lon="7.904588">
				<ele>867.433951</ele>
			</trkpt>
			<trkpt lat="46.596388" lon="7.904535">
				<ele>869.509223</ele>
			</trkpt>
			<trkpt lat="46.596533" lon="7.904513">
				<ele>873.569860</ele>
			</trkpt>
			<trkpt lat="46.596610" lon="7.904496">
				<ele>875.739113</ele>
			</trkpt>
			<trkpt lat="46.596729" lon="7.903936">
				<ele>888.214135</ele>
			</trkpt>
			<trkpt lat="46.596774" lon="7.903826">
				<ele>891.194858</ele>
			</trkpt>
			<trkpt lat="46.596974" lon="7.903624">
				<ele>899.443999</ele>
			</trkpt>
			<trkpt lat="46.597046" lon="7.903755">
				<ele>903.349819</ele>
			</trkpt>
			<trkpt lat="46.597140" lon="7.903858">
				<ele>907.336888</ele>
			</trkpt>
			<trkpt lat="46.597240" lon="7.903882">
				<ele>910.771161</ele>
			</trkpt>
			<trkpt lat="46.597338" lon="7.903816">
				<ele>914.430218</ele>
			</trkpt>
			<trkpt lat="46.597409" lon="7.903713">
				<ele>917.827165</ele>
			</trkpt>
			<trkpt lat="46.597431" lon="7.903661">
				<ele>919.248986</ele>
			</trkpt>
			<trkpt lat="46.597425" lon="7.903539">
				<ele>922.096792</ele>
			</trkpt>
			<trkpt lat="46.597483" lon="7.903437">
				<ele>925.179416</ele>
			</trkpt>
			<trkpt lat="46.597545" lon="7.903389">
				<ele>927.559053</ele>
			</trkpt>
			<trkpt lat="46.597545" lon="7.903275">
				<ele>930.213322</ele>
			</trkpt>
			<trkpt lat="46.597686" lon="7.903367">
				<ele>935.449317</ele>
			</trkpt>
			<trkpt lat="46.597551" lon="7.903039">
				<ele>943.760441</ele>
			</trkpt>
			<trkpt lat="46.597540" lon="7.902808">
				<ele>947.734741</ele>
			</trkpt>
			<trkpt lat="46.597483" lon="7.902706">
				<ele>949.991317</ele>
			</trkpt>
			<trkpt lat="46.597395" lon="7.902142">
				<ele>959.918041</ele>
			</trkpt>
			<trkpt lat="46.597300" lon="7.902031">
				<ele>962.961205</ele>
			</trkpt>
			<trkpt lat="46.597262" lon="7.902057">
				<ele>964.010078</ele>
			</trkpt>
			<trkpt lat="46.597207" lon="7.902131">
				<ele>965.881081</ele>
			</trkpt>
			<trkpt lat="46.597090" lon="7.902037">
				<ele>969.219395</ele>
			</trkpt>
			<trkpt lat="46.596995" lon="7.902435">
				<ele>976.451001</ele>
			</trkpt>
			<trkpt lat="46.597014" lon="7.902587">
				<ele>979.102711</ele>
			</trkpt>
			<trkpt lat="46.596857" lon="7.902782">
				<ele>984.258470</ele>
			</trkpt>
			<trkpt lat="46.596668" lon="7.902922">
				<ele>989.925884</ele>
			</trkpt>
			<trkpt lat="46.596626" lon="7.902901">
				<ele>991.197792</ele>
			</trkpt>
			<trkpt lat="46.596625" lon="7.902819">
				<ele>992.811777</ele>
			</trkpt>
			<trkpt lat="46.596723" lon="7.902565">
				<ele>998.544501</ele>
			</trkpt>
			<trkpt lat="46.596634" lon="7.902545">
				<ele>1001.123701</ele>
			</trkpt>
			<trkpt lat="46.596677" lon="7.902399">
				<ele>1004.249738</ele>
			</trkpt>
			<trkpt lat="46.596670" lon="7.902328">
				<ele>1005.661302</ele>
			</trkpt>
			<trkpt lat="46.596619" lon="7.902343">
				<ele>1007.151490</ele>
			</trkpt>
			<trkpt lat="46.596575" lon="7.902399">
				<ele>1008.825580</ele>
			</trkpt>
			<trkpt lat="46.596298" lon="7.902349">
				<ele>1016.819745</ele>
			</trkpt>
			<trkpt lat="46.596067" lon="7.902189">
				<ele>1024.146760</ele>
			</trkpt>
			<trkpt lat="46.595819" lon="7.902112">
				<ele>1031.409413</ele>
			</trkpt>
			<trkpt lat="46.595761" lon="7.902128">
				<ele>1033.100133</ele>
			</trkpt>
			<trkpt lat="46.595489" lon="7.902006">
				<ele>1041.269709</ele>
			</trkpt>
			<trkpt lat="46.595415" lon="7.901939">
				<ele>1043.782203</ele>
			</trkpt>
			<trkpt lat="46.595284" lon="7.901708">
				<ele>1049.715348</ele>
			</trkpt>
			<trkpt lat="46.594988" lon="7.901818">
				<ele>1058.522471</ele>
			</trkpt>
			<trkpt lat="46.594838" lon="7.902029">
				<ele>1064.536682</ele>
			</trkpt>
			<trkpt lat="46.594652" lon="7.902042">
				<ele>1069.905001</ele>
			</trkpt>
			<trkpt lat="46.594527" lon="7.901999">
				<ele>1073.607897</ele>
			</trkpt>
			<trkpt lat="46.594366" lon="7.902011">
				<ele>1078.255402</ele>
			</trkpt>
			<trkpt lat="46.594168" lon="7.901916">
				<ele>1084.265719</ele>
			</trkpt>
			<trkpt lat="46.594100" lon="7.901983">
				<ele>1086.633127</ele>
			</trkpt>
			<trkpt lat="46.594050" lon="7.902284">
				<ele>1092.294752</ele>
			</trkpt>
			<trkpt lat="46.593842" lon="7.902461">
				<ele>1097.854898</ele>
			</trkpt>
			<trkpt lat="46.593703" lon="7.902799">
				<ele>1104.101027</ele>
			</trkpt>
			<trkpt lat="46.593677" lon="7.902458">
				<ele>1109.541436</ele>
			</trkpt>
			<trkpt lat="46.593573" lon="7.902635">
				<ele>1113.234260</ele>
			</trkpt>
			<trkpt lat="46.593450" lon="7.902648">
				<ele>1116.080064</ele>
			</trkpt>
			<trkpt lat="46.593341" lon="7.902721">
				<ele>1118.848912</ele>
			</trkpt>
			<trkpt lat="46.593218" lon="7.902812">
				<ele>1122.032988</ele>
			</trkpt>
			<trkpt lat="46.593195" lon="7.902894">
				<ele>1123.437419</ele>
			</trkpt>
			<trkpt lat="46.593144" lon="7.902882">
				<ele>1124.629570</ele>
			</trkpt>
			<trkpt lat="46.593013" lon="7.902688">
				<ele>1128.942536</ele>
			</trkpt>
			<trkpt lat="46.592923" lon="7.902680">
				<ele>1131.023232</ele>
			</trkpt>
			<trkpt lat="46.592775" lon="7.902794">
				<ele>1135.874915</ele>
			</trkpt>
			<trkpt lat="46.592633" lon="7.903131">
				<ele>1144.217649</ele>
			</trkpt>
			<trkpt lat="46.592486" lon="7.903222">
				<ele>1149.123744</ele>
			</trkpt>
			<trkpt lat="46.592182" lon="7.903198">
				<ele>1158.473755</ele>
			</trkpt>
			<trkpt lat="46.591989" lon="7.903446">
				<ele>1166.381156</ele>
			</trkpt>
			<trkpt lat="46.591859" lon="7.903484">
				<ele>1170.453395</ele>
			</trkpt>
			<trkpt lat="46.591548" lon="7.903501">
				<ele>1180.011394</ele>
			</trkpt>
			<trkpt lat="46.591371" lon="7.903458">
				<ele>1185.522553</ele>
			</trkpt>
			<trkpt lat="46.591292" lon="7.903338">
				<ele>1188.834143</ele>
			</trkpt>
			<trkpt lat="46.591207" lon="7.903274">
				<ele>1191.468825</ele>
			</trkpt>
			<trkpt lat="46.591023" lon="7.903355">
				<ele>1196.760949</ele>
			</trkpt>
			<trkpt lat="46.590925" lon="7.903472">
				<ele>1200.250631</ele>
			</trkpt>
			<trkpt lat="46.590794" lon="7.903525">
				<ele>1203.993776</ele>
			</trkpt>
			<trkpt lat="46.590657" lon="7.903512">
				<ele>1207.773316</ele>
			</trkpt>
			<trkpt lat="46.590436" lon="7.903418">
				<ele>1214.111891</ele>
			</trkpt>
			<trkpt lat="46.590302" lon="7.903415">
				<ele>1217.801269</ele>
			</trkpt>
			<trkpt lat="46.590158" lon="7.903453">
				<ele>1221.830164</ele>
			</trkpt>
			<trkpt lat="46.589960" lon="7.903284">
				<ele>1228.149487</ele>
			</trkpt>
			<trkpt lat="46.589861" lon="7.903252">
				<ele>1230.941328</ele>
			</trkpt>
			<trkpt lat="46.589674" lon="7.903437">
				<ele>1237.116144</ele>
			</trkpt>
			<trkpt lat="46.589470" lon="7.903463">
				<ele>1242.196893</ele>
			</trkpt>
			<trkpt lat="46.589166" lon="7.903580">
				<ele>1249.998688</ele>
			</trkpt>
			<trkpt lat="46.588993" lon="7.903419">
				<ele>1255.093697</ele>
			</trkpt>
			<trkpt lat="46.588958" lon="7.903417">
				<ele>1255.962739</ele>
			</trkpt>
			<trkpt lat="46.588937" lon="7.903355">
				<ele>1257.141297</ele>
			</trkpt>
			<trkpt lat="46.588755" lon="7.903419">
				<ele>1261.786821</ele>
			</trkpt>
			<trkpt lat="46.588843" lon="7.903125">
				<ele>1267.254538</ele>
			</trkpt>
			<trkpt lat="46.588716" lon="7.903189">
				<ele>1270.589100</ele>
			</trkpt>
			<trkpt lat="46.588589" lon="7.903178">
				<ele>1273.745630</ele>
			</trkpt>
			<trkpt lat="46.588521" lon="7.903133">
				<ele>1275.599034</ele>
			</trkpt>
			<trkpt lat="46.588311" lon="7.903237">
				<ele>1281.102767</ele>
			</trkpt>
			<trkpt lat="46.588169" lon="7.903128">
				<ele>1284.364559</ele>
			</trkpt>
			<trkpt lat="46.588050" lon="7.902920">
				<ele>1288.103786</ele>
			</trkpt>
			<trkpt lat="46.587945" lon="7.902533">
				<ele>1293.852238</ele>
			</trkpt>
			<trkpt lat="46.587668" lon="7.902176">
				<ele>1301.291289</ele>
			</trkpt>
			<trkpt lat="46.587508" lon="7.902352">
				<ele>1305.323604</ele>
			</trkpt>
			<trkpt lat="46.587069" lon="7.902471">
				<ele>1314.301024</ele>
			</trkpt>
			<trkpt lat="46.586929" lon="7.902590">
				<ele>1317.565344</ele>
			</trkpt>
			<trkpt lat="46.586781" lon="7.902541">
				<ele>1320.739371</ele>
			</trkpt>
			<trkpt lat="46.586520" lon="7.902305">
				<ele>1327.165315</ele>
			</trkpt>
			<trkpt lat="46.586466" lon="7.902187">
				<ele>1329.202739</ele>
			</trkpt>
			<trkpt lat="46.586125" lon="7.901731">
				<ele>1338.887667</ele>
			</trkpt>
			<trkpt lat="46.586004" lon="7.901659">
				<ele>1341.621383</ele>
			</trkpt>
			<trkpt lat="46.585945" lon="7.901525">
				<ele>1343.908529</ele>
			</trkpt>
			<trkpt lat="46.585773" lon="7.901361">
				<ele>1348.208802</ele>
			</trkpt>
			<trkpt lat="46.585769" lon="7.901286">
				<ele>1349.289935</ele>
			</trkpt>
			<trkpt lat="46.585887" lon="7.901090">
				<ele>1353.034767</ele>
			</trkpt>
			<trkpt lat="46.585804" lon="7.900803">
				<ele>1358.015825</ele>
			</trkpt>
			<trkpt lat="46.585872" lon="7.900288">
				<ele>1367.106413</ele>
			</trkpt>
			<trkpt lat="46.585853" lon="7.900168">
				<ele>1369.241054</ele>
			</trkpt>
			<trkpt lat="46.585729" lon="7.900030">
				<ele>1373.178611</ele>
			</trkpt>
			<trkpt lat="46.585401" lon="7.899928">
				<ele>1381.638436</ele>
			</trkpt>
			<trkpt lat="46.585190" lon="7.899601">
				<ele>1389.413704</ele>
			</trkpt>
			<trkpt lat="46.585040" lon="7.899285">
				<ele>1396.071057</ele>
			</trkpt>
			<trkpt lat="46.584936" lon="7.899159">
				<ele>1399.484499</ele>
			</trkpt>
			<trkpt lat="46.584657" lon="7.898931">
				<ele>1407.434515</ele>
			</trkpt>
			<trkpt lat="46.584337" lon="7.898826">
				<ele>1415.568051</ele>
			</trkpt>
			<trkpt lat="46.584071" lon="7.898587">
				<ele>1423.319612</ele>
			</trkpt>
			<trkpt lat="46.583767" lon="7.898453">
				<ele>1431.195484</ele>
			</trkpt>
			<trkpt lat="46.583489" lon="7.898612">
				<ele>1438.601822</ele>
			</trkpt>
			<trkpt lat="46.583231" lon="7.898821">
				<ele>1445.506134</ele>
			</trkpt>
			<trkpt lat="46.582888" lon="7.898947">
				<ele>1450.233977</ele>
			</trkpt>
			<trkpt lat="46.582578" lon="7.899180">
				<ele>1454.897098</ele>
			</trkpt>
			<trkpt lat="46.582184" lon="7.899381">
				<ele>1460.476983</ele>
			</trkpt>
			<trkpt lat="46.581811" lon="7.899421">
				<ele>1465.475433</ele>
			</trkpt>
			<trkpt lat="46.581456" lon="7.899340">
				<ele>1470.567724</ele>
			</trkpt>
			<trkpt lat="46.581149" lon="7.899483">
				<ele>1475.898014</ele>
			</trkpt>
			<trkpt lat="46.580805" lon="7.899781">
				<ele>1482.518274</ele>
			</trkpt>
			<trkpt lat="46.580465" lon="7.899974">
				<ele>1488.553191</ele>
			</trkpt>
			<trkpt lat="46.580168" lon="7.899955">
				<ele>1493.469048</ele>
			</trkpt>
			<trkpt lat="46.580005" lon="7.899843">
				<ele>1496.449851</ele>
			</trkpt>
			<trkpt lat="46.579926" lon="7.899788">
				<ele>1497.898038</ele>
			</trkpt>
			<trkpt lat="46.579684" lon="7.899794">
				<ele>1502.049635</ele>
			</trkpt>
			<trkpt lat="46.579539" lon="7.899732">
				<ele>1504.669044</ele>
			</trkpt>
			<trkpt lat="46.579453" lon="7.899695">
				<ele>1506.223392</ele>
			</trkpt>
			<trkpt lat="46.579335" lon="7.899800">
				<ele>1508.620755</ele>
			</trkpt>
			<trkpt lat="46.579341" lon="7.900113">
				<ele>1512.350987</ele>
			</trkpt>
			<trkpt lat="46.579225" lon="7.900366">
				<ele>1515.974011</ele>
			</trkpt>
			<trkpt lat="46.578644" lon="7.900052">
				<ele>1526.716174</ele>
			</trkpt>
			<trkpt lat="46.578617" lon="7.900251">
				<ele>1529.132645</ele>
			</trkpt>
			<trkpt lat="46.578581" lon="7.900508">
				<ele>1531.718153</ele>
			</trkpt>
			<trkpt lat="46.578393" lon="7.900945">
				<ele>1536.411177</ele>
			</trkpt>
			<trkpt lat="46.577702" lon="7.901779">
				<ele>1548.301876</ele>
			</trkpt>
			<trkpt lat="46.577616" lon="7.901954">
				<ele>1550.260230</ele>
			</trkpt>
			<trkpt lat="46.577503" lon="7.902112">
				<ele>1552.335905</ele>
			</trkpt>
			<trkpt lat="46.577289" lon="7.902231">
				<ele>1554.961184</ele>
			</trkpt>
			<trkpt lat="46.577007" lon="7.902335">
				<ele>1557.815562</ele>
			</trkpt>
			<trkpt lat="46.576085" lon="7.902187">
				<ele>1566.916720</ele>
			</trkpt>
			<trkpt lat="46.575543" lon="7.901975">
				<ele>1572.781752</ele>
			</trkpt>
			<trkpt lat="46.575199" lon="7.901965">
				<ele>1577.387382</ele>
			</trkpt>
			<trkpt lat="46.574914" lon="7.901885">
				<ele>1581.272701</ele>
			</trkpt>
			<trkpt lat="46.574903" lon="7.901782">
				<ele>1582.231822</ele>
			</trkpt>
			<trkpt lat="46.574614" lon="7.901703">
				<ele>1586.168019</ele>
			</trkpt>
			<trkpt lat="46.574290" lon="7.901453">
				<ele>1591.077326</ele>
			</trkpt>
			<trkpt lat="46.573881" lon="7.901149">
				<ele>1596.329528</ele>
			</trkpt>
			<trkpt lat="46.573505" lon="7.900939">
				<ele>1598.895178</ele>
			</trkpt>
			<trkpt lat="46.573369" lon="7.900802">
				<ele>1599.948962</ele>
			</trkpt>
			<trkpt lat="46.573072" lon="7.900601">
				<ele>1602.035628</ele>
			</trkpt>
			<trkpt lat="46.572708" lon="7.900292">
				<ele>1604.720312</ele>
			</trkpt>
			<trkpt lat="46.572546" lon="7.900171">
				<ele>1605.880364</ele>
			</trkpt>
			<trkpt lat="46.572129" lon="7.899949">
				<ele>1608.499637</ele>
			</trkpt>
			<trkpt lat="46.571862" lon="7.899720">
				<ele>1610.235834</ele>
			</trkpt>
			<trkpt lat="46.571542" lon="7.899636">
				<ele>1612.057255</ele>
			</trkpt>
			<trkpt lat="46.571005" lon="7.899210">
				<ele>1615.483471</ele>
			</trkpt>
			<trkpt lat="46.570469" lon="7.898993">
				<ele>1617.264536</ele>
			</trkpt>
			<trkpt lat="46.570146" lon="7.898871">
				<ele>1617.524466</ele>
			</trkpt>
			<trkpt lat="46.569628" lon="7.898798">
				<ele>1617.929829</ele>
			</trkpt>
			<trkpt lat="46.569066" lon="7.898776">
				<ele>1618.367733</ele>
			</trkpt>
			<trkpt lat="46.568301" lon="7.898496">
				<ele>1618.942547</ele>
			</trkpt>
			<trkpt lat="46.568022" lon="7.898441">
				<ele>1619.145525</ele>
			</trkpt>
			<trkpt lat="46.567545" lon="7.898220">
				<ele>1619.506432</ele>
			</trkpt>
			<trkpt lat="46.567243" lon="7.898066">
				<ele>1619.737145</ele>
			</trkpt>
			<trkpt lat="46.566923" lon="7.897766">
				<ele>1622.933975</ele>
			</trkpt>
			<trkpt lat="46.566715" lon="7.897616">
				<ele>1624.946446</ele>
			</trkpt>
			<trkpt lat="46.566114" lon="7.897419">
				<ele>1630.286808</ele>
			</trkpt>
			<trkpt lat="46.565812" lon="7.897246">
				<ele>1633.100382</ele>
			</trkpt>
			<trkpt lat="46.566013" lon="7.897274">
				<ele>1634.850704</ele>
			</trkpt>
			<trkpt lat="46.566047" lon="7.897269">
				<ele>1635.146932</ele>
			</trkpt>
			<trkpt lat="46.566056" lon="7.897210">
				<ele>1635.616278</ele>
			</trkpt>
			<trkpt lat="46.566096" lon="7.897264">
				<ele>1636.394551</ele>
			</trkpt>
			<trkpt lat="46.566143" lon="7.897277">
				<ele>1637.076822</ele>
			</trkpt>
			<trkpt lat="46.566170" lon="7.897196">
				<ele>1637.959411</ele>
			</trkpt>
			<trkpt lat="46.566218" lon="7.897160">
				<ele>1638.729574</ele>
			</trkpt>
			<trkpt lat="46.566382" lon="7.897159">
				<ele>1641.068372</ele>
			</trkpt>
			<trkpt lat="46.566638" lon="7.897231">
				<ele>1644.786770</ele>
			</trkpt>
			<trkpt lat="46.566709" lon="7.897216">
				<ele>1645.809914</ele>
			</trkpt>
			<trkpt lat="46.567130" lon="7.897350">
				<ele>1651.955793</ele>
			</trkpt>
			<trkpt lat="46.567319" lon="7.897334">
				<ele>1654.655653</ele>
			</trkpt>
			<trkpt lat="46.567192" lon="7.897131">
				<ele>1657.346641</ele>
			</trkpt>
			<trkpt lat="46.566943" lon="7.896965">
				<ele>1661.256635</ele>
			</trkpt>
			<trkpt lat="46.566634" lon="7.896707">
				<ele>1666.411220</ele>
			</trkpt>
			<trkpt lat="46.566325" lon="7.896069">
				<ele>1674.173580</ele>
			</trkpt>
			<trkpt lat="46.566128" lon="7.895877">
				<ele>1677.604312</ele>
			</trkpt>
			<trkpt lat="46.566027" lon="7.895816">
				<ele>1679.186474</ele>
			</trkpt>
			<trkpt lat="46.565969" lon="7.895816">
				<ele>1680.025579</ele>
			</trkpt>
			<trkpt lat="46.565927" lon="7.895811">
				<ele>1680.635238</ele>
			</trkpt>
			<trkpt lat="46.565824" lon="7.895671">
				<ele>1682.674751</ele>
			</trkpt>
			<trkpt lat="46.565483" lon="7.895590">
				<ele>1687.318620</ele>
			</trkpt>
			<trkpt lat="46.565102" lon="7.895378">
				<ele>1690.065789</ele>
			</trkpt>
			<trkpt lat="46.564669" lon="7.895228">
				<ele>1693.063368</ele>
			</trkpt>
			<trkpt lat="46.564406" lon="7.895044">
				<ele>1695.028774</ele>
			</trkpt>
			<trkpt lat="46.564366" lon="7.894982">
				<ele>1695.422442</ele>
			</trkpt>
			<trkpt lat="46.563257" lon="7.894165">
				<ele>1701.352319</ele>
			</trkpt>
			<trkpt lat="46.562869" lon="7.893887">
				<ele>1702.742594</ele>
			</trkpt>
			<trkpt lat="46.562607" lon="7.893331">
				<ele>1704.232264</ele>
			</trkpt>
			<trkpt lat="46.562111" lon="7.891956">
				<ele>1709.796815</ele>
			</trkpt>
			<trkpt lat="46.561896" lon="7.891552">
				<ele>1711.798400</ele>
			</trkpt>
			<trkpt lat="46.561697" lon="7.891223">
				<ele>1713.515196</ele>
			</trkpt>
			<trkpt lat="46.561459" lon="7.890827">
				<ele>1715.729167</ele>
			</trkpt>
			<trkpt lat="46.561145" lon="7.890186">
				<ele>1719.930418</ele>
			</trkpt>
			<trkpt lat="46.560963" lon="7.889651">
				<ele>1723.116703</ele>
			</trkpt>
			<trkpt lat="46.560924" lon="7.889364">
				<ele>1724.678362</ele>
			</trkpt>
			<trkpt lat="46.560874" lon="7.889179">
				<ele>1725.739457</ele>
			</trkpt>
			<trkpt lat="46.560873" lon="7.888938">
				<ele>1727.025957</ele>
			</trkpt>
			<trkpt lat="46.560819" lon="7.888742">
				<ele>1728.153087</ele>
			</trkpt>
			<trkpt lat="46.560815" lon="7.888462">
				<ele>1729.212566</ele>
			</trkpt>
			<trkpt lat="46.560848" lon="7.888142">
				<ele>1729.523929</ele>
			</trkpt>
			<trkpt lat="46.560801" lon="7.887918">
				<ele>1729.749285</ele>
			</trkpt>
			<trkpt lat="46.560803" lon="7.887670">
				<ele>1729.987939</ele>
			</trkpt>
			<trkpt lat="46.560829" lon="7.887522">
				<ele>1730.134927</ele>
			</trkpt>
			<trkpt lat="46.560834" lon="7.887364">
				<ele>1730.287123</ele>
			</trkpt>
			<trkpt lat="46.560815" lon="7.887296">
				<ele>1730.357752</ele>
			</trkpt>
			<trkpt lat="46.560744" lon="7.887239">
				<ele>1730.471247</ele>
			</trkpt>
			<trkpt lat="46.560701" lon="7.887288">
				<ele>1730.547696</ele>
			</trkpt>
			<trkpt lat="46.560568" lon="7.887348">
				<ele>1730.742573</ele>
			</trkpt>
			<trkpt lat="46.560319" lon="7.887148">
				<ele>1731.140651</ele>
			</trkpt>
			<trkpt lat="46.560273" lon="7.887057">
				<ele>1731.249334</ele>
			</trkpt>
			<trkpt lat="46.560227" lon="7.886963">
				<ele>1731.360356</ele>
			</trkpt>
			<trkpt lat="46.560100" lon="7.886814">
				<ele>1731.588709</ele>
			</trkpt>
			<trkpt lat="46.560051" lon="7.886641">
				<ele>1730.141948</ele>
			</trkpt>
			<trkpt lat="46.559973" lon="7.886585">
				<ele>1728.794770</ele>
			</trkpt>
			<trkpt lat="46.559889" lon="7.886570">
				<ele>1727.484075</ele>
			</trkpt>
			<trkpt lat="46.559770" lon="7.886409">
				<ele>1724.966931</ele>
			</trkpt>
			<trkpt lat="46.559593" lon="7.886297">
				<ele>1721.977472</ele>
			</trkpt>
			<trkpt lat="46.559304" lon="7.886211">
				<ele>1717.408935</ele>
			</trkpt>
			<trkpt lat="46.559180" lon="7.886272">
				<ele>1715.381632</ele>
			</trkpt>
			<trkpt lat="46.559150" lon="7.886495">
				<ele>1712.961863</ele>
			</trkpt>
			<trkpt lat="46.558979" lon="7.886709">
				<ele>1709.468014</ele>
			</trkpt>
			<trkpt lat="46.558687" lon="7.887415">
				<ele>1701.720949</ele>
			</trkpt>
			<trkpt lat="46.558656" lon="7.887591">
				<ele>1700.430265</ele>
			</trkpt>
			<trkpt lat="46.558554" lon="7.887729">
				<ele>1698.990949</ele>
			</trkpt>
			<trkpt lat="46.558502" lon="7.887939">
				<ele>1697.405307</ele>
			</trkpt>
			<trkpt lat="46.558486" lon="7.888157">
				<ele>1695.847819</ele>
			</trkpt>
			<trkpt lat="46.558500" lon="7.888291">
				<ele>1694.884946</ele>
			</trkpt>
			<trkpt lat="46.558393" lon="7.888287">
				<ele>1693.779110</ele>
			</trkpt>
			<trkpt lat="46.558040" lon="7.888109">
				<ele>1689.919084</ele>
			</trkpt>
			<trkpt lat="46.557797" lon="7.887932">
				<ele>1687.111231</ele>
			</trkpt>
			<trkpt lat="46.557570" lon="7.887902">
				<ele>1685.035336</ele>
			</trkpt>
			<trkpt lat="46.557433" lon="7.887737">
				<ele>1684.365693</ele>
			</trkpt>
			<trkpt lat="46.557335" lon="7.887667">
				<ele>1683.954669</ele>
			</trkpt>
			<trkpt lat="46.557051" lon="7.887585">
				<ele>1682.864669</ele>
			</trkpt>
			<trkpt lat="46.556940" lon="7.887699">
				<ele>1682.353106</ele>
			</trkpt>
			<trkpt lat="46.556770" lon="7.887807">
				<ele>1681.654731</ele>
			</trkpt>
			<trkpt lat="46.556719" lon="7.887942">
				<ele>1681.255999</ele>
			</trkpt>
			<trkpt lat="46.556436" lon="7.888094">
				<ele>1680.120292</ele>
			</trkpt>
			<trkpt lat="46.556267" lon="7.888237">
				<ele>1679.384226</ele>
			</trkpt>
			<trkpt lat="46.556184" lon="7.888257">
				<ele>1679.067508</ele>
			</trkpt>
			<trkpt lat="46.556078" lon="7.888217">
				<ele>1678.655250</ele>
			</trkpt>
			<trkpt lat="46.556049" lon="7.888232">
				<ele>1678.539378</ele>
			</trkpt>
			<trkpt lat="46.556006" lon="7.888323">
				<ele>1678.619312</ele>
			</trkpt>
			<trkpt lat="46.556010" lon="7.888460">
				<ele>1679.025143</ele>
			</trkpt>
			<trkpt lat="46.555951" lon="7.888445">
				<ele>1679.282928</ele>
			</trkpt>
			<trkpt lat="46.555854" lon="7.888356">
				<ele>1679.776564</ele>
			</trkpt>
			<trkpt lat="46.555792" lon="7.888381">
				<ele>1680.053477</ele>
			</trkpt>
			<trkpt lat="46.555745" lon="7.888315">
				<ele>1680.334681</ele>
			</trkpt>
			<trkpt lat="46.555549" lon="7.888178">
				<ele>1681.270644</ele>
			</trkpt>
			<trkpt lat="46.555342" lon="7.887780">
				<ele>1682.747556</ele>
			</trkpt>
			<trkpt lat="46.554895" lon="7.887275">
				<ele>1685.183780</ele>
			</trkpt>
			<trkpt lat="46.554591" lon="7.887073">
				<ele>1687.204260</ele>
			</trkpt>
			<trkpt lat="46.554420" lon="7.887006">
				<ele>1688.937547</ele>
			</trkpt>
			<trkpt lat="46.554101" lon="7.886940">
				<ele>1692.091090</ele>
			</trkpt>
			<trkpt lat="46.553893" lon="7.886699">
				<ele>1694.693994</ele>
			</trkpt>
			<trkpt lat="46.553751" lon="7.886590">
				<ele>1696.265509</ele>
			</trkpt>
			<trkpt lat="46.553703" lon="7.886483">
				<ele>1697.125342</ele>
			</trkpt>
			<trkpt lat="46.553574" lon="7.886384">
				<ele>1698.552920</ele>
			</trkpt>
			<trkpt lat="46.553421" lon="7.886100">
				<ele>1700.981065</ele>
			</trkpt>
			<trkpt lat="46.553275" lon="7.885622">
				<ele>1704.367640</ele>
			</trkpt>
			<trkpt lat="46.553070" lon="7.885418">
				<ele>1706.355115</ele>
			</trkpt>
			<trkpt lat="46.552938" lon="7.885040">
				<ele>1708.687695</ele>
			</trkpt>
			<trkpt lat="46.552820" lon="7.884804">
				<ele>1710.293134</ele>
			</trkpt>
			<trkpt lat="46.552773" lon="7.884809">
				<ele>1710.670183</ele>
			</trkpt>
			<trkpt lat="46.552758" lon="7.884705">
				<ele>1711.254853</ele>
			</trkpt>
			<trkpt lat="46.552705" lon="7.884651">
				<ele>1711.772632</ele>
			</trkpt>
			<trkpt lat="46.552607" lon="7.884638">
				<ele>1712.559977</ele>
			</trkpt>
			<trkpt lat="46.552553" lon="7.884531">
				<ele>1713.290230</ele>
			</trkpt>
			<trkpt lat="46.552420" lon="7.884692">
				<ele>1714.674816</ele>
			</trkpt>
			<trkpt lat="46.552356" lon="7.884724">
				<ele>1715.216299</ele>
			</trkpt>
			<trkpt lat="46.552222" lon="7.884619">
				<ele>1716.434173</ele>
			</trkpt>
			<trkpt lat="46.552173" lon="7.884612">
				<ele>1716.828106</ele>
			</trkpt>
			<trkpt lat="46.552083" lon="7.884652">
				<ele>1717.581072</ele>
			</trkpt>
			<trkpt lat="46.551969" lon="7.884795">
				<ele>1718.214839</ele>
			</trkpt>
			<trkpt lat="46.551768" lon="7.884900">
				<ele>1718.364871</ele>
			</trkpt>
			<trkpt lat="46.551615" lon="7.884846">
				<ele>1718.475469</ele>
			</trkpt>
			<trkpt lat="46.551569" lon="7.884900">
				<ele>1718.516999</ele>
			</trkpt>
			<trkpt lat="46.551101" lon="7.885072">
				<ele>1718.856093</ele>
			</trkpt>
			<trkpt lat="46.550958" lon="7.885186">
				<ele>1718.970653</ele>
			</trkpt>
			<trkpt lat="46.550702" lon="7.884866">
				<ele>1719.207799</ele>
			</trkpt>
			<trkpt lat="46.550608" lon="7.884697">
				<ele>1719.312803</ele>
			</trkpt>
			<trkpt lat="46.550145" lon="7.884249">
				<ele>1723.015439</ele>
			</trkpt>
			<trkpt lat="46.549954" lon="7.883961">
				<ele>1725.494354</ele>
			</trkpt>
			<trkpt lat="46.549883" lon="7.883879">
				<ele>1726.311222</ele>
			</trkpt>
			<trkpt lat="46.549870" lon="7.883828">
				<ele>1726.648215</ele>
			</trkpt>
			<trkpt lat="46.549890" lon="7.883742">
				<ele>1727.210695</ele>
			</trkpt>
			<trkpt lat="46.549810" lon="7.883410">
				<ele>1729.390315</ele>
			</trkpt>
			<trkpt lat="46.549770" lon="7.882979">
				<ele>1732.084918</ele>
			</trkpt>
			<trkpt lat="46.549749" lon="7.882929">
				<ele>1732.447911</ele>
			</trkpt>
			<trkpt lat="46.549658" lon="7.882916">
				<ele>1733.271692</ele>
			</trkpt>
			<trkpt lat="46.549553" lon="7.882744">
				<ele>1734.696658</ele>
			</trkpt>
			<trkpt lat="46.549557" lon="7.882629">
				<ele>1735.410091</ele>
			</trkpt>
			<trkpt lat="46.549457" lon="7.882484">
				<ele>1736.046145</ele>
			</trkpt>
			<trkpt lat="46.549464" lon="7.882350">
				<ele>1736.376505</ele>
			</trkpt>
			<trkpt lat="46.549396" lon="7.882228">
				<ele>1736.762548</ele>
			</trkpt>
			<trkpt lat="46.549336" lon="7.882188">
				<ele>1736.998486</ele>
			</trkpt>
			<trkpt lat="46.549346" lon="7.882099">
				<ele>1737.220175</ele>
			</trkpt>
			<trkpt lat="46.549285" lon="7.881996">
				<ele>1737.554325</ele>
			</trkpt>
			<trkpt lat="46.549280" lon="7.881744">
				<ele>1738.174075</ele>
			</trkpt>
			<trkpt lat="46.549226" lon="7.881607">
				<ele>1738.562255</ele>
			</trkpt>
			<trkpt lat="46.549227" lon="7.881548">
				<ele>1738.707339</ele>
			</trkpt>
			<trkpt lat="46.549132" lon="7.881293">
				<ele>1739.420275</ele>
			</trkpt>
			<trkpt lat="46.549073" lon="7.881234">
				<ele>1739.676232</ele>
			</trkpt>
			<trkpt lat="46.548935" lon="7.880993">
				<ele>1740.447159</ele>
			</trkpt>
			<trkpt lat="46.548879" lon="7.880584">
				<ele>1741.472344</ele>
			</trkpt>
			<trkpt lat="46.548900" lon="7.880443">
				<ele>1741.827002</ele>
			</trkpt>
			<trkpt lat="46.548890" lon="7.880223">
				<ele>1742.706053</ele>
			</trkpt>
			<trkpt lat="46.548861" lon="7.880145">
				<ele>1743.159443</ele>
			</trkpt>
			<trkpt lat="46.548864" lon="7.879806">
				<ele>1744.892999</ele>
			</trkpt>
			<trkpt lat="46.548962" lon="7.879602">
				<ele>1746.165394</ele>
			</trkpt>
			<trkpt lat="46.549105" lon="7.879206">
				<ele>1748.452420</ele>
			</trkpt>
			<trkpt lat="46.549110" lon="7.879086">
				<ele>1749.067139</ele>
			</trkpt>
			<trkpt lat="46.549033" lon="7.878959">
				<ele>1749.932850</ele>
			</trkpt>
			<trkpt lat="46.548964" lon="7.878735">
				<ele>1751.187871</ele>
			</trkpt>
			<trkpt lat="46.548994" lon="7.878626">
				<ele>1751.788196</ele>
			</trkpt>
			<trkpt lat="46.548963" lon="7.878555">
				<ele>1752.218225</ele>
			</trkpt>
			<trkpt lat="46.549002" lon="7.878305">
				<ele>1753.529024</ele>
			</trkpt>
			<trkpt lat="46.548964" lon="7.878215">
				<ele>1754.069029</ele>
			</trkpt>
			<trkpt lat="46.548969" lon="7.878050">
				<ele>1754.913542</ele>
			</trkpt>
			<trkpt lat="46.548947" lon="7.877980">
				<ele>1755.307077</ele>
			</trkpt>
			<trkpt lat="46.548765" lon="7.877886">
				<ele>1757.473013</ele>
			</trkpt>
			<trkpt lat="46.548792" lon="7.877802">
				<ele>1758.210657</ele>
			</trkpt>
			<trkpt lat="46.548918" lon="7.877604">
				<ele>1760.356712</ele>
			</trkpt>
			<trkpt lat="46.548907" lon="7.877426">
				<ele>1761.778488</ele>
			</trkpt>
			<trkpt lat="46.548927" lon="7.877275">
				<ele>1763.001835</ele>
			</trkpt>
			<trkpt lat="46.548989" lon="7.877086">
				<ele>1764.667702</ele>
			</trkpt>
			<trkpt lat="46.549045" lon="7.877019">
				<ele>1765.506589</ele>
			</trkpt>
			<trkpt lat="46.549092" lon="7.876693">
				<ele>1768.156431</ele>
			</trkpt>
			<trkpt lat="46.549184" lon="7.876491">
				<ele>1770.083863</ele>
			</trkpt>
			<trkpt lat="46.549145" lon="7.876423">
				<ele>1770.788257</ele>
			</trkpt>
			<trkpt lat="46.549156" lon="7.876305">
				<ele>1771.735581</ele>
			</trkpt>
			<trkpt lat="46.549349" lon="7.875360">
				<ele>1778.150794</ele>
			</trkpt>
			<trkpt lat="46.549414" lon="7.875336">
				<ele>1778.595288</ele>
			</trkpt>
			<trkpt lat="46.549431" lon="7.875119">
				<ele>1779.590832</ele>
			</trkpt>
			<trkpt lat="46.549538" lon="7.874864">
				<ele>1780.952466</ele>
			</trkpt>
			<trkpt lat="46.549554" lon="7.874477">
				<ele>1782.719702</ele>
			</trkpt>
			<trkpt lat="46.549514" lon="7.874363">
				<ele>1783.303069</ele>
			</trkpt>
			<trkpt lat="46.549506" lon="7.874194">
				<ele>1784.075241</ele>
			</trkpt>
			<trkpt lat="46.549535" lon="7.874105">
				<ele>1784.524158</ele>
			</trkpt>
			<trkpt lat="46.549633" lon="7.873971">
				<ele>1785.415784</ele>
			</trkpt>
			<trkpt lat="46.549628" lon="7.873929">
				<ele>1785.610079</ele>
			</trkpt>
			<trkpt lat="46.549574" lon="7.873867">
				<ele>1786.066118</ele>
			</trkpt>
			<trkpt lat="46.549578" lon="7.873679">
				<ele>1786.923483</ele>
			</trkpt>
			<trkpt lat="46.549535" lon="7.873726">
				<ele>1787.280030</ele>
			</trkpt>
			<trkpt lat="46.549493" lon="7.873717">
				<ele>1787.561414</ele>
			</trkpt>
			<trkpt lat="46.549386" lon="7.873712">
				<ele>1788.267110</ele>
			</trkpt>
			<trkpt lat="46.549314" lon="7.873767">
				<ele>1788.787830</ele>
			</trkpt>
			<trkpt lat="46.549292" lon="7.873742">
				<ele>1788.966597</ele>
			</trkpt>
			<trkpt lat="46.549293" lon="7.873665">
				<ele>1789.305702</ele>
			</trkpt>
			<trkpt lat="46.549240" lon="7.873629">
				<ele>1789.680232</ele>
			</trkpt>
			<trkpt lat="46.548976" lon="7.873726">
				<ele>1791.423614</ele>
			</trkpt>
			<trkpt lat="46.548909" lon="7.873797">
				<ele>1791.954413</ele>
			</trkpt>
			<trkpt lat="46.548913" lon="7.873907">
				<ele>1792.439442</ele>
			</trkpt>
			<trkpt lat="46.548937" lon="7.873938">
				<ele>1792.644974</ele>
			</trkpt>
			<trkpt lat="46.548886" lon="7.874056">
				<ele>1793.258636</ele>
			</trkpt>
			<trkpt lat="46.548843" lon="7.874059">
				<ele>1793.534259</ele>
			</trkpt>
			<trkpt lat="46.548706" lon="7.874161">
				<ele>1794.519698</ele>
			</trkpt>
			<trkpt lat="46.548540" lon="7.874179">
				<ele>1795.585461</ele>
			</trkpt>
			<trkpt lat="46.548487" lon="7.874150">
				<ele>1795.948023</ele>
			</trkpt>
			<trkpt lat="46.548350" lon="7.873962">
				<ele>1797.154109</ele>
			</trkpt>
			<trkpt lat="46.548305" lon="7.874040">
				<ele>1797.602405</ele>
			</trkpt>
			<trkpt lat="46.548153" lon="7.874082">
				<ele>1798.592997</ele>
			</trkpt>
			<trkpt lat="46.548069" lon="7.874139">
				<ele>1799.186489</ele>
			</trkpt>
			<trkpt lat="46.547973" lon="7.874284">
				<ele>1800.264510</ele>
			</trkpt>
			<trkpt lat="46.547911" lon="7.874326">
				<ele>1800.912561</ele>
			</trkpt>
			<trkpt lat="46.547886" lon="7.874306">
				<ele>1801.182911</ele>
			</trkpt>
			<trkpt lat="46.547774" lon="7.874351">
				<ele>1802.283837</ele>
			</trkpt>
			<trkpt lat="46.547632" lon="7.874294">
				<ele>1803.679560</ele>
			</trkpt>
			<trkpt lat="46.547570" lon="7.874339">
				<ele>1804.336106</ele>
			</trkpt>
			<trkpt lat="46.547545" lon="7.874395">
				<ele>1804.771149</ele>
			</trkpt>
			<trkpt lat="46.547464" lon="7.874421">
				<ele>1805.557072</ele>
			</trkpt>
			<trkpt lat="46.547207" lon="7.874624">
				<ele>1808.328153</ele>
			</trkpt>
			<trkpt lat="46.547122" lon="7.874768">
				<ele>1809.564703</ele>
			</trkpt>
			<trkpt lat="46.547073" lon="7.874806">
				<ele>1810.090867</ele>
			</trkpt>
			<trkpt lat="46.546821" lon="7.874724">
				<ele>1812.537531</ele>
			</trkpt>
			<trkpt lat="46.546813" lon="7.874657">
				<ele>1812.980653</ele>
			</trkpt>
			<trkpt lat="46.546836" lon="7.874611">
				<ele>1813.351243</ele>
			</trkpt>
			<trkpt lat="46.546791" lon="7.874554">
				<ele>1813.916698</ele>
			</trkpt>
			<trkpt lat="46.546811" lon="7.874507">
				<ele>1814.276845</ele>
			</trkpt>
			<trkpt lat="46.546931" lon="7.874463">
				<ele>1815.449394</ele>
			</trkpt>
			<trkpt lat="46.546941" lon="7.874436">
				<ele>1815.649222</ele>
			</trkpt>
			<trkpt lat="46.546905" lon="7.874403">
				<ele>1816.052435</ele>
			</trkpt>
			<trkpt lat="46.547000" lon="7.874305">
				<ele>1817.612700</ele>
			</trkpt>
			<trkpt lat="46.546913" lon="7.874288">
				<ele>1819.304602</ele>
			</trkpt>
			<trkpt lat="46.546912" lon="7.874251">
				<ele>1819.795445</ele>
			</trkpt>
			<trkpt lat="46.546710" lon="7.874070">
				<ele>1824.368696</ele>
			</trkpt>
			<trkpt lat="46.546576" lon="7.873908">
				<ele>1827.727546</ele>
			</trkpt>
			<trkpt lat="46.546565" lon="7.873822">
				<ele>1828.887100</ele>
			</trkpt>
			<trkpt lat="46.546508" lon="7.873693">
				<ele>1830.919606</ele>
			</trkpt>
			<trkpt lat="46.546580" lon="7.873604">
				<ele>1832.741043</ele>
			</trkpt>
			<trkpt lat="46.546713" lon="7.873549">
				<ele>1835.406131</ele>
			</trkpt>
			<trkpt lat="46.546543" lon="7.873419">
				<ele>1839.108221</ele>
			</trkpt>
			<trkpt lat="46.546449" lon="7.873400">
				<ele>1840.937387</ele>
			</trkpt>
			<trkpt lat="46.546569" lon="7.873317">
				<ele>1843.498612</ele>
			</trkpt>
			<trkpt lat="46.546486" lon="7.873238">
				<ele>1845.410627</ele>
			</trkpt>
			<trkpt lat="46.546536" lon="7.873184">
				<ele>1846.611086</ele>
			</trkpt>
			<trkpt lat="46.546614" lon="7.873206">
				<ele>1848.142472</ele>
			</trkpt>
			<trkpt lat="46.546587" lon="7.873135">
				<ele>1849.217929</ele>
			</trkpt>
			<trkpt lat="46.546668" lon="7.873173">
				<ele>1850.858365</ele>
			</trkpt>
			<trkpt lat="46.546710" lon="7.873231">
				<ele>1852.098309</ele>
			</trkpt>
			<trkpt lat="46.546723" lon="7.873215">
				<ele>1852.494909</ele>
			</trkpt>
			<trkpt lat="46.546690" lon="7.873129">
				<ele>1854.072045</ele>
			</trkpt>
			<trkpt lat="46.546762" lon="7.873165">
				<ele>1855.844956</ele>
			</trkpt>
			<trkpt lat="46.546966" lon="7.873083">
				<ele>1860.773360</ele>
			</trkpt>
			<trkpt lat="46.546967" lon="7.873017">
				<ele>1861.830592</ele>
			</trkpt>
			<trkpt lat="46.546946" lon="7.872979">
				<ele>1862.611272</ele>
			</trkpt>
			<trkpt lat="46.546911" lon="7.872995">
				<ele>1863.465593</ele>
			</trkpt>
			<trkpt lat="46.546790" lon="7.872953">
				<ele>1866.362303</ele>
			</trkpt>
			<trkpt lat="46.546778" lon="7.872889">
				<ele>1867.424658</ele>
			</trkpt>
			<trkpt lat="46.546810" lon="7.872882">
				<ele>1868.178177</ele>
			</trkpt>
			<trkpt lat="46.546948" lon="7.872632">
				<ele>1873.311935</ele>
			</trkpt>
			<trkpt lat="46.546841" lon="7.872682">
				<ele>1875.928985</ele>
			</trkpt>
			<trkpt lat="46.546766" lon="7.872673">
				<ele>1877.681329</ele>
			</trkpt>
			<trkpt lat="46.546859" lon="7.872550">
				<ele>1880.608748</ele>
			</trkpt>
			<trkpt lat="46.546673" lon="7.872562">
				<ele>1884.944097</ele>
			</trkpt>
			<trkpt lat="46.546673" lon="7.872515">
				<ele>1885.696795</ele>
			</trkpt>
			<trkpt lat="46.546709" lon="7.872459">
				<ele>1886.924400</ele>
			</trkpt>
			<trkpt lat="46.546689" lon="7.872415">
				<ele>1887.769042</ele>
			</trkpt>
			<trkpt lat="46.546737" lon="7.872426">
				<ele>1888.900540</ele>
			</trkpt>
			<trkpt lat="46.546731" lon="7.872385">
				<ele>1889.571848</ele>
			</trkpt>
			<trkpt lat="46.546756" lon="7.872383">
				<ele>1890.154863</ele>
			</trkpt>
			<trkpt lat="46.546746" lon="7.872330">
				<ele>1891.035011</ele>
			</trkpt>
			<trkpt lat="46.546807" lon="7.872355">
				<ele>1892.510769</ele>
			</trkpt>
			<trkpt lat="46.546894" lon="7.872297">
				<ele>1894.882447</ele>
			</trkpt>
			<trkpt lat="46.546897" lon="7.872273">
				<ele>1895.310963</ele>
			</trkpt>
			<trkpt lat="46.546808" lon="7.872262">
				<ele>1897.592432</ele>
			</trkpt>
			<trkpt lat="46.546788" lon="7.872211">
				<ele>1898.623761</ele>
			</trkpt>
			<trkpt lat="46.546805" lon="7.872158">
				<ele>1899.651092</ele>
			</trkpt>
			<trkpt lat="46.546826" lon="7.872179">
				<ele>1900.302097</ele>
			</trkpt>
			<trkpt lat="46.546863" lon="7.872155">
				<ele>1901.336944</ele>
			</trkpt>
			<trkpt lat="46.546829" lon="7.872122">
				<ele>1902.381097</ele>
			</trkpt>
			<trkpt lat="46.546850" lon="7.872092">
				<ele>1903.133065</ele>
			</trkpt>
			<trkpt lat="46.546923" lon="7.872090">
				<ele>1904.997989</ele>
			</trkpt>
			<trkpt lat="46.546915" lon="7.872027">
				<ele>1906.123418</ele>
			</trkpt>
			<trkpt lat="46.546959" lon="7.872019">
				<ele>1907.256036</ele>
			</trkpt>
			<trkpt lat="46.546954" lon="7.871975">
				<ele>1908.039464</ele>
			</trkpt>
			<trkpt lat="46.546988" lon="7.871899">
				<ele>1909.632155</ele>
			</trkpt>
			<trkpt lat="46.546924" lon="7.871918">
				<ele>1911.300593</ele>
			</trkpt>
			<trkpt lat="46.546875" lon="7.871884">
				<ele>1912.687383</ele>
			</trkpt>
			<trkpt lat="46.546953" lon="7.871759">
				<ele>1915.652373</ele>
			</trkpt>
			<trkpt lat="46.546910" lon="7.871741">
				<ele>1916.795307</ele>
			</trkpt>
			<trkpt lat="46.546960" lon="7.871688">
				<ele>1918.375779</ele>
			</trkpt>
			<trkpt lat="46.546949" lon="7.871658">
				<ele>1918.973007</ele>
			</trkpt>
			<trkpt lat="46.546916" lon="7.871668">
				<ele>1919.834017</ele>
			</trkpt>
			<trkpt lat="46.546845" lon="7.871614">
				<ele>1921.880647</ele>
			</trkpt>
			<trkpt lat="46.546878" lon="7.871578">
				<ele>1922.934414</ele>
			</trkpt>
			<trkpt lat="46.546821" lon="7.871554">
				<ele>1924.450146</ele>
			</trkpt>
			<trkpt lat="46.546823" lon="7.871528">
				<ele>1924.909738</ele>
			</trkpt>
			<trkpt lat="46.546913" lon="7.871522">
				<ele>1927.210967</ele>
			</trkpt>
			<trkpt lat="46.546792" lon="7.871374">
				<ele>1931.249726</ele>
			</trkpt>
			<trkpt lat="46.546746" lon="7.871415">
				<ele>1932.627865</ele>
			</trkpt>
			<trkpt lat="46.546732" lon="7.871390">
				<ele>1933.194213</ele>
			</trkpt>
			<trkpt lat="46.546757" lon="7.871363">
				<ele>1933.989656</ele>
			</trkpt>
			<trkpt lat="46.546725" lon="7.871305">
				<ele>1935.295875</ele>
			</trkpt>
			<trkpt lat="46.546573" lon="7.871223">
				<ele>1939.383333</ele>
			</trkpt>
			<trkpt lat="46.546518" lon="7.871239">
				<ele>1940.484729</ele>
			</trkpt>
			<trkpt lat="46.546466" lon="7.871332">
				<ele>1942.103395</ele>
			</trkpt>
			<trkpt lat="46.546407" lon="7.871363">
				<ele>1943.335256</ele>
			</trkpt>
			<trkpt lat="46.546271" lon="7.871304">
				<ele>1946.122115</ele>
			</trkpt>
			<trkpt lat="46.546171" lon="7.871221">
				<ele>1948.383152</ele>
			</trkpt>
			<trkpt lat="46.546067" lon="7.871035">
				<ele>1951.620498</ele>
			</trkpt>
			<trkpt lat="46.545931" lon="7.870435">
				<ele>1960.152351</ele>
			</trkpt>
			<trkpt lat="46.545689" lon="7.869759">
				<ele>1970.444585</ele>
			</trkpt>
			<trkpt lat="46.545657" lon="7.869588">
				<ele>1972.837950</ele>
			</trkpt>
			<trkpt lat="46.545679" lon="7.869177">
				<ele>1976.744314</ele>
			</trkpt>
			<trkpt lat="46.545654" lon="7.868976">
				<ele>1978.322447</ele>
			</trkpt>
			<trkpt lat="46.545535" lon="7.868751">
				<ele>1980.515370</ele>
			</trkpt>
			<trkpt lat="46.545366" lon="7.868531">
				<ele>1983.063556</ele>
			</trkpt>
			<trkpt lat="46.545365" lon="7.868467">
				<ele>1983.558155</ele>
			</trkpt>
			<trkpt lat="46.545428" lon="7.868339">
				<ele>1984.774239</ele>
			</trkpt>
			<trkpt lat="46.545497" lon="7.868312">
				<ele>1985.576926</ele>
			</trkpt>
			<trkpt lat="46.545609" lon="7.868195">
				<ele>1987.126139</ele>
			</trkpt>
			<trkpt lat="46.545787" lon="7.867699">
				<ele>1991.448578</ele>
			</trkpt>
			<trkpt lat="46.545874" lon="7.867562">
				<ele>1992.889235</ele>
			</trkpt>
			<trkpt lat="46.545989" lon="7.867475">
				<ele>1994.345487</ele>
			</trkpt>
			<trkpt lat="46.546014" lon="7.867317">
				<ele>1995.198789</ele>
			</trkpt>
			<trkpt lat="46.546061" lon="7.867232">
				<ele>1995.654470</ele>
			</trkpt>
			<trkpt lat="46.546100" lon="7.867161">
				<ele>1996.034114</ele>
			</trkpt>
			<trkpt lat="46.546095" lon="7.866963">
				<ele>1996.861936</ele>
			</trkpt>
			<trkpt lat="46.546019" lon="7.866732">
				<ele>1997.931823</ele>
			</trkpt>
			<trkpt lat="46.546039" lon="7.866563">
				<ele>1998.648301</ele>
			</trkpt>
			<trkpt lat="46.546021" lon="7.866429">
				<ele>1999.218746</ele>
			</trkpt>
			<trkpt lat="46.546028" lon="7.866207">
				<ele>2000.147262</ele>
			</trkpt>
			<trkpt lat="46.545959" lon="7.866009">
				<ele>2001.074661</ele>
			</trkpt>
			<trkpt lat="46.545824" lon="7.865791">
				<ele>2002.300298</ele>
			</trkpt>
			<trkpt lat="46.545844" lon="7.865400">
				<ele>2003.938457</ele>
			</trkpt>
			<trkpt lat="46.545888" lon="7.865207">
				<ele>2004.787982</ele>
			</trkpt>
			<trkpt lat="46.545971" lon="7.864588">
				<ele>2007.375141</ele>
			</trkpt>
			<trkpt lat="46.546022" lon="7.864359">
				<ele>2008.353654</ele>
			</trkpt>
			<trkpt lat="46.546022" lon="7.864122">
				<ele>2009.317099</ele>
			</trkpt>
			<trkpt lat="46.545974" lon="7.863671">
				<ele>2011.172314</ele>
			</trkpt>
			<trkpt lat="46.546000" lon="7.863436">
				<ele>2012.139911</ele>
			</trkpt>
			<trkpt lat="46.546042" lon="7.863362">
				<ele>2012.529938</ele>
			</trkpt>
			<trkpt lat="46.545870" lon="7.863110">
				<ele>2013.973191</ele>
			</trkpt>
			<trkpt lat="46.545863" lon="7.862958">
				<ele>2014.592483</ele>
			</trkpt>
			<trkpt lat="46.545775" lon="7.862772">
				<ele>2015.510233</ele>
			</trkpt>
			<trkpt lat="46.545746" lon="7.862639">
				<ele>2016.077424</ele>
			</trkpt>
			<trkpt lat="46.545736" lon="7.862432">
				<ele>2016.475608</ele>
			</trkpt>
			<trkpt lat="46.545595" lon="7.862203">
				<ele>2016.848437</ele>
			</trkpt>
			<trkpt lat="46.545526" lon="7.861695">
				<ele>2017.476548</ele>
			</trkpt>
			<trkpt lat="46.545468" lon="7.861530">
				<ele>2017.701320</ele>
			</trkpt>
			<trkpt lat="46.545491" lon="7.861386">
				<ele>2017.880642</ele>
			</trkpt>
			<trkpt lat="46.545477" lon="7.861329">
				<ele>2017.954060</ele>
			</trkpt>
			<trkpt lat="46.545367" lon="7.861119">
				<ele>2018.274257</ele>
			</trkpt>
			<trkpt lat="46.545323" lon="7.860984">
				<ele>2018.455470</ele>
			</trkpt>
			<trkpt lat="46.545158" lon="7.860746">
				<ele>2018.865385</ele>
			</trkpt>
			<trkpt lat="46.545082" lon="7.860561">
				<ele>2019.126777</ele>
			</trkpt>
			<trkpt lat="46.545032" lon="7.860507">
				<ele>2019.236627</ele>
			</trkpt>
			<trkpt lat="46.544857" lon="7.859957">
				<ele>2020.401696</ele>
			</trkpt>
			<trkpt lat="46.544848" lon="7.859822">
				<ele>2020.704033</ele>
			</trkpt>
			<trkpt lat="46.544783" lon="7.859563">
				<ele>2021.318600</ele>
			</trkpt>
			<trkpt lat="46.544741" lon="7.859117">
				<ele>2022.322050</ele>
			</trkpt>
			<trkpt lat="46.544718" lon="7.859064">
				<ele>2022.461742</ele>
			</trkpt>
			<trkpt lat="46.544734" lon="7.858740">
				<ele>2023.185827</ele>
			</trkpt>
			<trkpt lat="46.544706" lon="7.858660">
				<ele>2023.385916</ele>
			</trkpt>
			<trkpt lat="46.544708" lon="7.858538">
				<ele>2023.657942</ele>
			</trkpt>
			<trkpt lat="46.544674" lon="7.858358">
				<ele>2024.074035</ele>
			</trkpt>
			<trkpt lat="46.544676" lon="7.858216">
				<ele>2024.390633</ele>
			</trkpt>
			<trkpt lat="46.544767" lon="7.857959">
				<ele>2025.034969</ele>
			</trkpt>
			<trkpt lat="46.544756" lon="7.857733">
				<ele>2025.757930</ele>
			</trkpt>
			<trkpt lat="46.544775" lon="7.857443">
				<ele>2026.968225</ele>
			</trkpt>
			<trkpt lat="46.544753" lon="7.857254">
				<ele>2027.764614</ele>
			</trkpt>
			<trkpt lat="46.544785" lon="7.857191">
				<ele>2028.089995</ele>
			</trkpt>
			<trkpt lat="46.544780" lon="7.857012">
				<ele>2028.834285</ele>
			</trkpt>
			<trkpt lat="46.544809" lon="7.856778">
				<ele>2029.822123</ele>
			</trkpt>
			<trkpt lat="46.544791" lon="7.856461">
				<ele>2031.143618</ele>
			</trkpt>
			<trkpt lat="46.544835" lon="7.856329">
				<ele>2031.753040</ele>
			</trkpt>
			<trkpt lat="46.544961" lon="7.856206">
				<ele>2032.669788</ele>
			</trkpt>
			<trkpt lat="46.544984" lon="7.856152">
				<ele>2032.933672</ele>
			</trkpt>
			<trkpt lat="46.545024" lon="7.855798">
				<ele>2034.424118</ele>
			</trkpt>
			<trkpt lat="46.545064" lon="7.855675">
				<ele>2034.989378</ele>
			</trkpt>
			<trkpt lat="46.545168" lon="7.855543">
				<ele>2035.823289</ele>
			</trkpt>
			<trkpt lat="46.545263" lon="7.854989">
				<ele>2037.155064</ele>
			</trkpt>
			<trkpt lat="46.545375" lon="7.854627">
				<ele>2037.964369</ele>
			</trkpt>
			<trkpt lat="46.545290" lon="7.854350">
				<ele>2038.582794</ele>
			</trkpt>
			<trkpt lat="46.545193" lon="7.854322">
				<ele>2038.875953</ele>
			</trkpt>
			<trkpt lat="46.545113" lon="7.854257">
				<ele>2039.147622</ele>
			</trkpt>
			<trkpt lat="46.545102" lon="7.854142">
				<ele>2039.384349</ele>
			</trkpt>
			<trkpt lat="46.545144" lon="7.853980">
				<ele>2039.737332</ele>
			</trkpt>
			<trkpt lat="46.545141" lon="7.853872">
				<ele>2039.957708</ele>
			</trkpt>
			<trkpt lat="46.545063" lon="7.853699">
				<ele>2040.379465</ele>
			</trkpt>
			<trkpt lat="46.545001" lon="7.853323">
				<ele>2041.167803</ele>
			</trkpt>
			<trkpt lat="46.544795" lon="7.852518">
				<ele>2041.551579</ele>
			</trkpt>
			<trkpt lat="46.544708" lon="7.852239">
				<ele>2041.580813</ele>
			</trkpt>
			<trkpt lat="46.544599" lon="7.852014">
				<ele>2041.607076</ele>
			</trkpt>
			<trkpt lat="46.544483" lon="7.851582">
				<ele>2041.651332</ele>
			</trkpt>
			<trkpt lat="46.544425" lon="7.851489">
				<ele>2041.663312</ele>
			</trkpt>
			<trkpt lat="46.544399" lon="7.850487">
				<ele>2040.890041</ele>
			</trkpt>
			<trkpt lat="46.544391" lon="7.850197">
				<ele>2039.955364</ele>
			</trkpt>
			<trkpt lat="46.544403" lon="7.850070">
				<ele>2039.542528</ele>
			</trkpt>
			<trkpt lat="46.544715" lon="7.849321">
				<ele>2036.722537</ele>
			</trkpt>
			<trkpt lat="46.544797" lon="7.848869">
				<ele>2035.217126</ele>
			</trkpt>
			<trkpt lat="46.544807" lon="7.848616">
				<ele>2034.401019</ele>
			</trkpt>
			<trkpt lat="46.544901" lon="7.848315">
				<ele>2033.336433</ele>
			</trkpt>
			<trkpt lat="46.544963" lon="7.848216">
				<ele>2033.119526</ele>
			</trkpt>
			<trkpt lat="46.544972" lon="7.848118">
				<ele>2032.968756</ele>
			</trkpt>
			<trkpt lat="46.544928" lon="7.847808">
				<ele>2032.486066</ele>
			</trkpt>
			<trkpt lat="46.544941" lon="7.847500">
				<ele>2032.015503</ele>
			</trkpt>
			<trkpt lat="46.544989" lon="7.847213">
				<ele>2031.565094</ele>
			</trkpt>
			<trkpt lat="46.545087" lon="7.846967">
				<ele>2031.131578</ele>
			</trkpt>
			<trkpt lat="46.545134" lon="7.846909">
				<ele>2030.994897</ele>
			</trkpt>
			<trkpt lat="46.545238" lon="7.846847">
				<ele>2030.745682</ele>
			</trkpt>
			<trkpt lat="46.545317" lon="7.846866">
				<ele>2030.568146</ele>
			</trkpt>
			<trkpt lat="46.545344" lon="7.846799">
				<ele>2030.449730</ele>
			</trkpt>
			<trkpt lat="46.545343" lon="7.846627">
				<ele>2030.187435</ele>
			</trkpt>
			<trkpt lat="46.545316" lon="7.846507">
				<ele>2029.994901</ele>
			</trkpt>
			<trkpt lat="46.545334" lon="7.846183">
				<ele>2029.499217</ele>
			</trkpt>
			<trkpt lat="46.545263" lon="7.845895">
				<ele>2028.596064</ele>
			</trkpt>
			<trkpt lat="46.545316" lon="7.845396">
				<ele>2026.673586</ele>
			</trkpt>
			<trkpt lat="46.545416" lon="7.845153">
				<ele>2025.595385</ele>
			</trkpt>
			<trkpt lat="46.545405" lon="7.844789">
				<ele>2024.208111</ele>
			</trkpt>
			<trkpt lat="46.545485" lon="7.844326">
				<ele>2022.390451</ele>
			</trkpt>
			<trkpt lat="46.545561" lon="7.844121">
				<ele>2021.503738</ele>
			</trkpt>
			<trkpt lat="46.545598" lon="7.843765">
				<ele>2020.132876</ele>
			</trkpt>
			<trkpt lat="46.545638" lon="7.843720">
				<ele>2019.852891</ele>
			</trkpt>
			<trkpt lat="46.545592" lon="7.843472">
				<ele>2019.202517</ele>
			</trkpt>
			<trkpt lat="46.545683" lon="7.843114">
				<ele>2018.716509</ele>
			</trkpt>
			<trkpt lat="46.545685" lon="7.842945">
				<ele>2018.501276</ele>
			</trkpt>
			<trkpt lat="46.545713" lon="7.842858">
				<ele>2018.378962</ele>
			</trkpt>
			<trkpt lat="46.545787" lon="7.842855">
				<ele>2018.241902</ele>
			</trkpt>
			<trkpt lat="46.545787" lon="7.842855">
				<ele>2018.241902</ele>
			</trkpt>
			<trkpt lat="46.545790" lon="7.842817">
				<ele>2018.193196</ele>
			</trkpt>
			<trkpt lat="46.545741" lon="7.842603">
				<ele>2017.905988</ele>
			</trkpt>
			<trkpt lat="46.545650" lon="7.842436">
				<ele>2017.634680</ele>
			</trkpt>
			<trkpt lat="46.545626" lon="7.842141">
				<ele>2017.256413</ele>
			</trkpt>
			<trkpt lat="46.545723" lon="7.841320">
				<ele>2016.195654</ele>
			</trkpt>
			<trkpt lat="46.545736" lon="7.840886">
				<ele>2017.066316</ele>
			</trkpt>
			<trkpt lat="46.545776" lon="7.840783">
				<ele>2017.459225</ele>
			</trkpt>
			<trkpt lat="46.545776" lon="7.840637">
				<ele>2017.944193</ele>
			</trkpt>
			<trkpt lat="46.545834" lon="7.840399">
				<ele>2018.782917</ele>
			</trkpt>
			<trkpt lat="46.545967" lon="7.840141">
				<ele>2019.853919</ele>
			</trkpt>
			<trkpt lat="46.545959" lon="7.839972">
				<ele>2020.416613</ele>
			</trkpt>
			<trkpt lat="46.546095" lon="7.839821">
				<ele>2021.243053</ele>
			</trkpt>
			<trkpt lat="46.546105" lon="7.839405">
				<ele>2022.625716</ele>
			</trkpt>
			<trkpt lat="46.546087" lon="7.839318">
				<ele>2022.927494</ele>
			</trkpt>
			<trkpt lat="46.546103" lon="7.839199">
				<ele>2023.330257</ele>
			</trkpt>
			<trkpt lat="46.546089" lon="7.839144">
				<ele>2023.525060</ele>
			</trkpt>
			<trkpt lat="46.545980" lon="7.838915">
				<ele>2024.450123</ele>
			</trkpt>
			<trkpt lat="46.545964" lon="7.838770">
				<ele>2024.723840</ele>
			</trkpt>
			<trkpt lat="46.545859" lon="7.838702">
				<ele>2024.723840</ele>
			</trkpt>
			<trkpt lat="46.545752" lon="7.838559">
				<ele>2024.723840</ele>
			</trkpt>
			<trkpt lat="46.545702" lon="7.838434">
				<ele>2024.723840</ele>
			</trkpt>
			<trkpt lat="46.545666" lon="7.838336">
				<ele>2024.723840</ele>
			</trkpt>
			<trkpt lat="46.545621" lon="7.838302">
				<ele>2024.723840</ele>
			</trkpt>
			<trkpt lat="46.545592" lon="7.838133">
				<ele>2024.723840</ele>
			</trkpt>
			<trkpt lat="46.545545" lon="7.838123">
				<ele>2024.723840</ele>
			</trkpt>
			<trkpt lat="46.545489" lon="7.838164">
				<ele>2024.723840</ele>
			</trkpt>
			<trkpt lat="46.545410" lon="7.838141">
				<ele>2024.723840</ele>
			</trkpt>
			<trkpt lat="46.545316" lon="7.837984">
				<ele>2024.723840</ele>
			</trkpt>
			<trkpt lat="46.545143" lon="7.837864">
				<ele>2024.723840</ele>
			</trkpt>
			<trkpt lat="46.545039" lon="7.837963">
				<ele>2024.723840</ele>
			</trkpt>
			<trkpt lat="46.544979" lon="7.837944">
				<ele>2024.723840</ele>
			</trkpt>
			<trkpt lat="46.544937" lon="7.837886">
				<ele>2024.723840</ele>
			</trkpt>
		</trkseg>
	</trk>
</gpx>
