<?xml version="1.0"?>
<gpx version="1.1" xmlns="http://www.topografix.com/GPX/1/1" xmlns:xsi="http://www.w3.org/2001/XMLSchema-instance" xsi:schemaLocation="http://www.topografix.com/GPX/1/1 http://www.topografix.com/GPX/1/1/gpx.xsd">
	<metadata>
		<name>Meilen_Pfannenstiel</name>
	</metadata>
	<trk type="hiking">
		<trkseg>
			<trkpt lat="47.2697031440" lon="8.6446045700">
				<ele>420.7</ele>
			</trkpt>
			<trkpt lat="47.2697674816" lon="8.6444013773">
				<ele>420.8</ele>
			</trkpt>
			<trkpt lat="47.2697869112" lon="8.6444118068">
				<ele>420.7</ele>
			</trkpt>
			<trkpt lat="47.2699772911" lon="8.6438039384">
				<ele>420.7</ele>
			</trkpt>
			<trkpt lat="47.2701827650" lon="8.6431079368">
				<ele>420.7</ele>
			</trkpt>
			<trkpt lat="47.2703238256" lon="8.6426575800">
				<ele>420.7</ele>
			</trkpt>
			<trkpt lat="47.2703337440" lon="8.6426286352">
				<ele>419.5</ele>
			</trkpt>
			<trkpt lat="47.2703404618" lon="8.6426081703">
				<ele>419.5</ele>
			</trkpt>
			<trkpt lat="47.2703613744" lon="8.6425385166">
				<ele>417.0</ele>
			</trkpt>
			<trkpt lat="47.2704245120" lon="8.6423415258">
				<ele>416.8</ele>
			</trkpt>
			<trkpt lat="47.2704852812" lon="8.6423825827">
				<ele>416.8</ele>
			</trkpt>
			<trkpt lat="47.2704984480" lon="8.6423398213">
				<ele>416.8</ele>
			</trkpt>
			<trkpt lat="47.2705188651" lon="8.6422805844">
				<ele>419.1</ele>
			</trkpt>
			<trkpt lat="47.2705248035" lon="8.6422624136">
				<ele>419.1</ele>
			</trkpt>
			<trkpt lat="47.2705349860" lon="8.6422271836">
				<ele>420.5</ele>
			</trkpt>
			<trkpt lat="47.2705478092" lon="8.6421862123">
				<ele>420.5</ele>
			</trkpt>
			<trkpt lat="47.2707344236" lon="8.6423018945">
				<ele>421.6</ele>
			</trkpt>
			<trkpt lat="47.2708322202" lon="8.6423506053">
				<ele>422.3</ele>
			</trkpt>
			<trkpt lat="47.2709201953" lon="8.6423819538">
				<ele>422.8</ele>
			</trkpt>
			<trkpt lat="47.2710132889" lon="8.6424011925">
				<ele>423.5</ele>
			</trkpt>
			<trkpt lat="47.2710899656" lon="8.6423980301">
				<ele>424.1</ele>
			</trkpt>
			<trkpt lat="47.2711668723" lon="8.6423728286">
				<ele>424.6</ele>
			</trkpt>
			<trkpt lat="47.2712557570" lon="8.6423160845">
				<ele>425.2</ele>
			</trkpt>
			<trkpt lat="47.2713214674" lon="8.6422465794">
				<ele>425.8</ele>
			</trkpt>
			<trkpt lat="47.2714060761" lon="8.6421212119">
				<ele>426.8</ele>
			</trkpt>
			<trkpt lat="47.2715008132" lon="8.6419838076">
				<ele>427.9</ele>
			</trkpt>
			<trkpt lat="47.2715531444" lon="8.6419189043">
				<ele>428.6</ele>
			</trkpt>
			<trkpt lat="47.2715849621" lon="8.6419024792">
				<ele>428.9</ele>
			</trkpt>
			<trkpt lat="47.2716479172" lon="8.6419030646">
				<ele>429.3</ele>
			</trkpt>
			<trkpt lat="47.2716897421" lon="8.6417604362">
				<ele>429.3</ele>
			</trkpt>
			<trkpt lat="47.2717502087" lon="8.6415537187">
				<ele>429.4</ele>
			</trkpt>
			<trkpt lat="47.2717935593" lon="8.6413906918">
				<ele>429.2</ele>
			</trkpt>
			<trkpt lat="47.2718351918" lon="8.6412353838">
				<ele>429.1</ele>
			</trkpt>
			<trkpt lat="47.2718510210" lon="8.6411321889">
				<ele>429.0</ele>
			</trkpt>
			<trkpt lat="47.2718588327" lon="8.6410119363">
				<ele>429.0</ele>
			</trkpt>
			<trkpt lat="47.2718587181" lon="8.6408650328">
				<ele>428.9</ele>
			</trkpt>
			<trkpt lat="47.2719145338" lon="8.6408566678">
				<ele>429.0</ele>
			</trkpt>
			<trkpt lat="47.2719525522" lon="8.6408262130">
				<ele>429.2</ele>
			</trkpt>
			<trkpt lat="47.2720024784" lon="8.6408495402">
				<ele>429.2</ele>
			</trkpt>
			<trkpt lat="47.2720357045" lon="8.6408576366">
				<ele>428.9</ele>
			</trkpt>
			<trkpt lat="47.2720841203" lon="8.6408489321">
				<ele>428.5</ele>
			</trkpt>
			<trkpt lat="47.2722145524" lon="8.6408029133">
				<ele>427.5</ele>
			</trkpt>
			<trkpt lat="47.2723835265" lon="8.6407357287">
				<ele>427.3</ele>
			</trkpt>
			<trkpt lat="47.2724024741" lon="8.6407302735">
				<ele>427.4</ele>
			</trkpt>
			<trkpt lat="47.2725489596" lon="8.6406880380">
				<ele>427.6</ele>
			</trkpt>
			<trkpt lat="47.2725972899" lon="8.6406866802">
				<ele>427.7</ele>
			</trkpt>
			<trkpt lat="47.2726538548" lon="8.6406953018">
				<ele>427.7</ele>
			</trkpt>
			<trkpt lat="47.2727085346" lon="8.6407234414">
				<ele>427.9</ele>
			</trkpt>
			<trkpt lat="47.2728045146" lon="8.6407868199">
				<ele>428.3</ele>
			</trkpt>
			<trkpt lat="47.2729102234" lon="8.6408748564">
				<ele>428.9</ele>
			</trkpt>
			<trkpt lat="47.2730853055" lon="8.6410207708">
				<ele>430.2</ele>
			</trkpt>
			<trkpt lat="47.2732190029" lon="8.6411412771">
				<ele>431.7</ele>
			</trkpt>
			<trkpt lat="47.2733248218" lon="8.6412195499">
				<ele>432.8</ele>
			</trkpt>
			<trkpt lat="47.2734011066" lon="8.6412530797">
				<ele>433.5</ele>
			</trkpt>
			<trkpt lat="47.2734962995" lon="8.6412686112">
				<ele>434.4</ele>
			</trkpt>
			<trkpt lat="47.2735855634" lon="8.6412988516">
				<ele>436.1</ele>
			</trkpt>
			<trkpt lat="47.2736525855" lon="8.6413243362">
				<ele>437.9</ele>
			</trkpt>
			<trkpt lat="47.2736794575" lon="8.6412870877">
				<ele>438.2</ele>
			</trkpt>
			<trkpt lat="47.2737210974" lon="8.6412431533">
				<ele>437.7</ele>
			</trkpt>
			<trkpt lat="47.2737627471" lon="8.6412440908">
				<ele>437.2</ele>
			</trkpt>
			<trkpt lat="47.2738573771" lon="8.6412755895">
				<ele>436.6</ele>
			</trkpt>
			<trkpt lat="47.2740135221" lon="8.6413207247">
				<ele>436.6</ele>
			</trkpt>
			<trkpt lat="47.2741198513" lon="8.6413500542">
				<ele>437.7</ele>
			</trkpt>
			<trkpt lat="47.2742398574" lon="8.6413453945">
				<ele>438.0</ele>
			</trkpt>
			<trkpt lat="47.2744498594" lon="8.6413378955">
				<ele>442.3</ele>
			</trkpt>
			<trkpt lat="47.2745031812" lon="8.6413366378">
				<ele>444.3</ele>
			</trkpt>
			<trkpt lat="47.2746029992" lon="8.6413511243">
				<ele>447.7</ele>
			</trkpt>
			<trkpt lat="47.2747178770" lon="8.6413586266">
				<ele>453.0</ele>
			</trkpt>
			<trkpt lat="47.2747867776" lon="8.6413385940">
				<ele>454.3</ele>
			</trkpt>
			<trkpt lat="47.2748186413" lon="8.6413022767">
				<ele>454.7</ele>
			</trkpt>
			<trkpt lat="47.2748637025" lon="8.6412218340">
				<ele>454.1</ele>
			</trkpt>
			<trkpt lat="47.2749130569" lon="8.6411378124">
				<ele>454.1</ele>
			</trkpt>
			<trkpt lat="47.2749576244" lon="8.6410555736">
				<ele>453.3</ele>
			</trkpt>
			<trkpt lat="47.2749601812" lon="8.6409699572">
				<ele>452.4</ele>
			</trkpt>
			<trkpt lat="47.2749708871" lon="8.6409016532">
				<ele>452.3</ele>
			</trkpt>
			<trkpt lat="47.2749914071" lon="8.6408507133">
				<ele>452.6</ele>
			</trkpt>
			<trkpt lat="47.2750124583" lon="8.6407832374">
				<ele>452.2</ele>
			</trkpt>
			<trkpt lat="47.2750314160" lon="8.6407250455">
				<ele>452.2</ele>
			</trkpt>
			<trkpt lat="47.2750411960" lon="8.6406593246">
				<ele>452.2</ele>
			</trkpt>
			<trkpt lat="47.2750403975" lon="8.6405554982">
				<ele>452.7</ele>
			</trkpt>
			<trkpt lat="47.2750482581" lon="8.6405202658">
				<ele>452.9</ele>
			</trkpt>
			<trkpt lat="47.2750663106" lon="8.6404868100">
				<ele>453.1</ele>
			</trkpt>
			<trkpt lat="47.2750854929" lon="8.6404562467">
				<ele>453.3</ele>
			</trkpt>
			<trkpt lat="47.2750942712" lon="8.6404443369">
				<ele>453.4</ele>
			</trkpt>
			<trkpt lat="47.2751297481" lon="8.6404048362">
				<ele>453.4</ele>
			</trkpt>
			<trkpt lat="47.2751694970" lon="8.6403654170">
				<ele>453.5</ele>
			</trkpt>
			<trkpt lat="47.2752118696" lon="8.6403150473">
				<ele>453.9</ele>
			</trkpt>
			<trkpt lat="47.2752441022" lon="8.6402717989">
				<ele>454.6</ele>
			</trkpt>
			<trkpt lat="47.2752722527" lon="8.6402162585">
				<ele>455.5</ele>
			</trkpt>
			<trkpt lat="47.2752887504" lon="8.6401506754">
				<ele>456.5</ele>
			</trkpt>
			<trkpt lat="47.2753077444" lon="8.6400863639">
				<ele>457.5</ele>
			</trkpt>
			<trkpt lat="47.2753334273" lon="8.6400258775">
				<ele>458.8</ele>
			</trkpt>
			<trkpt lat="47.2753534661" lon="8.6400020612">
				<ele>459.2</ele>
			</trkpt>
			<trkpt lat="47.2754002253" lon="8.6399908732">
				<ele>459.0</ele>
			</trkpt>
			<trkpt lat="47.2754267635" lon="8.6399925404">
				<ele>458.5</ele>
			</trkpt>
			<trkpt lat="47.2754671186" lon="8.6399873023">
				<ele>457.7</ele>
			</trkpt>
			<trkpt lat="47.2755025672" lon="8.6399764414">
				<ele>456.8</ele>
			</trkpt>
			<trkpt lat="47.2755201577" lon="8.6399631171">
				<ele>456.4</ele>
			</trkpt>
			<trkpt lat="47.2755328081" lon="8.6399481753">
				<ele>456.1</ele>
			</trkpt>
			<trkpt lat="47.2755409441" lon="8.6399339914">
				<ele>455.9</ele>
			</trkpt>
			<trkpt lat="47.2756044884" lon="8.6397682862">
				<ele>455.7</ele>
			</trkpt>
			<trkpt lat="47.2756069291" lon="8.6397516079">
				<ele>455.7</ele>
			</trkpt>
			<trkpt lat="47.2756194063" lon="8.6395934912">
				<ele>457.4</ele>
			</trkpt>
			<trkpt lat="47.2756199492" lon="8.6395758974">
				<ele>457.5</ele>
			</trkpt>
			<trkpt lat="47.2756611081" lon="8.6395781449">
				<ele>457.5</ele>
			</trkpt>
			<trkpt lat="47.2757127406" lon="8.6395793055">
				<ele>457.5</ele>
			</trkpt>
			<trkpt lat="47.2757779144" lon="8.6395611686">
				<ele>457.5</ele>
			</trkpt>
			<trkpt lat="47.2758332561" lon="8.6395257082">
				<ele>457.5</ele>
			</trkpt>
			<trkpt lat="47.2758922753" lon="8.6394584895">
				<ele>457.7</ele>
			</trkpt>
			<trkpt lat="47.2759594600" lon="8.6394061511">
				<ele>457.9</ele>
			</trkpt>
			<trkpt lat="47.2760448123" lon="8.6393688930">
				<ele>457.8</ele>
			</trkpt>
			<trkpt lat="47.2761336123" lon="8.6393219176">
				<ele>458.1</ele>
			</trkpt>
			<trkpt lat="47.2762191515" lon="8.6392675470">
				<ele>458.2</ele>
			</trkpt>
			<trkpt lat="47.2763600589" lon="8.6391752428">
				<ele>459.1</ele>
			</trkpt>
			<trkpt lat="47.2764776708" lon="8.6390799566">
				<ele>460.0</ele>
			</trkpt>
			<trkpt lat="47.2766069981" lon="8.6389800428">
				<ele>460.3</ele>
			</trkpt>
			<trkpt lat="47.2767364111" lon="8.6388727949">
				<ele>460.7</ele>
			</trkpt>
			<trkpt lat="47.2768020847" lon="8.6388238972">
				<ele>461.1</ele>
			</trkpt>
			<trkpt lat="47.2768561239" lon="8.6387865158">
				<ele>461.0</ele>
			</trkpt>
			<trkpt lat="47.2769138600" lon="8.6387474595">
				<ele>461.1</ele>
			</trkpt>
			<trkpt lat="47.2769437024" lon="8.6387367363">
				<ele>461.2</ele>
			</trkpt>
			<trkpt lat="47.2769697795" lon="8.6387333963">
				<ele>461.4</ele>
			</trkpt>
			<trkpt lat="47.2769924343" lon="8.6387347903">
				<ele>461.7</ele>
			</trkpt>
			<trkpt lat="47.2769967427" lon="8.6387590491">
				<ele>461.8</ele>
			</trkpt>
			<trkpt lat="47.2770076963" lon="8.6388181408">
				<ele>462.2</ele>
			</trkpt>
			<trkpt lat="47.2770117992" lon="8.6388344776">
				<ele>462.3</ele>
			</trkpt>
			<trkpt lat="47.2770355033" lon="8.6388240521">
				<ele>462.3</ele>
			</trkpt>
			<trkpt lat="47.2770659073" lon="8.6388172938">
				<ele>462.3</ele>
			</trkpt>
			<trkpt lat="47.2771068538" lon="8.6388174738">
				<ele>462.6</ele>
			</trkpt>
			<trkpt lat="47.2771717726" lon="8.6388238228">
				<ele>463.2</ele>
			</trkpt>
			<trkpt lat="47.2772214354" lon="8.6388543212">
				<ele>464.6</ele>
			</trkpt>
			<trkpt lat="47.2772791205" lon="8.6389143703">
				<ele>467.3</ele>
			</trkpt>
			<trkpt lat="47.2773324041" lon="8.6389245426">
				<ele>468.8</ele>
			</trkpt>
			<trkpt lat="47.2774036083" lon="8.6389587908">
				<ele>469.2</ele>
			</trkpt>
			<trkpt lat="47.2774664216" lon="8.6390067018">
				<ele>469.4</ele>
			</trkpt>
			<trkpt lat="47.2775321380" lon="8.6390963155">
				<ele>472.3</ele>
			</trkpt>
			<trkpt lat="47.2775826747" lon="8.6392027180">
				<ele>475.7</ele>
			</trkpt>
			<trkpt lat="47.2776066234" lon="8.6393036197">
				<ele>477.2</ele>
			</trkpt>
			<trkpt lat="47.2776266402" lon="8.6394607544">
				<ele>477.5</ele>
			</trkpt>
			<trkpt lat="47.2776337844" lon="8.6395124119">
				<ele>477.8</ele>
			</trkpt>
			<trkpt lat="47.2776457846" lon="8.6396532541">
				<ele>478.6</ele>
			</trkpt>
			<trkpt lat="47.2776798520" lon="8.6397447606">
				<ele>478.6</ele>
			</trkpt>
			<trkpt lat="47.2777432502" lon="8.6398763958">
				<ele>477.9</ele>
			</trkpt>
			<trkpt lat="47.2777880567" lon="8.6400025896">
				<ele>477.7</ele>
			</trkpt>
			<trkpt lat="47.2778049543" lon="8.6400963681">
				<ele>477.9</ele>
			</trkpt>
			<trkpt lat="47.2778103692" lon="8.6402164428">
				<ele>477.7</ele>
			</trkpt>
			<trkpt lat="47.2778291292" lon="8.6403343715">
				<ele>478.2</ele>
			</trkpt>
			<trkpt lat="47.2778561493" lon="8.6404598228">
				<ele>477.8</ele>
			</trkpt>
			<trkpt lat="47.2778967185" lon="8.6405635579">
				<ele>477.7</ele>
			</trkpt>
			<trkpt lat="47.2779373132" lon="8.6406648355">
				<ele>478.2</ele>
			</trkpt>
			<trkpt lat="47.2779595966" lon="8.6407657140">
				<ele>479.2</ele>
			</trkpt>
			<trkpt lat="47.2779713724" lon="8.6408450885">
				<ele>480.8</ele>
			</trkpt>
			<trkpt lat="47.2779771750" lon="8.6409468789">
				<ele>482.2</ele>
			</trkpt>
			<trkpt lat="47.2779839533" lon="8.6410180644">
				<ele>483.4</ele>
			</trkpt>
			<trkpt lat="47.2779924891" lon="8.6410699393">
				<ele>484.5</ele>
			</trkpt>
			<trkpt lat="47.2780033807" lon="8.6411184698">
				<ele>485.0</ele>
			</trkpt>
			<trkpt lat="47.2780032359" lon="8.6411349488">
				<ele>485.2</ele>
			</trkpt>
			<trkpt lat="47.2779976285" lon="8.6411490457">
				<ele>485.5</ele>
			</trkpt>
			<trkpt lat="47.2779781376" lon="8.6411418924">
				<ele>486.2</ele>
			</trkpt>
			<trkpt lat="47.2779553669" lon="8.6411101986">
				<ele>487.1</ele>
			</trkpt>
			<trkpt lat="47.2779185358" lon="8.6410414418">
				<ele>489.0</ele>
			</trkpt>
			<trkpt lat="47.2779077960" lon="8.6410387550">
				<ele>489.6</ele>
			</trkpt>
			<trkpt lat="47.2779014670" lon="8.6410495835">
				<ele>490.0</ele>
			</trkpt>
			<trkpt lat="47.2779062726" lon="8.6410916980">
				<ele>490.3</ele>
			</trkpt>
			<trkpt lat="47.2779174449" lon="8.6411538498">
				<ele>490.8</ele>
			</trkpt>
			<trkpt lat="47.2779196316" lon="8.6412141593">
				<ele>491.7</ele>
			</trkpt>
			<trkpt lat="47.2779255656" lon="8.6412938523">
				<ele>493.3</ele>
			</trkpt>
			<trkpt lat="47.2779487754" lon="8.6413636231">
				<ele>494.1</ele>
			</trkpt>
			<trkpt lat="47.2779809676" lon="8.6414346942">
				<ele>494.8</ele>
			</trkpt>
			<trkpt lat="47.2780190887" lon="8.6414996337">
				<ele>494.6</ele>
			</trkpt>
			<trkpt lat="47.2780623727" lon="8.6415465275">
				<ele>494.7</ele>
			</trkpt>
			<trkpt lat="47.2781736716" lon="8.6416306676">
				<ele>495.1</ele>
			</trkpt>
			<trkpt lat="47.2782103291" lon="8.6416453324">
				<ele>494.5</ele>
			</trkpt>
			<trkpt lat="47.2782558247" lon="8.6416690657">
				<ele>494.6</ele>
			</trkpt>
			<trkpt lat="47.2782798785" lon="8.6416863680">
				<ele>494.6</ele>
			</trkpt>
			<trkpt lat="47.2782945818" lon="8.6417118267">
				<ele>494.7</ele>
			</trkpt>
			<trkpt lat="47.2782999471" lon="8.6417433669">
				<ele>494.7</ele>
			</trkpt>
			<trkpt lat="47.2783171300" lon="8.6418044905">
				<ele>494.9</ele>
			</trkpt>
			<trkpt lat="47.2783336263" lon="8.6418624530">
				<ele>495.6</ele>
			</trkpt>
			<trkpt lat="47.2783580521" lon="8.6419122145">
				<ele>496.5</ele>
			</trkpt>
			<trkpt lat="47.2783861924" lon="8.6419474005">
				<ele>497.5</ele>
			</trkpt>
			<trkpt lat="47.2784042992" lon="8.6419587659">
				<ele>498.1</ele>
			</trkpt>
			<trkpt lat="47.2784173386" lon="8.6419669505">
				<ele>498.6</ele>
			</trkpt>
			<trkpt lat="47.2784430209" lon="8.6419643964">
				<ele>499.3</ele>
			</trkpt>
			<trkpt lat="47.2784640377" lon="8.6419313622">
				<ele>499.9</ele>
			</trkpt>
			<trkpt lat="47.2784838758" lon="8.6418742042">
				<ele>500.3</ele>
			</trkpt>
			<trkpt lat="47.2784901257" lon="8.6418209440">
				<ele>499.6</ele>
			</trkpt>
			<trkpt lat="47.2784983723" lon="8.6417823872">
				<ele>499.6</ele>
			</trkpt>
			<trkpt lat="47.2785185928" lon="8.6417566710">
				<ele>499.4</ele>
			</trkpt>
			<trkpt lat="47.2785400599" lon="8.6417477297">
				<ele>499.3</ele>
			</trkpt>
			<trkpt lat="47.2785677846" lon="8.6417546333">
				<ele>499.6</ele>
			</trkpt>
			<trkpt lat="47.2786045996" lon="8.6417774573">
				<ele>500.7</ele>
			</trkpt>
			<trkpt lat="47.2786363888" lon="8.6418043448">
				<ele>502.2</ele>
			</trkpt>
			<trkpt lat="47.2786617110" lon="8.6418363348">
				<ele>503.0</ele>
			</trkpt>
			<trkpt lat="47.2786776552" lon="8.6418859709">
				<ele>504.3</ele>
			</trkpt>
			<trkpt lat="47.2787055419" lon="8.6419282236">
				<ele>504.4</ele>
			</trkpt>
			<trkpt lat="47.2787501780" lon="8.6419610448">
				<ele>503.6</ele>
			</trkpt>
			<trkpt lat="47.2788097805" lon="8.6419966753">
				<ele>503.8</ele>
			</trkpt>
			<trkpt lat="47.2788726780" lon="8.6420372441">
				<ele>503.9</ele>
			</trkpt>
			<trkpt lat="47.2789171862" lon="8.6420823168">
				<ele>503.9</ele>
			</trkpt>
			<trkpt lat="47.2789699712" lon="8.6421324789">
				<ele>503.9</ele>
			</trkpt>
			<trkpt lat="47.2790465456" lon="8.6421390946">
				<ele>504.4</ele>
			</trkpt>
			<trkpt lat="47.2790768108" lon="8.6421378862">
				<ele>504.6</ele>
			</trkpt>
			<trkpt lat="47.2791248858" lon="8.6421359688">
				<ele>504.9</ele>
			</trkpt>
			<trkpt lat="47.2792336705" lon="8.6420894464">
				<ele>504.7</ele>
			</trkpt>
			<trkpt lat="47.2793273512" lon="8.6420524037">
				<ele>504.1</ele>
			</trkpt>
			<trkpt lat="47.2793762265" lon="8.6419996398">
				<ele>502.6</ele>
			</trkpt>
			<trkpt lat="47.2794167138" lon="8.6419515913">
				<ele>501.1</ele>
			</trkpt>
			<trkpt lat="47.2795039693" lon="8.6418923557">
				<ele>498.7</ele>
			</trkpt>
			<trkpt lat="47.2796397248" lon="8.6418146098">
				<ele>495.9</ele>
			</trkpt>
			<trkpt lat="47.2797087112" lon="8.6417500715">
				<ele>495.8</ele>
			</trkpt>
			<trkpt lat="47.2797443089" lon="8.6416921172">
				<ele>497.4</ele>
			</trkpt>
			<trkpt lat="47.2797633347" lon="8.6416239946">
				<ele>496.9</ele>
			</trkpt>
			<trkpt lat="47.2797521640" lon="8.6415772276">
				<ele>497.5</ele>
			</trkpt>
			<trkpt lat="47.2797395593" lon="8.6415083934">
				<ele>500.0</ele>
			</trkpt>
			<trkpt lat="47.2797553083" lon="8.6414353062">
				<ele>501.7</ele>
			</trkpt>
			<trkpt lat="47.2797774589" lon="8.6413892896">
				<ele>502.6</ele>
			</trkpt>
			<trkpt lat="47.2798210182" lon="8.6413657899">
				<ele>503.0</ele>
			</trkpt>
			<trkpt lat="47.2798727012" lon="8.6413620627">
				<ele>503.4</ele>
			</trkpt>
			<trkpt lat="47.2799090693" lon="8.6413898073">
				<ele>503.6</ele>
			</trkpt>
			<trkpt lat="47.2800014996" lon="8.6414726668">
				<ele>504.1</ele>
			</trkpt>
			<trkpt lat="47.2801056288" lon="8.6415533703">
				<ele>505.3</ele>
			</trkpt>
			<trkpt lat="47.2802543431" lon="8.6416717730">
				<ele>505.9</ele>
			</trkpt>
			<trkpt lat="47.2804061970" lon="8.6418073923">
				<ele>506.8</ele>
			</trkpt>
			<trkpt lat="47.2804837968" lon="8.6418752458">
				<ele>507.1</ele>
			</trkpt>
			<trkpt lat="47.2805379996" lon="8.6419499089">
				<ele>507.6</ele>
			</trkpt>
			<trkpt lat="47.2805837464" lon="8.6420366362">
				<ele>508.0</ele>
			</trkpt>
			<trkpt lat="47.2806724871" lon="8.6419945645">
				<ele>508.8</ele>
			</trkpt>
			<trkpt lat="47.2806953733" lon="8.6420367053">
				<ele>509.0</ele>
			</trkpt>
			<trkpt lat="47.2807110591" lon="8.6421300782">
				<ele>509.6</ele>
			</trkpt>
			<trkpt lat="47.2807118545" lon="8.6422133478">
				<ele>509.9</ele>
			</trkpt>
			<trkpt lat="47.2806947899" lon="8.6422521165">
				<ele>510.3</ele>
			</trkpt>
			<trkpt lat="47.2806793633" lon="8.6422933944">
				<ele>511.8</ele>
			</trkpt>
			<trkpt lat="47.2806822312" lon="8.6423375297">
				<ele>512.7</ele>
			</trkpt>
			<trkpt lat="47.2806965427" lon="8.6424039592">
				<ele>513.0</ele>
			</trkpt>
			<trkpt lat="47.2807119636" lon="8.6425218206">
				<ele>513.5</ele>
			</trkpt>
			<trkpt lat="47.2807617743" lon="8.6426992137">
				<ele>513.9</ele>
			</trkpt>
			<trkpt lat="47.2808022903" lon="8.6428078456">
				<ele>515.2</ele>
			</trkpt>
			<trkpt lat="47.2808167627" lon="8.6428571337">
				<ele>516.3</ele>
			</trkpt>
			<trkpt lat="47.2808382353" lon="8.6428747623">
				<ele>517.1</ele>
			</trkpt>
			<trkpt lat="47.2808496009" lon="8.6429044055">
				<ele>517.3</ele>
			</trkpt>
			<trkpt lat="47.2808475657" lon="8.6429386199">
				<ele>516.9</ele>
			</trkpt>
			<trkpt lat="47.2808349310" lon="8.6430313693">
				<ele>516.5</ele>
			</trkpt>
			<trkpt lat="47.2808342153" lon="8.6430999057">
				<ele>516.6</ele>
			</trkpt>
			<trkpt lat="47.2808392131" lon="8.6431613936">
				<ele>516.8</ele>
			</trkpt>
			<trkpt lat="47.2808517880" lon="8.6432064613">
				<ele>517.1</ele>
			</trkpt>
			<trkpt lat="47.2808684404" lon="8.6432556131">
				<ele>517.4</ele>
			</trkpt>
			<trkpt lat="47.2808948431" lon="8.6432930504">
				<ele>517.9</ele>
			</trkpt>
			<trkpt lat="47.2809276352" lon="8.6433117267">
				<ele>518.1</ele>
			</trkpt>
			<trkpt lat="47.2809620522" lon="8.6433085625">
				<ele>518.7</ele>
			</trkpt>
			<trkpt lat="47.2810116347" lon="8.6433017642">
				<ele>519.2</ele>
			</trkpt>
			<trkpt lat="47.2810473091" lon="8.6433085842">
				<ele>519.7</ele>
			</trkpt>
			<trkpt lat="47.2810711155" lon="8.6433330189">
				<ele>519.5</ele>
			</trkpt>
			<trkpt lat="47.2810944048" lon="8.6433405374">
				<ele>519.1</ele>
			</trkpt>
			<trkpt lat="47.2811233862" lon="8.6433312641">
				<ele>519.2</ele>
			</trkpt>
			<trkpt lat="47.2811648359" lon="8.6433133356">
				<ele>519.6</ele>
			</trkpt>
			<trkpt lat="47.2812287755" lon="8.6433138512">
				<ele>520.1</ele>
			</trkpt>
			<trkpt lat="47.2812692318" lon="8.6433237643">
				<ele>520.7</ele>
			</trkpt>
			<trkpt lat="47.2813048335" lon="8.6433375375">
				<ele>521.8</ele>
			</trkpt>
			<trkpt lat="47.2813252386" lon="8.6433579163">
				<ele>522.4</ele>
			</trkpt>
			<trkpt lat="47.2813237522" lon="8.6434194845">
				<ele>522.3</ele>
			</trkpt>
			<trkpt lat="47.2813191529" lon="8.6434527570">
				<ele>523.0</ele>
			</trkpt>
			<trkpt lat="47.2813133287" lon="8.6435048813">
				<ele>524.2</ele>
			</trkpt>
			<trkpt lat="47.2813125871" lon="8.6435725173">
				<ele>525.5</ele>
			</trkpt>
			<trkpt lat="47.2813108164" lon="8.6436082997">
				<ele>526.5</ele>
			</trkpt>
			<trkpt lat="47.2813132570" lon="8.6436362060">
				<ele>527.3</ele>
			</trkpt>
			<trkpt lat="47.2812973149" lon="8.6437385697">
				<ele>527.1</ele>
			</trkpt>
			<trkpt lat="47.2812559222" lon="8.6437644833">
				<ele>527.1</ele>
			</trkpt>
			<trkpt lat="47.2812653341" lon="8.6438062046">
				<ele>527.1</ele>
			</trkpt>
			<trkpt lat="47.2812823572" lon="8.6438215243">
				<ele>526.8</ele>
			</trkpt>
			<trkpt lat="47.2813174800" lon="8.6438163946">
				<ele>526.5</ele>
			</trkpt>
			<trkpt lat="47.2813527883" lon="8.6437943357">
				<ele>526.1</ele>
			</trkpt>
			<trkpt lat="47.2813832630" lon="8.6437741656">
				<ele>525.9</ele>
			</trkpt>
			<trkpt lat="47.2814277990" lon="8.6437147592">
				<ele>525.4</ele>
			</trkpt>
			<trkpt lat="47.2814871476" lon="8.6436157142">
				<ele>524.8</ele>
			</trkpt>
			<trkpt lat="47.2815178392" lon="8.6435478531">
				<ele>524.6</ele>
			</trkpt>
			<trkpt lat="47.2815531024" lon="8.6435217234">
				<ele>524.7</ele>
			</trkpt>
			<trkpt lat="47.2815965127" lon="8.6435128917">
				<ele>524.7</ele>
			</trkpt>
			<trkpt lat="47.2816879812" lon="8.6435296549">
				<ele>524.6</ele>
			</trkpt>
			<trkpt lat="47.2818392900" lon="8.6435575499">
				<ele>524.8</ele>
			</trkpt>
			<trkpt lat="47.2819772163" lon="8.6435924918">
				<ele>526.5</ele>
			</trkpt>
			<trkpt lat="47.2820321790" lon="8.6435937315">
				<ele>526.8</ele>
			</trkpt>
			<trkpt lat="47.2820994787" lon="8.6435316008">
				<ele>527.2</ele>
			</trkpt>
			<trkpt lat="47.2821483211" lon="8.6434812787">
				<ele>527.7</ele>
			</trkpt>
			<trkpt lat="47.2821905737" lon="8.6434234755">
				<ele>527.9</ele>
			</trkpt>
			<trkpt lat="47.2822392881" lon="8.6433854044">
				<ele>528.4</ele>
			</trkpt>
			<trkpt lat="47.2822860948" lon="8.6433693294">
				<ele>528.9</ele>
			</trkpt>
			<trkpt lat="47.2823327489" lon="8.6433703815">
				<ele>529.1</ele>
			</trkpt>
			<trkpt lat="47.2824035873" lon="8.6434093224">
				<ele>529.5</ele>
			</trkpt>
			<trkpt lat="47.2824580680" lon="8.6434567243">
				<ele>529.8</ele>
			</trkpt>
			<trkpt lat="47.2825216874" lon="8.6435190071">
				<ele>530.3</ele>
			</trkpt>
			<trkpt lat="47.2825674732" lon="8.6435787998">
				<ele>530.7</ele>
			</trkpt>
			<trkpt lat="47.2826123721" lon="8.6436553611">
				<ele>531.4</ele>
			</trkpt>
			<trkpt lat="47.2826536746" lon="8.6437339422">
				<ele>531.7</ele>
			</trkpt>
			<trkpt lat="47.2826850021" lon="8.6438112401">
				<ele>532.2</ele>
			</trkpt>
			<trkpt lat="47.2827001356" lon="8.6438661492">
				<ele>532.4</ele>
			</trkpt>
			<trkpt lat="47.2827147113" lon="8.6439063485">
				<ele>532.5</ele>
			</trkpt>
			<trkpt lat="47.2827379249" lon="8.6439404462">
				<ele>532.5</ele>
			</trkpt>
			<trkpt lat="47.2827653519" lon="8.6439798900">
				<ele>532.5</ele>
			</trkpt>
			<trkpt lat="47.2827873518" lon="8.6440611828">
				<ele>533.4</ele>
			</trkpt>
			<trkpt lat="47.2827979691" lon="8.6441380135">
				<ele>534.2</ele>
			</trkpt>
			<trkpt lat="47.2827958029" lon="8.6442082786">
				<ele>535.0</ele>
			</trkpt>
			<trkpt lat="47.2828074342" lon="8.6442578484">
				<ele>535.7</ele>
			</trkpt>
			<trkpt lat="47.2828249432" lon="8.6442897198">
				<ele>536.2</ele>
			</trkpt>
			<trkpt lat="47.2828566868" lon="8.6443271699">
				<ele>536.5</ele>
			</trkpt>
			<trkpt lat="47.2828870537" lon="8.6443593316">
				<ele>536.9</ele>
			</trkpt>
			<trkpt lat="47.2829153981" lon="8.6443799067">
				<ele>537.2</ele>
			</trkpt>
			<trkpt lat="47.2829367338" lon="8.6443877369">
				<ele>537.5</ele>
			</trkpt>
			<trkpt lat="47.2829574326" lon="8.6443892497">
				<ele>537.7</ele>
			</trkpt>
			<trkpt lat="47.2829780789" lon="8.6443949635">
				<ele>537.9</ele>
			</trkpt>
			<trkpt lat="47.2829956711" lon="8.6444205435">
				<ele>538.5</ele>
			</trkpt>
			<trkpt lat="47.2830108614" lon="8.6444691483">
				<ele>539.5</ele>
			</trkpt>
			<trkpt lat="47.2830307048" lon="8.6445524940">
				<ele>541.6</ele>
			</trkpt>
			<trkpt lat="47.2830383752" lon="8.6446322084">
				<ele>542.9</ele>
			</trkpt>
			<trkpt lat="47.2830662569" lon="8.6446819196">
				<ele>542.4</ele>
			</trkpt>
			<trkpt lat="47.2830987997" lon="8.6447109841">
				<ele>542.0</ele>
			</trkpt>
			<trkpt lat="47.2831314761" lon="8.6447264094">
				<ele>541.8</ele>
			</trkpt>
			<trkpt lat="47.2831627386" lon="8.6447417998">
				<ele>541.7</ele>
			</trkpt>
			<trkpt lat="47.2831989129" lon="8.6447646529">
				<ele>541.7</ele>
			</trkpt>
			<trkpt lat="47.2832279247" lon="8.6447894488">
				<ele>541.9</ele>
			</trkpt>
			<trkpt lat="47.2832483276" lon="8.6448192817">
				<ele>542.3</ele>
			</trkpt>
			<trkpt lat="47.2832678125" lon="8.6448679838">
				<ele>542.8</ele>
			</trkpt>
			<trkpt lat="47.2832920426" lon="8.6449409337">
				<ele>544.0</ele>
			</trkpt>
			<trkpt lat="47.2833065850" lon="8.6449842926">
				<ele>545.0</ele>
			</trkpt>
			<trkpt lat="47.2833241046" lon="8.6450151191">
				<ele>545.8</ele>
			</trkpt>
			<trkpt lat="47.2833481279" lon="8.6450397863">
				<ele>546.3</ele>
			</trkpt>
			<trkpt lat="47.2833708513" lon="8.6450518406">
				<ele>546.5</ele>
			</trkpt>
			<trkpt lat="47.2833972479" lon="8.6450545377">
				<ele>546.6</ele>
			</trkpt>
			<trkpt lat="47.2834184044" lon="8.6450349734">
				<ele>546.4</ele>
			</trkpt>
			<trkpt lat="47.2835460536" lon="8.6448908199">
				<ele>545.4</ele>
			</trkpt>
			<trkpt lat="47.2835959227" lon="8.6449364162">
				<ele>545.8</ele>
			</trkpt>
			<trkpt lat="47.2836703974" lon="8.6449846306">
				<ele>546.5</ele>
			</trkpt>
			<trkpt lat="47.2837268072" lon="8.6450079249">
				<ele>547.2</ele>
			</trkpt>
			<trkpt lat="47.2837965315" lon="8.6450315525">
				<ele>547.6</ele>
			</trkpt>
			<trkpt lat="47.2838564148" lon="8.6450402407">
				<ele>547.6</ele>
			</trkpt>
			<trkpt lat="47.2839181549" lon="8.6450318270">
				<ele>547.7</ele>
			</trkpt>
			<trkpt lat="47.2840328471" lon="8.6450564669">
				<ele>549.1</ele>
			</trkpt>
			<trkpt lat="47.2841259302" lon="8.6451061317">
				<ele>550.6</ele>
			</trkpt>
			<trkpt lat="47.2841468999" lon="8.6451346710">
				<ele>550.7</ele>
			</trkpt>
			<trkpt lat="47.2841719710" lon="8.6451616247">
				<ele>550.8</ele>
			</trkpt>
			<trkpt lat="47.2842014251" lon="8.6451869700">
				<ele>551.1</ele>
			</trkpt>
			<trkpt lat="47.2842265409" lon="8.6452105005">
				<ele>551.8</ele>
			</trkpt>
			<trkpt lat="47.2842925465" lon="8.6452511723">
				<ele>551.9</ele>
			</trkpt>
			<trkpt lat="47.2843736002" lon="8.6452918679">
				<ele>552.3</ele>
			</trkpt>
			<trkpt lat="47.2844255501" lon="8.6453006292">
				<ele>552.8</ele>
			</trkpt>
			<trkpt lat="47.2844745522" lon="8.6453148911">
				<ele>553.4</ele>
			</trkpt>
			<trkpt lat="47.2845082336" lon="8.6453207417">
				<ele>554.1</ele>
			</trkpt>
			<trkpt lat="47.2845808089" lon="8.6453346745">
				<ele>554.3</ele>
			</trkpt>
			<trkpt lat="47.2845970389" lon="8.6453409764">
				<ele>554.5</ele>
			</trkpt>
			<trkpt lat="47.2846150745" lon="8.6453409481">
				<ele>554.6</ele>
			</trkpt>
			<trkpt lat="47.2846344158" lon="8.6453277813">
				<ele>554.9</ele>
			</trkpt>
			<trkpt lat="47.2846535831" lon="8.6453027014">
				<ele>555.2</ele>
			</trkpt>
			<trkpt lat="47.2846785458" lon="8.6452543662">
				<ele>555.4</ele>
			</trkpt>
			<trkpt lat="47.2847060005" lon="8.6451895077">
				<ele>555.5</ele>
			</trkpt>
			<trkpt lat="47.2847451826" lon="8.6451288710">
				<ele>555.7</ele>
			</trkpt>
			<trkpt lat="47.2847873082" lon="8.6450833019">
				<ele>556.0</ele>
			</trkpt>
			<trkpt lat="47.2848257723" lon="8.6450694825">
				<ele>556.5</ele>
			</trkpt>
			<trkpt lat="47.2848656747" lon="8.6450777228">
				<ele>557.4</ele>
			</trkpt>
			<trkpt lat="47.2849604542" lon="8.6450945485">
				<ele>558.5</ele>
			</trkpt>
			<trkpt lat="47.2850287067" lon="8.6451009828">
				<ele>559.6</ele>
			</trkpt>
			<trkpt lat="47.2850802550" lon="8.6451094961">
				<ele>560.5</ele>
			</trkpt>
			<trkpt lat="47.2851286222" lon="8.6451424630">
				<ele>561.6</ele>
			</trkpt>
			<trkpt lat="47.2851463648" lon="8.6451645687">
				<ele>561.8</ele>
			</trkpt>
			<trkpt lat="47.2851553681" lon="8.6451898754">
				<ele>561.9</ele>
			</trkpt>
			<trkpt lat="47.2851568227" lon="8.6452162702">
				<ele>562.1</ele>
			</trkpt>
			<trkpt lat="47.2851858739" lon="8.6452372855">
				<ele>562.6</ele>
			</trkpt>
			<trkpt lat="47.2852227572" lon="8.6452587002">
				<ele>562.6</ele>
			</trkpt>
			<trkpt lat="47.2851921582" lon="8.6453061825">
				<ele>564.9</ele>
			</trkpt>
			<trkpt lat="47.2851800265" lon="8.6452955047">
				<ele>565.0</ele>
			</trkpt>
			<trkpt lat="47.2851893281" lon="8.6452395969">
				<ele>564.8</ele>
			</trkpt>
			<trkpt lat="47.2851947772" lon="8.6451916918">
				<ele>564.7</ele>
			</trkpt>
			<trkpt lat="47.2851953776" lon="8.6451368575">
				<ele>564.6</ele>
			</trkpt>
			<trkpt lat="47.2851925329" lon="8.6450785340">
				<ele>564.8</ele>
			</trkpt>
			<trkpt lat="47.2852192377" lon="8.6450694062">
				<ele>565.4</ele>
			</trkpt>
			<trkpt lat="47.2852393945" lon="8.6450446790">
				<ele>565.9</ele>
			</trkpt>
			<trkpt lat="47.2852487393" lon="8.6450233437">
				<ele>566.2</ele>
			</trkpt>
			<trkpt lat="47.2852393945" lon="8.6450446790">
				<ele>565.9</ele>
			</trkpt>
			<trkpt lat="47.2852192377" lon="8.6450694062">
				<ele>565.4</ele>
			</trkpt>
			<trkpt lat="47.2851925329" lon="8.6450785340">
				<ele>564.8</ele>
			</trkpt>
			<trkpt lat="47.2851953776" lon="8.6451368575">
				<ele>564.6</ele>
			</trkpt>
			<trkpt lat="47.2851947772" lon="8.6451916918">
				<ele>564.7</ele>
			</trkpt>
			<trkpt lat="47.2851893281" lon="8.6452395969">
				<ele>564.8</ele>
			</trkpt>
			<trkpt lat="47.2851800265" lon="8.6452955047">
				<ele>565.0</ele>
			</trkpt>
			<trkpt lat="47.2851921582" lon="8.6453061825">
				<ele>564.9</ele>
			</trkpt>
			<trkpt lat="47.2852227572" lon="8.6452587002">
				<ele>562.6</ele>
			</trkpt>
			<trkpt lat="47.2852700032" lon="8.6452602709">
				<ele>563.0</ele>
			</trkpt>
			<trkpt lat="47.2852986205" lon="8.6452681889">
				<ele>563.3</ele>
			</trkpt>
			<trkpt lat="47.2853440519" lon="8.6452769483">
				<ele>563.7</ele>
			</trkpt>
			<trkpt lat="47.2853848785" lon="8.6452951085">
				<ele>564.2</ele>
			</trkpt>
			<trkpt lat="47.2854374808" lon="8.6453624218">
				<ele>565.2</ele>
			</trkpt>
			<trkpt lat="47.2854997373" lon="8.6454642069">
				<ele>567.3</ele>
			</trkpt>
			<trkpt lat="47.2855770025" lon="8.6455638847">
				<ele>568.6</ele>
			</trkpt>
			<trkpt lat="47.2856245050" lon="8.6456408530">
				<ele>569.6</ele>
			</trkpt>
			<trkpt lat="47.2856603358" lon="8.6457200297">
				<ele>569.5</ele>
			</trkpt>
			<trkpt lat="47.2857127332" lon="8.6458069077">
				<ele>571.6</ele>
			</trkpt>
			<trkpt lat="47.2857830591" lon="8.6459333568">
				<ele>573.4</ele>
			</trkpt>
			<trkpt lat="47.2858187529" lon="8.6460247600">
				<ele>574.9</ele>
			</trkpt>
			<trkpt lat="47.2858299331" lon="8.6461013985">
				<ele>575.5</ele>
			</trkpt>
			<trkpt lat="47.2858410931" lon="8.6461506187">
				<ele>575.7</ele>
			</trkpt>
			<trkpt lat="47.2858431927" lon="8.6462034782">
				<ele>576.5</ele>
			</trkpt>
			<trkpt lat="47.2858583375" lon="8.6462412728">
				<ele>576.8</ele>
			</trkpt>
			<trkpt lat="47.2858832856" lon="8.6462648522">
				<ele>576.9</ele>
			</trkpt>
			<trkpt lat="47.2859526264" lon="8.6462873214">
				<ele>577.6</ele>
			</trkpt>
			<trkpt lat="47.2859906548" lon="8.6463151246">
				<ele>578.1</ele>
			</trkpt>
			<trkpt lat="47.2860232330" lon="8.6463592230">
				<ele>579.5</ele>
			</trkpt>
			<trkpt lat="47.2860635196" lon="8.6464004137">
				<ele>580.3</ele>
			</trkpt>
			<trkpt lat="47.2860860462" lon="8.6464220084">
				<ele>580.8</ele>
			</trkpt>
			<trkpt lat="47.2861049726" lon="8.6464317189">
				<ele>581.0</ele>
			</trkpt>
			<trkpt lat="47.2861371964" lon="8.6464374954">
				<ele>581.2</ele>
			</trkpt>
			<trkpt lat="47.2861737941" lon="8.6464391685">
				<ele>581.5</ele>
			</trkpt>
			<trkpt lat="47.2862045466" lon="8.6464478778">
				<ele>581.6</ele>
			</trkpt>
			<trkpt lat="47.2862214486" lon="8.6464579491">
				<ele>581.9</ele>
			</trkpt>
			<trkpt lat="47.2862451082" lon="8.6464812610">
				<ele>582.3</ele>
			</trkpt>
			<trkpt lat="47.2862703743" lon="8.6465164026">
				<ele>582.6</ele>
			</trkpt>
			<trkpt lat="47.2863093883" lon="8.6465843113">
				<ele>583.2</ele>
			</trkpt>
			<trkpt lat="47.2863534164" lon="8.6466759044">
				<ele>584.5</ele>
			</trkpt>
			<trkpt lat="47.2863851650" lon="8.6467178414">
				<ele>585.1</ele>
			</trkpt>
			<trkpt lat="47.2864178116" lon="8.6467604220">
				<ele>585.3</ele>
			</trkpt>
			<trkpt lat="47.2864517618" lon="8.6468160810">
				<ele>585.2</ele>
			</trkpt>
			<trkpt lat="47.2864895903" lon="8.6468587787">
				<ele>585.2</ele>
			</trkpt>
			<trkpt lat="47.2865294973" lon="8.6468774750">
				<ele>585.3</ele>
			</trkpt>
			<trkpt lat="47.2865799039" lon="8.6468792347">
				<ele>585.3</ele>
			</trkpt>
			<trkpt lat="47.2866371224" lon="8.6468529656">
				<ele>585.5</ele>
			</trkpt>
			<trkpt lat="47.2866934811" lon="8.6468156903">
				<ele>585.6</ele>
			</trkpt>
			<trkpt lat="47.2867578770" lon="8.6467751463">
				<ele>586.1</ele>
			</trkpt>
			<trkpt lat="47.2868033992" lon="8.6467383261">
				<ele>586.4</ele>
			</trkpt>
			<trkpt lat="47.2868270220" lon="8.6467298974">
				<ele>586.6</ele>
			</trkpt>
			<trkpt lat="47.2868632898" lon="8.6467320410">
				<ele>586.9</ele>
			</trkpt>
			<trkpt lat="47.2868928787" lon="8.6467436421">
				<ele>587.5</ele>
			</trkpt>
			<trkpt lat="47.2869209677" lon="8.6467675998">
				<ele>588.1</ele>
			</trkpt>
			<trkpt lat="47.2869498736" lon="8.6468066717">
				<ele>589.0</ele>
			</trkpt>
			<trkpt lat="47.2870182284" lon="8.6469207478">
				<ele>591.2</ele>
			</trkpt>
			<trkpt lat="47.2870973647" lon="8.6470697971">
				<ele>593.0</ele>
			</trkpt>
			<trkpt lat="47.2871579165" lon="8.6471740083">
				<ele>595.2</ele>
			</trkpt>
			<trkpt lat="47.2871825101" lon="8.6472112755">
				<ele>596.1</ele>
			</trkpt>
			<trkpt lat="47.2872223009" lon="8.6472293241">
				<ele>597.2</ele>
			</trkpt>
			<trkpt lat="47.2872864099" lon="8.6472237159">
				<ele>597.7</ele>
			</trkpt>
			<trkpt lat="47.2873269846" lon="8.6472063495">
				<ele>597.9</ele>
			</trkpt>
			<trkpt lat="47.2873587764" lon="8.6471854406">
				<ele>597.9</ele>
			</trkpt>
			<trkpt lat="47.2873872136" lon="8.6471577132">
				<ele>597.7</ele>
			</trkpt>
			<trkpt lat="47.2874137367" lon="8.6471214958">
				<ele>597.2</ele>
			</trkpt>
			<trkpt lat="47.2874302196" lon="8.6470969321">
				<ele>597.1</ele>
			</trkpt>
			<trkpt lat="47.2874826739" lon="8.6470021681">
				<ele>597.3</ele>
			</trkpt>
			<trkpt lat="47.2874944838" lon="8.6469876141">
				<ele>597.3</ele>
			</trkpt>
			<trkpt lat="47.2875073072" lon="8.6469853381">
				<ele>597.4</ele>
			</trkpt>
			<trkpt lat="47.2875292123" lon="8.6469849106">
				<ele>597.7</ele>
			</trkpt>
			<trkpt lat="47.2875501680" lon="8.6469954452">
				<ele>597.9</ele>
			</trkpt>
			<trkpt lat="47.2875877068" lon="8.6470196688">
				<ele>598.7</ele>
			</trkpt>
			<trkpt lat="47.2876358660" lon="8.6470279754">
				<ele>599.6</ele>
			</trkpt>
			<trkpt lat="47.2876724875" lon="8.6470131241">
				<ele>600.3</ele>
			</trkpt>
			<trkpt lat="47.2877020741" lon="8.6470408829">
				<ele>600.0</ele>
			</trkpt>
			<trkpt lat="47.2877219170" lon="8.6470679049">
				<ele>599.8</ele>
			</trkpt>
			<trkpt lat="47.2877480174" lon="8.6471005555">
				<ele>599.8</ele>
			</trkpt>
			<trkpt lat="47.2877557020" lon="8.6471074720">
				<ele>599.8</ele>
			</trkpt>
			<trkpt lat="47.2877666104" lon="8.6471085354">
				<ele>599.9</ele>
			</trkpt>
			<trkpt lat="47.2877845061" lon="8.6471017362">
				<ele>600.0</ele>
			</trkpt>
			<trkpt lat="47.2878171049" lon="8.6470884882">
				<ele>600.3</ele>
			</trkpt>
			<trkpt lat="47.2878441877" lon="8.6470818678">
				<ele>600.6</ele>
			</trkpt>
			<trkpt lat="47.2878668649" lon="8.6470848791">
				<ele>600.8</ele>
			</trkpt>
			<trkpt lat="47.2878903234" lon="8.6470946636">
				<ele>601.1</ele>
			</trkpt>
			<trkpt lat="47.2879263586" lon="8.6471114621">
				<ele>601.6</ele>
			</trkpt>
			<trkpt lat="47.2879678610" lon="8.6471288104">
				<ele>602.0</ele>
			</trkpt>
			<trkpt lat="47.2879984199" lon="8.6471467665">
				<ele>602.4</ele>
			</trkpt>
			<trkpt lat="47.2880132081" lon="8.6471648952">
				<ele>602.8</ele>
			</trkpt>
			<trkpt lat="47.2880592016" lon="8.6472474406">
				<ele>604.4</ele>
			</trkpt>
			<trkpt lat="47.2881019906" lon="8.6473323184">
				<ele>605.1</ele>
			</trkpt>
			<trkpt lat="47.2881335124" lon="8.6474017518">
				<ele>606.0</ele>
			</trkpt>
			<trkpt lat="47.2882113911" lon="8.6474804586">
				<ele>606.4</ele>
			</trkpt>
			<trkpt lat="47.2882593154" lon="8.6475195780">
				<ele>606.8</ele>
			</trkpt>
			<trkpt lat="47.2882861925" lon="8.6475485060">
				<ele>607.2</ele>
			</trkpt>
			<trkpt lat="47.2883149924" lon="8.6475850914">
				<ele>607.3</ele>
			</trkpt>
			<trkpt lat="47.2883467132" lon="8.6476145518">
				<ele>607.5</ele>
			</trkpt>
			<trkpt lat="47.2883806778" lon="8.6476487012">
				<ele>607.5</ele>
			</trkpt>
			<trkpt lat="47.2883932255" lon="8.6476802777">
				<ele>607.7</ele>
			</trkpt>
			<trkpt lat="47.2884051681" lon="8.6477452630">
				<ele>608.0</ele>
			</trkpt>
			<trkpt lat="47.2884059833" lon="8.6478066267">
				<ele>608.4</ele>
			</trkpt>
			<trkpt lat="47.2884068429" lon="8.6478628980">
				<ele>608.8</ele>
			</trkpt>
			<trkpt lat="47.2884105567" lon="8.6479217744">
				<ele>609.0</ele>
			</trkpt>
			<trkpt lat="47.2884214376" lon="8.6479774270">
				<ele>609.1</ele>
			</trkpt>
			<trkpt lat="47.2884488118" lon="8.6480410577">
				<ele>609.3</ele>
			</trkpt>
			<trkpt lat="47.2884751549" lon="8.6480949335">
				<ele>609.7</ele>
			</trkpt>
			<trkpt lat="47.2884932425" lon="8.6481452495">
				<ele>609.9</ele>
			</trkpt>
			<trkpt lat="47.2885234503" lon="8.6482402370">
				<ele>610.4</ele>
			</trkpt>
			<trkpt lat="47.2885326006" lon="8.6482975419">
				<ele>610.7</ele>
			</trkpt>
			<trkpt lat="47.2885365776" lon="8.6483572731">
				<ele>610.9</ele>
			</trkpt>
			<trkpt lat="47.2885448762" lon="8.6484161987">
				<ele>611.2</ele>
			</trkpt>
			<trkpt lat="47.2885552039" lon="8.6484558846">
				<ele>611.4</ele>
			</trkpt>
			<trkpt lat="47.2885780303" lon="8.6485016408">
				<ele>611.7</ele>
			</trkpt>
			<trkpt lat="47.2886048302" lon="8.6485253583">
				<ele>612.1</ele>
			</trkpt>
			<trkpt lat="47.2886366539" lon="8.6485491764">
				<ele>612.4</ele>
			</trkpt>
			<trkpt lat="47.2886614946" lon="8.6485795888">
				<ele>612.7</ele>
			</trkpt>
			<trkpt lat="47.2886780414" lon="8.6486251934">
				<ele>612.8</ele>
			</trkpt>
			<trkpt lat="47.2886895631" lon="8.6486716459">
				<ele>613.2</ele>
			</trkpt>
			<trkpt lat="47.2886871747" lon="8.6487293256">
				<ele>613.7</ele>
			</trkpt>
			<trkpt lat="47.2886718988" lon="8.6488213658">
				<ele>613.9</ele>
			</trkpt>
			<trkpt lat="47.2886600461" lon="8.6488826786">
				<ele>613.9</ele>
			</trkpt>
			<trkpt lat="47.2886476127" lon="8.6489382166">
				<ele>614.0</ele>
			</trkpt>
			<trkpt lat="47.2886490869" lon="8.6489844287">
				<ele>614.2</ele>
			</trkpt>
			<trkpt lat="47.2886492545" lon="8.6490354366">
				<ele>614.2</ele>
			</trkpt>
			<trkpt lat="47.2886551790" lon="8.6490769660">
				<ele>614.4</ele>
			</trkpt>
			<trkpt lat="47.2886229928" lon="8.6491831378">
				<ele>614.8</ele>
			</trkpt>
			<trkpt lat="47.2886433909" lon="8.6492710803">
				<ele>615.2</ele>
			</trkpt>
			<trkpt lat="47.2886541662" lon="8.6493300395">
				<ele>615.6</ele>
			</trkpt>
			<trkpt lat="47.2886681180" lon="8.6494554483">
				<ele>616.4</ele>
			</trkpt>
			<trkpt lat="47.2886824626" lon="8.6495375827">
				<ele>617.0</ele>
			</trkpt>
			<trkpt lat="47.2886891805" lon="8.6496281912">
				<ele>616.6</ele>
			</trkpt>
			<trkpt lat="47.2886898687" lon="8.6497032347">
				<ele>617.8</ele>
			</trkpt>
			<trkpt lat="47.2886891282" lon="8.6497235524">
				<ele>617.8</ele>
			</trkpt>
			<trkpt lat="47.2886887624" lon="8.6497584065">
				<ele>617.6</ele>
			</trkpt>
			<trkpt lat="47.2886762839" lon="8.6498156864">
				<ele>617.4</ele>
			</trkpt>
			<trkpt lat="47.2886593183" lon="8.6498501897">
				<ele>618.1</ele>
			</trkpt>
			<trkpt lat="47.2886352307" lon="8.6498827759">
				<ele>618.8</ele>
			</trkpt>
			<trkpt lat="47.2886148457" lon="8.6499032419">
				<ele>619.1</ele>
			</trkpt>
			<trkpt lat="47.2886026413" lon="8.6499360942">
				<ele>619.4</ele>
			</trkpt>
			<trkpt lat="47.2885808422" lon="8.6499774566">
				<ele>619.6</ele>
			</trkpt>
			<trkpt lat="47.2885544285" lon="8.6500065103">
				<ele>619.8</ele>
			</trkpt>
			<trkpt lat="47.2885115532" lon="8.6500212309">
				<ele>620.5</ele>
			</trkpt>
			<trkpt lat="47.2884851762" lon="8.6500467965">
				<ele>620.9</ele>
			</trkpt>
			<trkpt lat="47.2884669482" lon="8.6501053077">
				<ele>621.4</ele>
			</trkpt>
			<trkpt lat="47.2884519250" lon="8.6501363659">
				<ele>621.7</ele>
			</trkpt>
			<trkpt lat="47.2884018201" lon="8.6503066353">
				<ele>622.2</ele>
			</trkpt>
			<trkpt lat="47.2883569011" lon="8.6504598736">
				<ele>624.3</ele>
			</trkpt>
			<trkpt lat="47.2883142591" lon="8.6505544099">
				<ele>624.4</ele>
			</trkpt>
			<trkpt lat="47.2882820145" lon="8.6506099979">
				<ele>626.6</ele>
			</trkpt>
			<trkpt lat="47.2882728912" lon="8.6506856929">
				<ele>627.6</ele>
			</trkpt>
			<trkpt lat="47.2882623307" lon="8.6507393134">
				<ele>628.2</ele>
			</trkpt>
			<trkpt lat="47.2882418523" lon="8.6507853852">
				<ele>628.7</ele>
			</trkpt>
			<trkpt lat="47.2882297863" lon="8.6508242696">
				<ele>629.1</ele>
			</trkpt>
			<trkpt lat="47.2882291946" lon="8.6508805759">
				<ele>628.3</ele>
			</trkpt>
			<trkpt lat="47.2882379802" lon="8.6509958609">
				<ele>628.1</ele>
			</trkpt>
			<trkpt lat="47.2882437025" lon="8.6510841451">
				<ele>628.4</ele>
			</trkpt>
			<trkpt lat="47.2882342445" lon="8.6511916507">
				<ele>628.6</ele>
			</trkpt>
			<trkpt lat="47.2882017254" lon="8.6512741766">
				<ele>628.5</ele>
			</trkpt>
			<trkpt lat="47.2881794325" lon="8.6513348800">
				<ele>629.0</ele>
			</trkpt>
			<trkpt lat="47.2881670484" lon="8.6514031611">
				<ele>630.2</ele>
			</trkpt>
			<trkpt lat="47.2881397839" lon="8.6514613082">
				<ele>630.9</ele>
			</trkpt>
			<trkpt lat="47.2881025415" lon="8.6515167820">
				<ele>630.8</ele>
			</trkpt>
			<trkpt lat="47.2880703223" lon="8.6515699104">
				<ele>631.3</ele>
			</trkpt>
			<trkpt lat="47.2880563641" lon="8.6516308156">
				<ele>632.0</ele>
			</trkpt>
			<trkpt lat="47.2880519543" lon="8.6517335585">
				<ele>632.5</ele>
			</trkpt>
			<trkpt lat="47.2880505688" lon="8.6517926351">
				<ele>632.9</ele>
			</trkpt>
			<trkpt lat="47.2880510007" lon="8.6518685176">
				<ele>633.4</ele>
			</trkpt>
			<trkpt lat="47.2880451371" lon="8.6519215311">
				<ele>633.8</ele>
			</trkpt>
			<trkpt lat="47.2880361419" lon="8.6519766005">
				<ele>634.2</ele>
			</trkpt>
			<trkpt lat="47.2880313554" lon="8.6520182576">
				<ele>634.4</ele>
			</trkpt>
			<trkpt lat="47.2880322475" lon="8.6520578845">
				<ele>634.8</ele>
			</trkpt>
			<trkpt lat="47.2880353263" lon="8.6521000884">
				<ele>634.9</ele>
			</trkpt>
			<trkpt lat="47.2880426417" lon="8.6521554378">
				<ele>635.1</ele>
			</trkpt>
			<trkpt lat="47.2880439913" lon="8.6521858086">
				<ele>635.3</ele>
			</trkpt>
			<trkpt lat="47.2880405922" lon="8.6522291627">
				<ele>635.5</ele>
			</trkpt>
			<trkpt lat="47.2880313608" lon="8.6522799694">
				<ele>635.8</ele>
			</trkpt>
			<trkpt lat="47.2880057480" lon="8.6523447378">
				<ele>636.1</ele>
			</trkpt>
			<trkpt lat="47.2879936200" lon="8.6524011497">
				<ele>636.5</ele>
			</trkpt>
			<trkpt lat="47.2879816136" lon="8.6525094454">
				<ele>637.2</ele>
			</trkpt>
			<trkpt lat="47.2879816528" lon="8.6526342857">
				<ele>637.7</ele>
			</trkpt>
			<trkpt lat="47.2879810979" lon="8.6526928680">
				<ele>638.2</ele>
			</trkpt>
			<trkpt lat="47.2879740488" lon="8.6527282700">
				<ele>638.4</ele>
			</trkpt>
			<trkpt lat="47.2879583896" lon="8.6527721105">
				<ele>638.8</ele>
			</trkpt>
			<trkpt lat="47.2879537621" lon="8.6528094719">
				<ele>639.1</ele>
			</trkpt>
			<trkpt lat="47.2879618176" lon="8.6528595740">
				<ele>639.5</ele>
			</trkpt>
			<trkpt lat="47.2879773393" lon="8.6528964025">
				<ele>640.0</ele>
			</trkpt>
			<trkpt lat="47.2879885257" lon="8.6529369800">
				<ele>640.6</ele>
			</trkpt>
			<trkpt lat="47.2879834247" lon="8.6529609003">
				<ele>641.0</ele>
			</trkpt>
			<trkpt lat="47.2879628202" lon="8.6530113546">
				<ele>642.1</ele>
			</trkpt>
			<trkpt lat="47.2879509167" lon="8.6530447323">
				<ele>642.3</ele>
			</trkpt>
			<trkpt lat="47.2880404323" lon="8.6531834654">
				<ele>642.7</ele>
			</trkpt>
			<trkpt lat="47.2880882477" lon="8.6532310762">
				<ele>643.0</ele>
			</trkpt>
			<trkpt lat="47.2881562951" lon="8.6532869871">
				<ele>643.5</ele>
			</trkpt>
			<trkpt lat="47.2881434547" lon="8.6533993344">
				<ele>643.9</ele>
			</trkpt>
			<trkpt lat="47.2881240428" lon="8.6535017353">
				<ele>644.3</ele>
			</trkpt>
			<trkpt lat="47.2882137435" lon="8.6536152761">
				<ele>645.1</ele>
			</trkpt>
			<trkpt lat="47.2882792182" lon="8.6537269454">
				<ele>646.6</ele>
			</trkpt>
			<trkpt lat="47.2883130912" lon="8.6538329932">
				<ele>648.0</ele>
			</trkpt>
			<trkpt lat="47.2883350853" lon="8.6539583886">
				<ele>649.1</ele>
			</trkpt>
			<trkpt lat="47.2883387417" lon="8.6540857843">
				<ele>650.6</ele>
			</trkpt>
			<trkpt lat="47.2883284037" lon="8.6542765471">
				<ele>652.8</ele>
			</trkpt>
			<trkpt lat="47.2883236305" lon="8.6544135503">
				<ele>654.0</ele>
			</trkpt>
			<trkpt lat="47.2883294365" lon="8.6544944841">
				<ele>654.7</ele>
			</trkpt>
			<trkpt lat="47.2883480584" lon="8.6546246834">
				<ele>655.9</ele>
			</trkpt>
			<trkpt lat="47.2883927425" lon="8.6548117927">
				<ele>657.8</ele>
			</trkpt>
			<trkpt lat="47.2884637803" lon="8.6550264345">
				<ele>660.6</ele>
			</trkpt>
			<trkpt lat="47.2885372183" lon="8.6551725687">
				<ele>662.9</ele>
			</trkpt>
			<trkpt lat="47.2885990093" lon="8.6553160043">
				<ele>664.9</ele>
			</trkpt>
			<trkpt lat="47.2886735733" lon="8.6555135822">
				<ele>667.7</ele>
			</trkpt>
			<trkpt lat="47.2887495644" lon="8.6557332417">
				<ele>670.6</ele>
			</trkpt>
			<trkpt lat="47.2888098756" lon="8.6558594994">
				<ele>672.5</ele>
			</trkpt>
			<trkpt lat="47.2888425857" lon="8.6559165651">
				<ele>673.3</ele>
			</trkpt>
			<trkpt lat="47.2888739200" lon="8.6559466547">
				<ele>674.0</ele>
			</trkpt>
			<trkpt lat="47.2889435217" lon="8.6559825224">
				<ele>675.1</ele>
			</trkpt>
			<trkpt lat="47.2890365449" lon="8.6560091281">
				<ele>676.2</ele>
			</trkpt>
			<trkpt lat="47.2890978635" lon="8.6560399142">
				<ele>677.0</ele>
			</trkpt>
			<trkpt lat="47.2891738472" lon="8.6561028598">
				<ele>678.1</ele>
			</trkpt>
			<trkpt lat="47.2892762105" lon="8.6561908895">
				<ele>679.5</ele>
			</trkpt>
			<trkpt lat="47.2893704375" lon="8.6562615882">
				<ele>680.9</ele>
			</trkpt>
			<trkpt lat="47.2894198340" lon="8.6563165887">
				<ele>681.8</ele>
			</trkpt>
			<trkpt lat="47.2894557781" lon="8.6563835124">
				<ele>682.7</ele>
			</trkpt>
			<trkpt lat="47.2894862077" lon="8.6564992947">
				<ele>684.3</ele>
			</trkpt>
			<trkpt lat="47.2895141415" lon="8.6566933774">
				<ele>687.1</ele>
			</trkpt>
			<trkpt lat="47.2895258024" lon="8.6568527974">
				<ele>689.2</ele>
			</trkpt>
			<trkpt lat="47.2895229326" lon="8.6571245411">
				<ele>691.7</ele>
			</trkpt>
			<trkpt lat="47.2895170610" lon="8.6573643648">
				<ele>693.7</ele>
			</trkpt>
			<trkpt lat="47.2895175276" lon="8.6576361846">
				<ele>696.2</ele>
			</trkpt>
			<trkpt lat="47.2895071321" lon="8.6578318268">
				<ele>698.0</ele>
			</trkpt>
			<trkpt lat="47.2894848827" lon="8.6580443603">
				<ele>700.0</ele>
			</trkpt>
			<trkpt lat="47.2894717790" lon="8.6581811760">
				<ele>701.6</ele>
			</trkpt>
			<trkpt lat="47.2894694462" lon="8.6582447805">
				<ele>702.3</ele>
			</trkpt>
			<trkpt lat="47.2894739948" lon="8.6582865158">
				<ele>702.8</ele>
			</trkpt>
			<trkpt lat="47.2895050526" lon="8.6583435461">
				<ele>703.8</ele>
			</trkpt>
			<trkpt lat="47.2895560046" lon="8.6584083674">
				<ele>705.4</ele>
			</trkpt>
			<trkpt lat="47.2896173141" lon="8.6584416190">
				<ele>707.0</ele>
			</trkpt>
			<trkpt lat="47.2896855394" lon="8.6584480671">
				<ele>708.8</ele>
			</trkpt>
			<trkpt lat="47.2898138974" lon="8.6584411894">
				<ele>711.7</ele>
			</trkpt>
			<trkpt lat="47.2898604736" lon="8.6584496155">
				<ele>712.7</ele>
			</trkpt>
			<trkpt lat="47.2899069288" lon="8.6584678129">
				<ele>713.5</ele>
			</trkpt>
			<trkpt lat="47.2899283454" lon="8.6584903283">
				<ele>714.1</ele>
			</trkpt>
			<trkpt lat="47.2899362660" lon="8.6585296944">
				<ele>714.5</ele>
			</trkpt>
			<trkpt lat="47.2899322554" lon="8.6585932644">
				<ele>715.2</ele>
			</trkpt>
			<trkpt lat="47.2899117223" lon="8.6586442235">
				<ele>715.7</ele>
			</trkpt>
			<trkpt lat="47.2899011927" lon="8.6586953983">
				<ele>716.4</ele>
			</trkpt>
			<trkpt lat="47.2898862035" lon="8.6588517645">
				<ele>717.5</ele>
			</trkpt>
			<trkpt lat="47.2898742407" lon="8.6590376047">
				<ele>717.5</ele>
			</trkpt>
			<trkpt lat="47.2898617056" lon="8.6591205562">
				<ele>717.7</ele>
			</trkpt>
			<trkpt lat="47.2898611875" lon="8.6591695291">
				<ele>718.1</ele>
			</trkpt>
			<trkpt lat="47.2898803225" lon="8.6592507576">
				<ele>719.0</ele>
			</trkpt>
			<trkpt lat="47.2899021640" lon="8.6593908453">
				<ele>720.5</ele>
			</trkpt>
			<trkpt lat="47.2898212982" lon="8.6594040625">
				<ele>720.3</ele>
			</trkpt>
			<trkpt lat="47.2896960041" lon="8.6594245312">
				<ele>720.0</ele>
			</trkpt>
			<trkpt lat="47.2895391169" lon="8.6594503355">
				<ele>719.9</ele>
			</trkpt>
			<trkpt lat="47.2894354562" lon="8.6594846931">
				<ele>720.0</ele>
			</trkpt>
			<trkpt lat="47.2893600120" lon="8.6595294934">
				<ele>720.0</ele>
			</trkpt>
			<trkpt lat="47.2892777655" lon="8.6595863802">
				<ele>720.0</ele>
			</trkpt>
			<trkpt lat="47.2891432223" lon="8.6597057425">
				<ele>720.0</ele>
			</trkpt>
			<trkpt lat="47.2890656650" lon="8.6597921254">
				<ele>720.2</ele>
			</trkpt>
			<trkpt lat="47.2889727358" lon="8.6599148712">
				<ele>720.5</ele>
			</trkpt>
			<trkpt lat="47.2888336542" lon="8.6601467557">
				<ele>721.2</ele>
			</trkpt>
			<trkpt lat="47.2886891754" lon="8.6604177025">
				<ele>722.1</ele>
			</trkpt>
			<trkpt lat="47.2885801899" lon="8.6606404633">
				<ele>722.8</ele>
			</trkpt>
			<trkpt lat="47.2884950341" lon="8.6608148139">
				<ele>723.1</ele>
			</trkpt>
			<trkpt lat="47.2884435877" lon="8.6609532203">
				<ele>723.6</ele>
			</trkpt>
			<trkpt lat="47.2884873189" lon="8.6610717533">
				<ele>725.0</ele>
			</trkpt>
			<trkpt lat="47.2885176956" lon="8.6611924258">
				<ele>726.6</ele>
			</trkpt>
			<trkpt lat="47.2885332879" lon="8.6612931807">
				<ele>727.9</ele>
			</trkpt>
			<trkpt lat="47.2885329018" lon="8.6614866037">
				<ele>730.2</ele>
			</trkpt>
			<trkpt lat="47.2885240576" lon="8.6616920757">
				<ele>732.9</ele>
			</trkpt>
			<trkpt lat="47.2885111041" lon="8.6618142029">
				<ele>734.5</ele>
			</trkpt>
			<trkpt lat="47.2884791986" lon="8.6619946886">
				<ele>737.2</ele>
			</trkpt>
			<trkpt lat="47.2884360272" lon="8.6621381492">
				<ele>739.5</ele>
			</trkpt>
			<trkpt lat="47.2883757230" lon="8.6623253074">
				<ele>742.5</ele>
			</trkpt>
			<trkpt lat="47.2883256270" lon="8.6624931200">
				<ele>745.0</ele>
			</trkpt>
			<trkpt lat="47.2882526796" lon="8.6627730341">
				<ele>749.9</ele>
			</trkpt>
			<trkpt lat="47.2882083897" lon="8.6630217696">
				<ele>753.2</ele>
			</trkpt>
			<trkpt lat="47.2881615004" lon="8.6633586015">
				<ele>757.0</ele>
			</trkpt>
			<trkpt lat="47.2881552554" lon="8.6634759882">
				<ele>758.4</ele>
			</trkpt>
			<trkpt lat="47.2881592388" lon="8.6635715868">
				<ele>759.7</ele>
			</trkpt>
			<trkpt lat="47.2881878972" lon="8.6636971106">
				<ele>761.6</ele>
			</trkpt>
			<trkpt lat="47.2882350753" lon="8.6638034704">
				<ele>763.5</ele>
			</trkpt>
			<trkpt lat="47.2883085534" lon="8.6639447379">
				<ele>765.7</ele>
			</trkpt>
			<trkpt lat="47.2883805879" lon="8.6640639240">
				<ele>767.1</ele>
			</trkpt>
			<trkpt lat="47.2884347526" lon="8.6641410663">
				<ele>767.9</ele>
			</trkpt>
			<trkpt lat="47.2884727460" lon="8.6641899439">
				<ele>768.3</ele>
			</trkpt>
			<trkpt lat="47.2885427696" lon="8.6643247358">
				<ele>769.2</ele>
			</trkpt>
			<trkpt lat="47.2885918758" lon="8.6644066816">
				<ele>769.6</ele>
			</trkpt>
			<trkpt lat="47.2886792489" lon="8.6644943829">
				<ele>770.2</ele>
			</trkpt>
			<trkpt lat="47.2888144757" lon="8.6646248013">
				<ele>771.4</ele>
			</trkpt>
			<trkpt lat="47.2888834238" lon="8.6647218927">
				<ele>772.3</ele>
			</trkpt>
			<trkpt lat="47.2889290712" lon="8.6648159737">
				<ele>773.1</ele>
			</trkpt>
			<trkpt lat="47.2889629336" lon="8.6649220432">
				<ele>773.7</ele>
			</trkpt>
			<trkpt lat="47.2889883831" lon="8.6650352693">
				<ele>774.2</ele>
			</trkpt>
			<trkpt lat="47.2889980216" lon="8.6651078339">
				<ele>774.3</ele>
			</trkpt>
			<trkpt lat="47.2890243643" lon="8.6650981940">
				<ele>774.6</ele>
			</trkpt>
			<trkpt lat="47.2890480856" lon="8.6650773323">
				<ele>774.9</ele>
			</trkpt>
			<trkpt lat="47.2890767707" lon="8.6650275027">
				<ele>775.6</ele>
			</trkpt>
			<trkpt lat="47.2891494518" lon="8.6649287853">
				<ele>777.0</ele>
			</trkpt>
			<trkpt lat="47.2891728543" lon="8.6649841751">
				<ele>776.8</ele>
			</trkpt>
			<trkpt lat="47.2892079625" lon="8.6650672535">
				<ele>777.6</ele>
			</trkpt>
			<trkpt lat="47.2892725145" lon="8.6652646187">
				<ele>780.6</ele>
			</trkpt>
			<trkpt lat="47.2893301984" lon="8.6654717006">
				<ele>783.3</ele>
			</trkpt>
			<trkpt lat="47.2893912664" lon="8.6656909581">
				<ele>784.8</ele>
			</trkpt>
			<trkpt lat="47.2894655514" lon="8.6659130441">
				<ele>785.7</ele>
			</trkpt>
			<trkpt lat="47.2895466410" lon="8.6661205846">
				<ele>786.4</ele>
			</trkpt>
			<trkpt lat="47.2896244534" lon="8.6663231731">
				<ele>787.3</ele>
			</trkpt>
			<trkpt lat="47.2896710123" lon="8.6664883051">
				<ele>788.0</ele>
			</trkpt>
			<trkpt lat="47.2897572552" lon="8.6668379982">
				<ele>788.8</ele>
			</trkpt>
			<trkpt lat="47.2898420456" lon="8.6671680533">
				<ele>788.2</ele>
			</trkpt>
			<trkpt lat="47.2899410880" lon="8.6675670218">
				<ele>787.2</ele>
			</trkpt>
			<trkpt lat="47.2900450308" lon="8.6679758913">
				<ele>787.0</ele>
			</trkpt>
			<trkpt lat="47.2901075697" lon="8.6682050658">
				<ele>787.1</ele>
			</trkpt>
			<trkpt lat="47.2901687962" lon="8.6683999183">
				<ele>787.5</ele>
			</trkpt>
			<trkpt lat="47.2902238956" lon="8.6685456642">
				<ele>788.0</ele>
			</trkpt>
			<trkpt lat="47.2902691134" lon="8.6686789300">
				<ele>788.5</ele>
			</trkpt>
			<trkpt lat="47.2902881370" lon="8.6687699601">
				<ele>788.7</ele>
			</trkpt>
			<trkpt lat="47.2902970092" lon="8.6688754561">
				<ele>789.0</ele>
			</trkpt>
			<trkpt lat="47.2902970590" lon="8.6690272747">
				<ele>789.6</ele>
			</trkpt>
			<trkpt lat="47.2902874796" lon="8.6691445918">
				<ele>790.0</ele>
			</trkpt>
			<trkpt lat="47.2902676866" lon="8.6692838424">
				<ele>790.5</ele>
			</trkpt>
			<trkpt lat="47.2902124618" lon="8.6694611908">
				<ele>790.8</ele>
			</trkpt>
			<trkpt lat="47.2901056421" lon="8.6697917552">
				<ele>791.5</ele>
			</trkpt>
			<trkpt lat="47.2899816034" lon="8.6701733273">
				<ele>792.4</ele>
			</trkpt>
			<trkpt lat="47.2899125560" lon="8.6703994499">
				<ele>792.5</ele>
			</trkpt>
			<trkpt lat="47.2898742588" lon="8.6705528489">
				<ele>792.7</ele>
			</trkpt>
			<trkpt lat="47.2898645210" lon="8.6706848478">
				<ele>793.1</ele>
			</trkpt>
			<trkpt lat="47.2898715658" lon="8.6708049876">
				<ele>793.7</ele>
			</trkpt>
			<trkpt lat="47.2899423517" lon="8.6708849966">
				<ele>795.1</ele>
			</trkpt>
			<trkpt lat="47.2899995490" lon="8.6709891494">
				<ele>796.9</ele>
			</trkpt>
			<trkpt lat="47.2900875139" lon="8.6711772665">
				<ele>800.9</ele>
			</trkpt>
			<trkpt lat="47.2901823952" lon="8.6713410714">
				<ele>804.7</ele>
			</trkpt>
			<trkpt lat="47.2902400800" lon="8.6713987251">
				<ele>806.5</ele>
			</trkpt>
			<trkpt lat="47.2903424450" lon="8.6714868013">
				<ele>808.8</ele>
			</trkpt>
			<trkpt lat="47.2905009358" lon="8.6716226851">
				<ele>812.2</ele>
			</trkpt>
			<trkpt lat="47.2906298871" lon="8.6717162541">
				<ele>815.0</ele>
			</trkpt>
			<trkpt lat="47.2907603682" lon="8.6718114849">
				<ele>819.2</ele>
			</trkpt>
			<trkpt lat="47.2908045349" lon="8.6717317099">
				<ele>820.1</ele>
			</trkpt>
			<trkpt lat="47.2908641127" lon="8.6716131020">
				<ele>821.0</ele>
			</trkpt>
			<trkpt lat="47.2909508793" lon="8.6714461369">
				<ele>821.9</ele>
			</trkpt>
			<trkpt lat="47.2910323484" lon="8.6713059937">
				<ele>822.5</ele>
			</trkpt>
			<trkpt lat="47.2911391845" lon="8.6711297064">
				<ele>823.2</ele>
			</trkpt>
			<trkpt lat="47.2912223694" lon="8.6709846971">
				<ele>823.8</ele>
			</trkpt>
			<trkpt lat="47.2912651165" lon="8.6708828335">
				<ele>824.2</ele>
			</trkpt>
			<trkpt lat="47.2912995003" lon="8.6707832372">
				<ele>824.6</ele>
			</trkpt>
			<trkpt lat="47.2913824849" lon="8.6705011024">
				<ele>825.4</ele>
			</trkpt>
			<trkpt lat="47.2914390385" lon="8.6703530304">
				<ele>825.7</ele>
			</trkpt>
			<trkpt lat="47.2914935281" lon="8.6702440868">
				<ele>826.0</ele>
			</trkpt>
			<trkpt lat="47.2915595764" lon="8.6701427731">
				<ele>826.4</ele>
			</trkpt>
			<trkpt lat="47.2916270975" lon="8.6700610745">
				<ele>826.6</ele>
			</trkpt>
			<trkpt lat="47.2917027023" lon="8.6700015888">
				<ele>826.8</ele>
			</trkpt>
			<trkpt lat="47.2917966096" lon="8.6699449846">
				<ele>827.0</ele>
			</trkpt>
			<trkpt lat="47.2919254490" lon="8.6698940904">
				<ele>827.3</ele>
			</trkpt>
			<trkpt lat="47.2920543056" lon="8.6698407371">
				<ele>827.7</ele>
			</trkpt>
			<trkpt lat="47.2921647643" lon="8.6697943239">
				<ele>828.1</ele>
			</trkpt>
			<trkpt lat="47.2922704486" lon="8.6697257334">
				<ele>828.4</ele>
			</trkpt>
			<trkpt lat="47.2923544596" lon="8.6696591028">
				<ele>828.6</ele>
			</trkpt>
			<trkpt lat="47.2924369717" lon="8.6695777474">
				<ele>828.9</ele>
			</trkpt>
			<trkpt lat="47.2926189579" lon="8.6693860359">
				<ele>829.4</ele>
			</trkpt>
			<trkpt lat="47.2927654790" lon="8.6692376002">
				<ele>829.9</ele>
			</trkpt>
			<trkpt lat="47.2929289014" lon="8.6690674992">
				<ele>830.5</ele>
			</trkpt>
			<trkpt lat="47.2930651873" lon="8.6689432995">
				<ele>830.6</ele>
			</trkpt>
			<trkpt lat="47.2931745043" lon="8.6688478705">
				<ele>830.5</ele>
			</trkpt>
			<trkpt lat="47.2932600475" lon="8.6687935157">
				<ele>830.4</ele>
			</trkpt>
			<trkpt lat="47.2933336575" lon="8.6687658323">
				<ele>830.3</ele>
			</trkpt>
			<trkpt lat="47.2934321814" lon="8.6687436012">
				<ele>830.1</ele>
			</trkpt>
			<trkpt lat="47.2935874327" lon="8.6687153522">
				<ele>829.7</ele>
			</trkpt>
			<trkpt lat="47.2935896311" lon="8.6689774226">
				<ele>831.3</ele>
			</trkpt>
			<trkpt lat="47.2935937360" lon="8.6692174960">
				<ele>832.7</ele>
			</trkpt>
			<trkpt lat="47.2936049656" lon="8.6694136517">
				<ele>833.7</ele>
			</trkpt>
			<trkpt lat="47.2936056026" lon="8.6695116280">
				<ele>834.1</ele>
			</trkpt>
			<trkpt lat="47.2935946098" lon="8.6696044309">
				<ele>834.5</ele>
			</trkpt>
			<trkpt lat="47.2936887070" lon="8.6695771942">
				<ele>834.6</ele>
			</trkpt>
			<trkpt lat="47.2937708794" lon="8.6695276681">
				<ele>835.3</ele>
			</trkpt>
			<trkpt lat="47.2938968435" lon="8.6694326092">
				<ele>836.5</ele>
			</trkpt>
			<trkpt lat="47.2939723532" lon="8.6693829155">
				<ele>836.7</ele>
			</trkpt>
			<trkpt lat="47.2940509802" lon="8.6693529018">
				<ele>836.7</ele>
			</trkpt>
			<trkpt lat="47.2941529276" lon="8.6693234126">
				<ele>836.1</ele>
			</trkpt>
		</trkseg>
	</trk>
</gpx>
