<?xml version="1.0"?>
<gpx version="1.1" xmlns="http://www.topografix.com/GPX/1/1" xmlns:xsi="http://www.w3.org/2001/XMLSchema-instance" xsi:schemaLocation="http://www.topografix.com/GPX/1/1 http://www.topografix.com/GPX/1/1/gpx.xsd">
	<metadata>
		<name>Zug_Zugerberg</name>
	</metadata>
	<trk type="hiking">
		<trkseg>
			<trkpt lat="47.1727508697" lon="8.5148718862">
				<ele>421.3</ele>
			</trkpt>
			<trkpt lat="47.1725999212" lon="8.5147821732">
				<ele>420.7</ele>
			</trkpt>
			<trkpt lat="47.1724034415" lon="8.5146606051">
				<ele>420.1</ele>
			</trkpt>
			<trkpt lat="47.1723015228" lon="8.5149971198">
				<ele>420.1</ele>
			</trkpt>
			<trkpt lat="47.1722103018" lon="8.5149149481">
				<ele>420.5</ele>
			</trkpt>
			<trkpt lat="47.1721760459" lon="8.5148880740">
				<ele>420.2</ele>
			</trkpt>
			<trkpt lat="47.1721511006" lon="8.5148823481">
				<ele>420.2</ele>
			</trkpt>
			<trkpt lat="47.1721343951" lon="8.5148872364">
				<ele>420.2</ele>
			</trkpt>
			<trkpt lat="47.1720493274" lon="8.5149483572">
				<ele>420.1</ele>
			</trkpt>
			<trkpt lat="47.1719211203" lon="8.5150417606">
				<ele>420.0</ele>
			</trkpt>
			<trkpt lat="47.1716816481" lon="8.5151974977">
				<ele>420.0</ele>
			</trkpt>
			<trkpt lat="47.1715295293" lon="8.5153026207">
				<ele>420.2</ele>
			</trkpt>
			<trkpt lat="47.1713535550" lon="8.5154142816">
				<ele>420.2</ele>
			</trkpt>
			<trkpt lat="47.1712134560" lon="8.5155057018">
				<ele>420.3</ele>
			</trkpt>
			<trkpt lat="47.1711883332" lon="8.5155208941">
				<ele>420.3</ele>
			</trkpt>
			<trkpt lat="47.1711597612" lon="8.5155220607">
				<ele>420.3</ele>
			</trkpt>
			<trkpt lat="47.1711430787" lon="8.5155234794">
				<ele>420.3</ele>
			</trkpt>
			<trkpt lat="47.1711215828" lon="8.5155317656">
				<ele>420.3</ele>
			</trkpt>
			<trkpt lat="47.1710066411" lon="8.5156062401">
				<ele>420.3</ele>
			</trkpt>
			<trkpt lat="47.1709288123" lon="8.5156570302">
				<ele>420.2</ele>
			</trkpt>
			<trkpt lat="47.1709061037" lon="8.5156670472">
				<ele>420.3</ele>
			</trkpt>
			<trkpt lat="47.1708859018" lon="8.5156648863">
				<ele>420.3</ele>
			</trkpt>
			<trkpt lat="47.1708564110" lon="8.5156536473">
				<ele>420.3</ele>
			</trkpt>
			<trkpt lat="47.1708397096" lon="8.5157176977">
				<ele>420.4</ele>
			</trkpt>
			<trkpt lat="47.1708258800" lon="8.5157882171">
				<ele>420.5</ele>
			</trkpt>
			<trkpt lat="47.1707994651" lon="8.5159529324">
				<ele>420.4</ele>
			</trkpt>
			<trkpt lat="47.1707851757" lon="8.5160427680">
				<ele>420.3</ele>
			</trkpt>
			<trkpt lat="47.1707668135" lon="8.5161582704">
				<ele>421.1</ele>
			</trkpt>
			<trkpt lat="47.1706592671" lon="8.5162355030">
				<ele>421.2</ele>
			</trkpt>
			<trkpt lat="47.1705627803" lon="8.5163017587">
				<ele>421.6</ele>
			</trkpt>
			<trkpt lat="47.1705105122" lon="8.5163376551">
				<ele>421.1</ele>
			</trkpt>
			<trkpt lat="47.1704914098" lon="8.5163458451">
				<ele>420.9</ele>
			</trkpt>
			<trkpt lat="47.1703720727" lon="8.5164314269">
				<ele>420.8</ele>
			</trkpt>
			<trkpt lat="47.1702836889" lon="8.5164940199">
				<ele>421.0</ele>
			</trkpt>
			<trkpt lat="47.1702497522" lon="8.5165233724">
				<ele>420.9</ele>
			</trkpt>
			<trkpt lat="47.1702363641" lon="8.5165467155">
				<ele>420.8</ele>
			</trkpt>
			<trkpt lat="47.1702288016" lon="8.5165723118">
				<ele>420.7</ele>
			</trkpt>
			<trkpt lat="47.1702234166" lon="8.5166142171">
				<ele>420.7</ele>
			</trkpt>
			<trkpt lat="47.1701963002" lon="8.5166059941">
				<ele>420.7</ele>
			</trkpt>
			<trkpt lat="47.1701408806" lon="8.5165855525">
				<ele>420.7</ele>
			</trkpt>
			<trkpt lat="47.1700884327" lon="8.5165609109">
				<ele>420.7</ele>
			</trkpt>
			<trkpt lat="47.1700710339" lon="8.5167165841">
				<ele>421.0</ele>
			</trkpt>
			<trkpt lat="47.1700672174" lon="8.5167552762">
				<ele>421.0</ele>
			</trkpt>
			<trkpt lat="47.1700513012" lon="8.5169168767">
				<ele>421.6</ele>
			</trkpt>
			<trkpt lat="47.1700463901" lon="8.5170598880">
				<ele>422.3</ele>
			</trkpt>
			<trkpt lat="47.1700368353" lon="8.5171905638">
				<ele>423.3</ele>
			</trkpt>
			<trkpt lat="47.1700313416" lon="8.5172689935">
				<ele>424.0</ele>
			</trkpt>
			<trkpt lat="47.1700326856" lon="8.5173789550">
				<ele>425.0</ele>
			</trkpt>
			<trkpt lat="47.1700392381" lon="8.5174419034">
				<ele>425.7</ele>
			</trkpt>
			<trkpt lat="47.1700659288" lon="8.5175157308">
				<ele>426.6</ele>
			</trkpt>
			<trkpt lat="47.1701196921" lon="8.5176197712">
				<ele>427.9</ele>
			</trkpt>
			<trkpt lat="47.1702061394" lon="8.5177925376">
				<ele>429.9</ele>
			</trkpt>
			<trkpt lat="47.1702164985" lon="8.5178294045">
				<ele>430.4</ele>
			</trkpt>
			<trkpt lat="47.1702208058" lon="8.5178765968">
				<ele>430.9</ele>
			</trkpt>
			<trkpt lat="47.1702096284" lon="8.5179269863">
				<ele>431.6</ele>
			</trkpt>
			<trkpt lat="47.1701914319" lon="8.5179632637">
				<ele>432.1</ele>
			</trkpt>
			<trkpt lat="47.1701649482" lon="8.5179958926">
				<ele>432.7</ele>
			</trkpt>
			<trkpt lat="47.1701350252" lon="8.5180144816">
				<ele>433.4</ele>
			</trkpt>
			<trkpt lat="47.1700716743" lon="8.5180446126">
				<ele>434.4</ele>
			</trkpt>
			<trkpt lat="47.1699762534" lon="8.5180671178">
				<ele>435.2</ele>
			</trkpt>
			<trkpt lat="47.1699226708" lon="8.5180804768">
				<ele>435.8</ele>
			</trkpt>
			<trkpt lat="47.1698402721" lon="8.5181010202">
				<ele>436.7</ele>
			</trkpt>
			<trkpt lat="47.1697364822" lon="8.5181285929">
				<ele>437.9</ele>
			</trkpt>
			<trkpt lat="47.1696995657" lon="8.5181313441">
				<ele>438.3</ele>
			</trkpt>
			<trkpt lat="47.1696674391" lon="8.5181306961">
				<ele>438.7</ele>
			</trkpt>
			<trkpt lat="47.1696127511" lon="8.5181243566">
				<ele>439.4</ele>
			</trkpt>
			<trkpt lat="47.1695022875" lon="8.5181029354">
				<ele>440.9</ele>
			</trkpt>
			<trkpt lat="47.1693456189" lon="8.5180578944">
				<ele>443.6</ele>
			</trkpt>
			<trkpt lat="47.1692624897" lon="8.5180387663">
				<ele>445.3</ele>
			</trkpt>
			<trkpt lat="47.1692350554" lon="8.5180451909">
				<ele>445.9</ele>
			</trkpt>
			<trkpt lat="47.1692098831" lon="8.5180656168">
				<ele>446.6</ele>
			</trkpt>
			<trkpt lat="47.1691916538" lon="8.5181053894">
				<ele>447.5</ele>
			</trkpt>
			<trkpt lat="47.1691817532" lon="8.5181453163">
				<ele>448.2</ele>
			</trkpt>
			<trkpt lat="47.1691791001" lon="8.5181749423">
				<ele>448.6</ele>
			</trkpt>
			<trkpt lat="47.1691880919" lon="8.5182309604">
				<ele>449.3</ele>
			</trkpt>
			<trkpt lat="47.1692029884" lon="8.5182923348">
				<ele>450.1</ele>
			</trkpt>
			<trkpt lat="47.1692283678" lon="8.5183783501">
				<ele>451.1</ele>
			</trkpt>
			<trkpt lat="47.1692478096" lon="8.5184625051">
				<ele>452.2</ele>
			</trkpt>
			<trkpt lat="47.1692498234" lon="8.5185009575">
				<ele>452.6</ele>
			</trkpt>
			<trkpt lat="47.1692481783" lon="8.5185497703">
				<ele>453.2</ele>
			</trkpt>
			<trkpt lat="47.1692498234" lon="8.5185009575">
				<ele>452.6</ele>
			</trkpt>
			<trkpt lat="47.1692478096" lon="8.5184625051">
				<ele>452.2</ele>
			</trkpt>
			<trkpt lat="47.1692283678" lon="8.5183783501">
				<ele>451.1</ele>
			</trkpt>
			<trkpt lat="47.1692029884" lon="8.5182923348">
				<ele>450.1</ele>
			</trkpt>
			<trkpt lat="47.1691880919" lon="8.5182309604">
				<ele>449.3</ele>
			</trkpt>
			<trkpt lat="47.1691791001" lon="8.5181749423">
				<ele>448.6</ele>
			</trkpt>
			<trkpt lat="47.1691817532" lon="8.5181453163">
				<ele>448.2</ele>
			</trkpt>
			<trkpt lat="47.1691916538" lon="8.5181053894">
				<ele>447.5</ele>
			</trkpt>
			<trkpt lat="47.1692098831" lon="8.5180656168">
				<ele>446.6</ele>
			</trkpt>
			<trkpt lat="47.1692350554" lon="8.5180451909">
				<ele>445.9</ele>
			</trkpt>
			<trkpt lat="47.1692624897" lon="8.5180387663">
				<ele>445.3</ele>
			</trkpt>
			<trkpt lat="47.1693456189" lon="8.5180578944">
				<ele>443.6</ele>
			</trkpt>
			<trkpt lat="47.1695022875" lon="8.5181029354">
				<ele>440.9</ele>
			</trkpt>
			<trkpt lat="47.1696127511" lon="8.5181243566">
				<ele>439.4</ele>
			</trkpt>
			<trkpt lat="47.1696240181" lon="8.5181256626">
				<ele>439.3</ele>
			</trkpt>
			<trkpt lat="47.1696127511" lon="8.5181243566">
				<ele>439.4</ele>
			</trkpt>
			<trkpt lat="47.1695022875" lon="8.5181029354">
				<ele>440.9</ele>
			</trkpt>
			<trkpt lat="47.1693456189" lon="8.5180578944">
				<ele>443.6</ele>
			</trkpt>
			<trkpt lat="47.1692624897" lon="8.5180387663">
				<ele>445.3</ele>
			</trkpt>
			<trkpt lat="47.1692350554" lon="8.5180451909">
				<ele>445.9</ele>
			</trkpt>
			<trkpt lat="47.1692098831" lon="8.5180656168">
				<ele>446.6</ele>
			</trkpt>
			<trkpt lat="47.1691916538" lon="8.5181053894">
				<ele>447.5</ele>
			</trkpt>
			<trkpt lat="47.1691817532" lon="8.5181453163">
				<ele>448.2</ele>
			</trkpt>
			<trkpt lat="47.1691791001" lon="8.5181749423">
				<ele>448.6</ele>
			</trkpt>
			<trkpt lat="47.1691880919" lon="8.5182309604">
				<ele>449.3</ele>
			</trkpt>
			<trkpt lat="47.1692029884" lon="8.5182923348">
				<ele>450.1</ele>
			</trkpt>
			<trkpt lat="47.1692283678" lon="8.5183783501">
				<ele>451.1</ele>
			</trkpt>
			<trkpt lat="47.1692478096" lon="8.5184625051">
				<ele>452.2</ele>
			</trkpt>
			<trkpt lat="47.1692498234" lon="8.5185009575">
				<ele>452.6</ele>
			</trkpt>
			<trkpt lat="47.1692481783" lon="8.5185497703">
				<ele>453.2</ele>
			</trkpt>
			<trkpt lat="47.1692354607" lon="8.5186367714">
				<ele>454.0</ele>
			</trkpt>
			<trkpt lat="47.1692050704" lon="8.5188344701">
				<ele>455.2</ele>
			</trkpt>
			<trkpt lat="47.1692035383" lon="8.5188441558">
				<ele>455.2</ele>
			</trkpt>
			<trkpt lat="47.1691948290" lon="8.5188992155">
				<ele>455.3</ele>
			</trkpt>
			<trkpt lat="47.1691662921" lon="8.5190680632">
				<ele>455.2</ele>
			</trkpt>
			<trkpt lat="47.1691519895" lon="8.5191552961">
				<ele>455.2</ele>
			</trkpt>
			<trkpt lat="47.1691462374" lon="8.5191700592">
				<ele>455.2</ele>
			</trkpt>
			<trkpt lat="47.1691312758" lon="8.5192085247">
				<ele>455.1</ele>
			</trkpt>
			<trkpt lat="47.1691079188" lon="8.5192348841">
				<ele>454.9</ele>
			</trkpt>
			<trkpt lat="47.1690875410" lon="8.5192514097">
				<ele>454.8</ele>
			</trkpt>
			<trkpt lat="47.1690663074" lon="8.5192566264">
				<ele>454.6</ele>
			</trkpt>
			<trkpt lat="47.1690393485" lon="8.5192574934">
				<ele>454.4</ele>
			</trkpt>
			<trkpt lat="47.1689682486" lon="8.5192419435">
				<ele>453.7</ele>
			</trkpt>
			<trkpt lat="47.1688251412" lon="8.5192051673">
				<ele>452.4</ele>
			</trkpt>
			<trkpt lat="47.1686772383" lon="8.5191654710">
				<ele>450.9</ele>
			</trkpt>
			<trkpt lat="47.1685821233" lon="8.5191437911">
				<ele>450.1</ele>
			</trkpt>
			<trkpt lat="47.1685234819" lon="8.5191341384">
				<ele>449.7</ele>
			</trkpt>
			<trkpt lat="47.1684974363" lon="8.5191392588">
				<ele>449.5</ele>
			</trkpt>
			<trkpt lat="47.1684780963" lon="8.5191487477">
				<ele>449.3</ele>
			</trkpt>
			<trkpt lat="47.1684645082" lon="8.5191597648">
				<ele>449.2</ele>
			</trkpt>
			<trkpt lat="47.1684518651" lon="8.5191736366">
				<ele>449.1</ele>
			</trkpt>
			<trkpt lat="47.1684420565" lon="8.5191931981">
				<ele>449.1</ele>
			</trkpt>
			<trkpt lat="47.1684252893" lon="8.5192352149">
				<ele>448.9</ele>
			</trkpt>
			<trkpt lat="47.1684046261" lon="8.5192937074">
				<ele>448.7</ele>
			</trkpt>
			<trkpt lat="47.1683851733" lon="8.5193487689">
				<ele>448.5</ele>
			</trkpt>
			<trkpt lat="47.1683316887" lon="8.5194680797">
				<ele>448.0</ele>
			</trkpt>
			<trkpt lat="47.1682451442" lon="8.5196862072">
				<ele>447.3</ele>
			</trkpt>
			<trkpt lat="47.1681660021" lon="8.5198765726">
				<ele>446.8</ele>
			</trkpt>
			<trkpt lat="47.1681591083" lon="8.5198955806">
				<ele>446.8</ele>
			</trkpt>
			<trkpt lat="47.1681220247" lon="8.5199978296">
				<ele>446.4</ele>
			</trkpt>
			<trkpt lat="47.1680951884" lon="8.5200670921">
				<ele>446.1</ele>
			</trkpt>
			<trkpt lat="47.1680075724" lon="8.5200199460">
				<ele>445.9</ele>
			</trkpt>
			<trkpt lat="47.1679613437" lon="8.5199998194">
				<ele>445.7</ele>
			</trkpt>
			<trkpt lat="47.1679114889" lon="8.5199865973">
				<ele>445.5</ele>
			</trkpt>
			<trkpt lat="47.1678508389" lon="8.5199818771">
				<ele>445.2</ele>
			</trkpt>
			<trkpt lat="47.1677817302" lon="8.5199909542">
				<ele>444.9</ele>
			</trkpt>
			<trkpt lat="47.1677018111" lon="8.5200102725">
				<ele>444.6</ele>
			</trkpt>
			<trkpt lat="47.1676087077" lon="8.5200397977">
				<ele>444.5</ele>
			</trkpt>
			<trkpt lat="47.1675418272" lon="8.5200663844">
				<ele>444.5</ele>
			</trkpt>
			<trkpt lat="47.1674874928" lon="8.5201018237">
				<ele>444.6</ele>
			</trkpt>
			<trkpt lat="47.1674387231" lon="8.5201463060">
				<ele>444.7</ele>
			</trkpt>
			<trkpt lat="47.1673720529" lon="8.5202126654">
				<ele>444.8</ele>
			</trkpt>
			<trkpt lat="47.1673130244" lon="8.5202882538">
				<ele>445.1</ele>
			</trkpt>
			<trkpt lat="47.1672346522" lon="8.5203966124">
				<ele>446.3</ele>
			</trkpt>
			<trkpt lat="47.1671208724" lon="8.5205556840">
				<ele>448.1</ele>
			</trkpt>
			<trkpt lat="47.1670147467" lon="8.5207062963">
				<ele>449.8</ele>
			</trkpt>
			<trkpt lat="47.1669503994" lon="8.5207916166">
				<ele>451.0</ele>
			</trkpt>
			<trkpt lat="47.1669165196" lon="8.5208281679">
				<ele>451.6</ele>
			</trkpt>
			<trkpt lat="47.1668890579" lon="8.5208480575">
				<ele>452.1</ele>
			</trkpt>
			<trkpt lat="47.1668344522" lon="8.5208827123">
				<ele>453.0</ele>
			</trkpt>
			<trkpt lat="47.1668236203" lon="8.5208876111">
				<ele>453.1</ele>
			</trkpt>
			<trkpt lat="47.1667683006" lon="8.5209092326">
				<ele>454.1</ele>
			</trkpt>
			<trkpt lat="47.1666803319" lon="8.5208987219">
				<ele>455.4</ele>
			</trkpt>
			<trkpt lat="47.1665578295" lon="8.5208910216">
				<ele>457.1</ele>
			</trkpt>
			<trkpt lat="47.1664341892" lon="8.5208780484">
				<ele>458.8</ele>
			</trkpt>
			<trkpt lat="47.1663152322" lon="8.5208721474">
				<ele>460.4</ele>
			</trkpt>
			<trkpt lat="47.1662129825" lon="8.5208631153">
				<ele>461.9</ele>
			</trkpt>
			<trkpt lat="47.1661511862" lon="8.5208531341">
				<ele>462.9</ele>
			</trkpt>
			<trkpt lat="47.1661078891" lon="8.5208398470">
				<ele>463.4</ele>
			</trkpt>
			<trkpt lat="47.1660825841" lon="8.5210110703">
				<ele>464.7</ele>
			</trkpt>
			<trkpt lat="47.1660686638" lon="8.5210918296">
				<ele>465.7</ele>
			</trkpt>
			<trkpt lat="47.1660497361" lon="8.5211454728">
				<ele>466.4</ele>
			</trkpt>
			<trkpt lat="47.1660255105" lon="8.5212028748">
				<ele>467.0</ele>
			</trkpt>
			<trkpt lat="47.1659828653" lon="8.5212599034">
				<ele>467.8</ele>
			</trkpt>
			<trkpt lat="47.1659336547" lon="8.5213148604">
				<ele>468.8</ele>
			</trkpt>
			<trkpt lat="47.1659096834" lon="8.5213452407">
				<ele>469.3</ele>
			</trkpt>
			<trkpt lat="47.1658936085" lon="8.5213757936">
				<ele>469.7</ele>
			</trkpt>
			<trkpt lat="47.1658853580" lon="8.5214122818">
				<ele>470.0</ele>
			</trkpt>
			<trkpt lat="47.1658850675" lon="8.5214431540">
				<ele>470.3</ele>
			</trkpt>
			<trkpt lat="47.1658544968" lon="8.5214425612">
				<ele>470.7</ele>
			</trkpt>
			<trkpt lat="47.1658316087" lon="8.5214448024">
				<ele>471.1</ele>
			</trkpt>
			<trkpt lat="47.1658129623" lon="8.5214532365">
				<ele>471.4</ele>
			</trkpt>
			<trkpt lat="47.1657875287" lon="8.5214812653">
				<ele>472.1</ele>
			</trkpt>
			<trkpt lat="47.1657534319" lon="8.5215227178">
				<ele>473.0</ele>
			</trkpt>
			<trkpt lat="47.1656932702" lon="8.5216152945">
				<ele>474.7</ele>
			</trkpt>
			<trkpt lat="47.1656206625" lon="8.5217150989">
				<ele>476.7</ele>
			</trkpt>
			<trkpt lat="47.1655902172" lon="8.5217919741">
				<ele>477.8</ele>
			</trkpt>
			<trkpt lat="47.1655827913" lon="8.5218096566">
				<ele>477.9</ele>
			</trkpt>
			<trkpt lat="47.1655130613" lon="8.5219802427">
				<ele>481.7</ele>
			</trkpt>
			<trkpt lat="47.1654945767" lon="8.5220230790">
				<ele>481.9</ele>
			</trkpt>
			<trkpt lat="47.1654612579" lon="8.5221118202">
				<ele>483.7</ele>
			</trkpt>
			<trkpt lat="47.1654459174" lon="8.5221446021">
				<ele>484.1</ele>
			</trkpt>
			<trkpt lat="47.1654329705" lon="8.5221572531">
				<ele>484.2</ele>
			</trkpt>
			<trkpt lat="47.1654176709" lon="8.5221637235">
				<ele>484.4</ele>
			</trkpt>
			<trkpt lat="47.1653863169" lon="8.5221431460">
				<ele>484.2</ele>
			</trkpt>
			<trkpt lat="47.1653805470" lon="8.5221951161">
				<ele>484.6</ele>
			</trkpt>
			<trkpt lat="47.1653801291" lon="8.5222394917">
				<ele>485.0</ele>
			</trkpt>
			<trkpt lat="47.1653864128" lon="8.5222724360">
				<ele>485.3</ele>
			</trkpt>
			<trkpt lat="47.1654042602" lon="8.5223326127">
				<ele>485.8</ele>
			</trkpt>
			<trkpt lat="47.1653471979" lon="8.5223835313">
				<ele>486.3</ele>
			</trkpt>
			<trkpt lat="47.1653154019" lon="8.5224060633">
				<ele>486.6</ele>
			</trkpt>
			<trkpt lat="47.1653069128" lon="8.5224592582">
				<ele>486.8</ele>
			</trkpt>
			<trkpt lat="47.1652925264" lon="8.5224824309">
				<ele>487.2</ele>
			</trkpt>
			<trkpt lat="47.1651691223" lon="8.5226793248">
				<ele>491.5</ele>
			</trkpt>
			<trkpt lat="47.1651556648" lon="8.5227012764">
				<ele>491.5</ele>
			</trkpt>
			<trkpt lat="47.1651247154" lon="8.5227437550">
				<ele>492.2</ele>
			</trkpt>
			<trkpt lat="47.1650946988" lon="8.5227855650">
				<ele>492.3</ele>
			</trkpt>
			<trkpt lat="47.1650172756" lon="8.5227595169">
				<ele>492.3</ele>
			</trkpt>
			<trkpt lat="47.1649650786" lon="8.5227427628">
				<ele>492.4</ele>
			</trkpt>
			<trkpt lat="47.1649270805" lon="8.5227332617">
				<ele>492.5</ele>
			</trkpt>
			<trkpt lat="47.1648807538" lon="8.5227236047">
				<ele>492.6</ele>
			</trkpt>
			<trkpt lat="47.1648213008" lon="8.5227189051">
				<ele>492.8</ele>
			</trkpt>
			<trkpt lat="47.1647518726" lon="8.5227245961">
				<ele>492.9</ele>
			</trkpt>
			<trkpt lat="47.1646649198" lon="8.5227389921">
				<ele>493.3</ele>
			</trkpt>
			<trkpt lat="47.1645741406" lon="8.5227737811">
				<ele>493.6</ele>
			</trkpt>
			<trkpt lat="47.1644928783" lon="8.5228105307">
				<ele>494.0</ele>
			</trkpt>
			<trkpt lat="47.1643971273" lon="8.5228679191">
				<ele>494.6</ele>
			</trkpt>
			<trkpt lat="47.1642953000" lon="8.5229391372">
				<ele>495.2</ele>
			</trkpt>
			<trkpt lat="47.1642055286" lon="8.5229949059">
				<ele>495.8</ele>
			</trkpt>
			<trkpt lat="47.1641182377" lon="8.5230384962">
				<ele>496.5</ele>
			</trkpt>
			<trkpt lat="47.1640394155" lon="8.5230683036">
				<ele>497.0</ele>
			</trkpt>
			<trkpt lat="47.1639714277" lon="8.5230843889">
				<ele>497.4</ele>
			</trkpt>
			<trkpt lat="47.1638928104" lon="8.5230915145">
				<ele>497.8</ele>
			</trkpt>
			<trkpt lat="47.1638450108" lon="8.5230882775">
				<ele>498.0</ele>
			</trkpt>
			<trkpt lat="47.1638190838" lon="8.5230865253">
				<ele>498.1</ele>
			</trkpt>
			<trkpt lat="47.1637159941" lon="8.5230664201">
				<ele>498.7</ele>
			</trkpt>
			<trkpt lat="47.1637069207" lon="8.5231261963">
				<ele>498.9</ele>
			</trkpt>
			<trkpt lat="47.1637001008" lon="8.5231435079">
				<ele>498.9</ele>
			</trkpt>
			<trkpt lat="47.1636914243" lon="8.5231545026">
				<ele>498.9</ele>
			</trkpt>
			<trkpt lat="47.1636808830" lon="8.5231619658">
				<ele>498.9</ele>
			</trkpt>
			<trkpt lat="47.1636708514" lon="8.5231659438">
				<ele>498.7</ele>
			</trkpt>
			<trkpt lat="47.1636405204" lon="8.5231513749">
				<ele>497.4</ele>
			</trkpt>
			<trkpt lat="47.1636518670" lon="8.5231090286">
				<ele>496.8</ele>
			</trkpt>
			<trkpt lat="47.1636603170" lon="8.5230715037">
				<ele>496.9</ele>
			</trkpt>
			<trkpt lat="47.1636502565" lon="8.5230775919">
				<ele>496.2</ele>
			</trkpt>
			<trkpt lat="47.1635979913" lon="8.5231177101">
				<ele>494.1</ele>
			</trkpt>
			<trkpt lat="47.1635890298" lon="8.5231140862">
				<ele>494.1</ele>
			</trkpt>
			<trkpt lat="47.1635697115" lon="8.5230801945">
				<ele>493.8</ele>
			</trkpt>
			<trkpt lat="47.1635890298" lon="8.5231140862">
				<ele>494.1</ele>
			</trkpt>
			<trkpt lat="47.1635979913" lon="8.5231177101">
				<ele>494.1</ele>
			</trkpt>
			<trkpt lat="47.1636502565" lon="8.5230775919">
				<ele>496.2</ele>
			</trkpt>
			<trkpt lat="47.1636603170" lon="8.5230715037">
				<ele>496.9</ele>
			</trkpt>
			<trkpt lat="47.1636518670" lon="8.5231090286">
				<ele>496.8</ele>
			</trkpt>
			<trkpt lat="47.1636405204" lon="8.5231513749">
				<ele>497.4</ele>
			</trkpt>
			<trkpt lat="47.1636708514" lon="8.5231659438">
				<ele>498.7</ele>
			</trkpt>
			<trkpt lat="47.1636808830" lon="8.5231619658">
				<ele>498.9</ele>
			</trkpt>
			<trkpt lat="47.1636914243" lon="8.5231545026">
				<ele>498.9</ele>
			</trkpt>
			<trkpt lat="47.1637001008" lon="8.5231435079">
				<ele>498.9</ele>
			</trkpt>
			<trkpt lat="47.1637069207" lon="8.5231261963">
				<ele>498.9</ele>
			</trkpt>
			<trkpt lat="47.1637159941" lon="8.5230664201">
				<ele>498.7</ele>
			</trkpt>
			<trkpt lat="47.1636881045" lon="8.5230609879">
				<ele>498.8</ele>
			</trkpt>
			<trkpt lat="47.1636138443" lon="8.5230372325">
				<ele>499.2</ele>
			</trkpt>
			<trkpt lat="47.1635525769" lon="8.5230055098">
				<ele>499.6</ele>
			</trkpt>
			<trkpt lat="47.1634988903" lon="8.5229750098">
				<ele>499.8</ele>
			</trkpt>
			<trkpt lat="47.1634060215" lon="8.5229050574">
				<ele>500.3</ele>
			</trkpt>
			<trkpt lat="47.1633447364" lon="8.5228513495">
				<ele>500.5</ele>
			</trkpt>
			<trkpt lat="47.1633058543" lon="8.5228086848">
				<ele>500.7</ele>
			</trkpt>
			<trkpt lat="47.1632623221" lon="8.5227554542">
				<ele>500.9</ele>
			</trkpt>
			<trkpt lat="47.1632093817" lon="8.5226915743">
				<ele>501.2</ele>
			</trkpt>
			<trkpt lat="47.1631258548" lon="8.5225886662">
				<ele>501.6</ele>
			</trkpt>
			<trkpt lat="47.1630446944" lon="8.5224875757">
				<ele>502.0</ele>
			</trkpt>
			<trkpt lat="47.1629680949" lon="8.5224074938">
				<ele>502.3</ele>
			</trkpt>
			<trkpt lat="47.1628865567" lon="8.5223465310">
				<ele>502.5</ele>
			</trkpt>
			<trkpt lat="47.1628060250" lon="8.5223047658">
				<ele>502.8</ele>
			</trkpt>
			<trkpt lat="47.1627478906" lon="8.5222861265">
				<ele>502.9</ele>
			</trkpt>
			<trkpt lat="47.1626908775" lon="8.5222745119">
				<ele>503.1</ele>
			</trkpt>
			<trkpt lat="47.1626953424" lon="8.5221786498">
				<ele>503.1</ele>
			</trkpt>
			<trkpt lat="47.1627381227" lon="8.5221847404">
				<ele>503.0</ele>
			</trkpt>
			<trkpt lat="47.1627797826" lon="8.5221855837">
				<ele>502.9</ele>
			</trkpt>
			<trkpt lat="47.1628250354" lon="8.5221812752">
				<ele>502.5</ele>
			</trkpt>
			<trkpt lat="47.1628690444" lon="8.5221838953">
				<ele>501.9</ele>
			</trkpt>
			<trkpt lat="47.1629016188" lon="8.5221895265">
				<ele>501.4</ele>
			</trkpt>
			<trkpt lat="47.1629605254" lon="8.5221997142">
				<ele>500.5</ele>
			</trkpt>
			<trkpt lat="47.1630103317" lon="8.5222181591">
				<ele>500.0</ele>
			</trkpt>
			<trkpt lat="47.1630636023" lon="8.5222489137">
				<ele>499.5</ele>
			</trkpt>
			<trkpt lat="47.1631166670" lon="8.5223005817">
				<ele>499.2</ele>
			</trkpt>
			<trkpt lat="47.1631849875" lon="8.5223752586">
				<ele>498.8</ele>
			</trkpt>
			<trkpt lat="47.1632473795" lon="8.5224480478">
				<ele>498.3</ele>
			</trkpt>
			<trkpt lat="47.1633203921" lon="8.5225297852">
				<ele>497.6</ele>
			</trkpt>
			<trkpt lat="47.1633685673" lon="8.5225953234">
				<ele>497.2</ele>
			</trkpt>
			<trkpt lat="47.1634061366" lon="8.5226484332">
				<ele>496.7</ele>
			</trkpt>
			<trkpt lat="47.1634318009" lon="8.5227047974">
				<ele>496.4</ele>
			</trkpt>
			<trkpt lat="47.1634456307" lon="8.5227521761">
				<ele>496.1</ele>
			</trkpt>
			<trkpt lat="47.1634486333" lon="8.5228115768">
				<ele>495.7</ele>
			</trkpt>
			<trkpt lat="47.1634471997" lon="8.5228377158">
				<ele>495.7</ele>
			</trkpt>
			<trkpt lat="47.1634238551" lon="8.5229151272">
				<ele>495.8</ele>
			</trkpt>
			<trkpt lat="47.1634017826" lon="8.5229883171">
				<ele>495.9</ele>
			</trkpt>
			<trkpt lat="47.1633812042" lon="8.5230213343">
				<ele>496.4</ele>
			</trkpt>
			<trkpt lat="47.1633465720" lon="8.5230345886">
				<ele>497.3</ele>
			</trkpt>
			<trkpt lat="47.1633085663" lon="8.5230268407">
				<ele>498.2</ele>
			</trkpt>
			<trkpt lat="47.1632587767" lon="8.5230066419">
				<ele>499.1</ele>
			</trkpt>
			<trkpt lat="47.1631842231" lon="8.5229615140">
				<ele>500.2</ele>
			</trkpt>
			<trkpt lat="47.1630446822" lon="8.5228679570">
				<ele>502.3</ele>
			</trkpt>
			<trkpt lat="47.1628472537" lon="8.5227295850">
				<ele>505.4</ele>
			</trkpt>
			<trkpt lat="47.1627644447" lon="8.5226755723">
				<ele>506.6</ele>
			</trkpt>
			<trkpt lat="47.1627218454" lon="8.5226502823">
				<ele>507.3</ele>
			</trkpt>
			<trkpt lat="47.1626910541" lon="8.5226339514">
				<ele>507.9</ele>
			</trkpt>
			<trkpt lat="47.1626530813" lon="8.5226227091">
				<ele>508.7</ele>
			</trkpt>
			<trkpt lat="47.1626197589" lon="8.5226220343">
				<ele>509.5</ele>
			</trkpt>
			<trkpt lat="47.1625780182" lon="8.5226316622">
				<ele>510.5</ele>
			</trkpt>
			<trkpt lat="47.1625492488" lon="8.5226537647">
				<ele>511.2</ele>
			</trkpt>
			<trkpt lat="47.1625021839" lon="8.5227243494">
				<ele>512.4</ele>
			</trkpt>
			<trkpt lat="47.1624743903" lon="8.5227708671">
				<ele>513.2</ele>
			</trkpt>
			<trkpt lat="47.1624187494" lon="8.5228639979">
				<ele>514.8</ele>
			</trkpt>
			<trkpt lat="47.1623473292" lon="8.5229916613">
				<ele>516.9</ele>
			</trkpt>
			<trkpt lat="47.1623157703" lon="8.5230573222">
				<ele>517.9</ele>
			</trkpt>
			<trkpt lat="47.1623031574" lon="8.5230915789">
				<ele>518.2</ele>
			</trkpt>
			<trkpt lat="47.1622350588" lon="8.5231948820">
				<ele>520.0</ele>
			</trkpt>
			<trkpt lat="47.1621596111" lon="8.5233210783">
				<ele>522.1</ele>
			</trkpt>
			<trkpt lat="47.1620914223" lon="8.5234348504">
				<ele>524.3</ele>
			</trkpt>
			<trkpt lat="47.1620247441" lon="8.5235402809">
				<ele>526.7</ele>
			</trkpt>
			<trkpt lat="47.1619465510" lon="8.5236538626">
				<ele>529.9</ele>
			</trkpt>
			<trkpt lat="47.1618943031" lon="8.5237428346">
				<ele>532.4</ele>
			</trkpt>
			<trkpt lat="47.1618216304" lon="8.5238774576">
				<ele>535.4</ele>
			</trkpt>
			<trkpt lat="47.1617909931" lon="8.5239459246">
				<ele>536.6</ele>
			</trkpt>
			<trkpt lat="47.1617586280" lon="8.5240457642">
				<ele>538.1</ele>
			</trkpt>
			<trkpt lat="47.1617246511" lon="8.5241665202">
				<ele>539.8</ele>
			</trkpt>
			<trkpt lat="47.1617040682" lon="8.5242289119">
				<ele>540.7</ele>
			</trkpt>
			<trkpt lat="47.1616706156" lon="8.5242931483">
				<ele>541.4</ele>
			</trkpt>
			<trkpt lat="47.1616371647" lon="8.5243527397">
				<ele>541.9</ele>
			</trkpt>
			<trkpt lat="47.1616008955" lon="8.5244173585">
				<ele>542.4</ele>
			</trkpt>
			<trkpt lat="47.1615630075" lon="8.5244982422">
				<ele>542.9</ele>
			</trkpt>
			<trkpt lat="47.1615439657" lon="8.5245481068">
				<ele>542.6</ele>
			</trkpt>
			<trkpt lat="47.1615233124" lon="8.5246188686">
				<ele>542.5</ele>
			</trkpt>
			<trkpt lat="47.1614756177" lon="8.5246786232">
				<ele>543.5</ele>
			</trkpt>
			<trkpt lat="47.1614322488" lon="8.5247342731">
				<ele>544.8</ele>
			</trkpt>
			<trkpt lat="47.1614075659" lon="8.5247777441">
				<ele>545.5</ele>
			</trkpt>
			<trkpt lat="47.1613769677" lon="8.5248420249">
				<ele>546.4</ele>
			</trkpt>
			<trkpt lat="47.1613379243" lon="8.5248935828">
				<ele>547.0</ele>
			</trkpt>
			<trkpt lat="47.1612759086" lon="8.5249572258">
				<ele>548.1</ele>
			</trkpt>
			<trkpt lat="47.1612240747" lon="8.5250022450">
				<ele>549.1</ele>
			</trkpt>
			<trkpt lat="47.1611666702" lon="8.5250324809">
				<ele>550.3</ele>
			</trkpt>
			<trkpt lat="47.1610833882" lon="8.5250810412">
				<ele>552.5</ele>
			</trkpt>
			<trkpt lat="47.1610315740" lon="8.5251239611">
				<ele>554.1</ele>
			</trkpt>
			<trkpt lat="47.1609651732" lon="8.5251979857">
				<ele>556.3</ele>
			</trkpt>
			<trkpt lat="47.1608871543" lon="8.5252948033">
				<ele>558.7</ele>
			</trkpt>
			<trkpt lat="47.1608508686" lon="8.5253547882">
				<ele>560.0</ele>
			</trkpt>
			<trkpt lat="47.1608318551" lon="8.5254025595">
				<ele>560.4</ele>
			</trkpt>
			<trkpt lat="47.1607741114" lon="8.5254538077">
				<ele>561.0</ele>
			</trkpt>
			<trkpt lat="47.1607255581" lon="8.5255365206">
				<ele>561.7</ele>
			</trkpt>
			<trkpt lat="47.1606962835" lon="8.5256159414">
				<ele>562.5</ele>
			</trkpt>
			<trkpt lat="47.1606592344" lon="8.5257297475">
				<ele>563.7</ele>
			</trkpt>
			<trkpt lat="47.1606283002" lon="8.5258527643">
				<ele>565.2</ele>
			</trkpt>
			<trkpt lat="47.1606085985" lon="8.5259705481">
				<ele>566.8</ele>
			</trkpt>
			<trkpt lat="47.1605937894" lon="8.5260920891">
				<ele>568.7</ele>
			</trkpt>
			<trkpt lat="47.1605819991" lon="8.5261591265">
				<ele>569.8</ele>
			</trkpt>
			<trkpt lat="47.1605642141" lon="8.5262042111">
				<ele>570.7</ele>
			</trkpt>
			<trkpt lat="47.1605416981" lon="8.5262237751">
				<ele>571.3</ele>
			</trkpt>
			<trkpt lat="47.1605131189" lon="8.5262286425">
				<ele>572.0</ele>
			</trkpt>
			<trkpt lat="47.1604735142" lon="8.5262205544">
				<ele>573.0</ele>
			</trkpt>
			<trkpt lat="47.1604007373" lon="8.5261790780">
				<ele>574.9</ele>
			</trkpt>
			<trkpt lat="47.1602700790" lon="8.5260927768">
				<ele>578.4</ele>
			</trkpt>
			<trkpt lat="47.1601406593" lon="8.5260083237">
				<ele>581.8</ele>
			</trkpt>
			<trkpt lat="47.1600383140" lon="8.5259462388">
				<ele>583.7</ele>
			</trkpt>
			<trkpt lat="47.1599174258" lon="8.5258765071">
				<ele>586.3</ele>
			</trkpt>
			<trkpt lat="47.1598483985" lon="8.5258314629">
				<ele>588.1</ele>
			</trkpt>
			<trkpt lat="47.1597906114" lon="8.5257775734">
				<ele>589.9</ele>
			</trkpt>
			<trkpt lat="47.1597354820" lon="8.5257055265">
				<ele>591.8</ele>
			</trkpt>
			<trkpt lat="47.1596622393" lon="8.5255822187">
				<ele>594.5</ele>
			</trkpt>
			<trkpt lat="47.1595596426" lon="8.5254146605">
				<ele>598.0</ele>
			</trkpt>
			<trkpt lat="47.1594850665" lon="8.5253004194">
				<ele>600.2</ele>
			</trkpt>
			<trkpt lat="47.1594091317" lon="8.5251988693">
				<ele>601.8</ele>
			</trkpt>
			<trkpt lat="47.1593563757" lon="8.5251377934">
				<ele>602.9</ele>
			</trkpt>
			<trkpt lat="47.1593087336" lon="8.5251100824">
				<ele>603.8</ele>
			</trkpt>
			<trkpt lat="47.1592624398" lon="8.5250986719">
				<ele>604.8</ele>
			</trkpt>
			<trkpt lat="47.1591958843" lon="8.5250886017">
				<ele>606.2</ele>
			</trkpt>
			<trkpt lat="47.1591161849" lon="8.5250852261">
				<ele>607.5</ele>
			</trkpt>
			<trkpt lat="47.1590600657" lon="8.5251263312">
				<ele>608.8</ele>
			</trkpt>
			<trkpt lat="47.1590014976" lon="8.5251560463">
				<ele>610.4</ele>
			</trkpt>
			<trkpt lat="47.1589317317" lon="8.5251891789">
				<ele>612.4</ele>
			</trkpt>
			<trkpt lat="47.1588905534" lon="8.5252156214">
				<ele>613.4</ele>
			</trkpt>
			<trkpt lat="47.1588042157" lon="8.5252975067">
				<ele>616.0</ele>
			</trkpt>
			<trkpt lat="47.1587141705" lon="8.5253756909">
				<ele>618.6</ele>
			</trkpt>
			<trkpt lat="47.1586391417" lon="8.5254414423">
				<ele>620.9</ele>
			</trkpt>
			<trkpt lat="47.1585816143" lon="8.5254911793">
				<ele>622.6</ele>
			</trkpt>
			<trkpt lat="47.1585389400" lon="8.5255448627">
				<ele>624.1</ele>
			</trkpt>
			<trkpt lat="47.1585072745" lon="8.5256151196">
				<ele>625.8</ele>
			</trkpt>
			<trkpt lat="47.1585067077" lon="8.5256751122">
				<ele>626.8</ele>
			</trkpt>
			<trkpt lat="47.1585222235" lon="8.5257390891">
				<ele>628.1</ele>
			</trkpt>
			<trkpt lat="47.1585462288" lon="8.5258250107">
				<ele>630.1</ele>
			</trkpt>
			<trkpt lat="47.1585906170" lon="8.5259822979">
				<ele>633.6</ele>
			</trkpt>
			<trkpt lat="47.1586229213" lon="8.5261065945">
				<ele>636.2</ele>
			</trkpt>
			<trkpt lat="47.1586392462" lon="8.5262178419">
				<ele>638.2</ele>
			</trkpt>
			<trkpt lat="47.1586435385" lon="8.5262888420">
				<ele>639.5</ele>
			</trkpt>
			<trkpt lat="47.1586365725" lon="8.5263687126">
				<ele>641.0</ele>
			</trkpt>
			<trkpt lat="47.1586199312" lon="8.5264229114">
				<ele>642.3</ele>
			</trkpt>
			<trkpt lat="47.1585909571" lon="8.5264714053">
				<ele>643.3</ele>
			</trkpt>
			<trkpt lat="47.1585522035" lon="8.5265033695">
				<ele>644.3</ele>
			</trkpt>
			<trkpt lat="47.1585086686" lon="8.5265170125">
				<ele>645.3</ele>
			</trkpt>
			<trkpt lat="47.1583760588" lon="8.5265070537">
				<ele>648.9</ele>
			</trkpt>
			<trkpt lat="47.1582397167" lon="8.5264988221">
				<ele>652.5</ele>
			</trkpt>
			<trkpt lat="47.1581802448" lon="8.5264921527">
				<ele>654.0</ele>
			</trkpt>
			<trkpt lat="47.1581119660" lon="8.5264980483">
				<ele>655.6</ele>
			</trkpt>
			<trkpt lat="47.1580633912" lon="8.5265206942">
				<ele>656.8</ele>
			</trkpt>
			<trkpt lat="47.1579498664" lon="8.5265911151">
				<ele>660.0</ele>
			</trkpt>
			<trkpt lat="47.1578687221" lon="8.5266476405">
				<ele>662.3</ele>
			</trkpt>
			<trkpt lat="47.1578223314" lon="8.5266994371">
				<ele>664.1</ele>
			</trkpt>
			<trkpt lat="47.1577795277" lon="8.5267676630">
				<ele>665.8</ele>
			</trkpt>
			<trkpt lat="47.1577466313" lon="8.5268360966">
				<ele>667.5</ele>
			</trkpt>
			<trkpt lat="47.1577337137" lon="8.5268903701">
				<ele>668.6</ele>
			</trkpt>
			<trkpt lat="47.1577343503" lon="8.5269540246">
				<ele>670.0</ele>
			</trkpt>
			<trkpt lat="47.1577535896" lon="8.5270180509">
				<ele>671.4</ele>
			</trkpt>
			<trkpt lat="47.1577816097" lon="8.5270713601">
				<ele>672.9</ele>
			</trkpt>
			<trkpt lat="47.1578381232" lon="8.5271288742">
				<ele>675.0</ele>
			</trkpt>
			<trkpt lat="47.1579403133" lon="8.5272073120">
				<ele>678.3</ele>
			</trkpt>
			<trkpt lat="47.1580398804" lon="8.5273020596">
				<ele>680.5</ele>
			</trkpt>
			<trkpt lat="47.1580963161" lon="8.5273668558">
				<ele>682.3</ele>
			</trkpt>
			<trkpt lat="47.1581316206" lon="8.5274366702">
				<ele>683.2</ele>
			</trkpt>
			<trkpt lat="47.1581789142" lon="8.5275503501">
				<ele>684.2</ele>
			</trkpt>
			<trkpt lat="47.1582185271" lon="8.5276893552">
				<ele>685.1</ele>
			</trkpt>
			<trkpt lat="47.1582349622" lon="8.5277878735">
				<ele>686.2</ele>
			</trkpt>
			<trkpt lat="47.1582482832" lon="8.5279517867">
				<ele>687.9</ele>
			</trkpt>
			<trkpt lat="47.1582527433" lon="8.5280476337">
				<ele>688.8</ele>
			</trkpt>
			<trkpt lat="47.1582090886" lon="8.5280309871">
				<ele>690.1</ele>
			</trkpt>
			<trkpt lat="47.1581327165" lon="8.5279767064">
				<ele>692.4</ele>
			</trkpt>
			<trkpt lat="47.1580354687" lon="8.5278983548">
				<ele>695.5</ele>
			</trkpt>
			<trkpt lat="47.1579862714" lon="8.5278555472">
				<ele>697.3</ele>
			</trkpt>
			<trkpt lat="47.1579615610" lon="8.5278459446">
				<ele>697.5</ele>
			</trkpt>
			<trkpt lat="47.1579342046" lon="8.5278526545">
				<ele>697.7</ele>
			</trkpt>
			<trkpt lat="47.1579016861" lon="8.5278810991">
				<ele>698.0</ele>
			</trkpt>
			<trkpt lat="47.1578513359" lon="8.5279600736">
				<ele>699.1</ele>
			</trkpt>
			<trkpt lat="47.1578272037" lon="8.5280195885">
				<ele>699.9</ele>
			</trkpt>
			<trkpt lat="47.1577989442" lon="8.5281226589">
				<ele>701.7</ele>
			</trkpt>
			<trkpt lat="47.1577908690" lon="8.5281897671">
				<ele>703.0</ele>
			</trkpt>
			<trkpt lat="47.1577927746" lon="8.5282497985">
				<ele>704.6</ele>
			</trkpt>
			<trkpt lat="47.1578177968" lon="8.5283594000">
				<ele>708.0</ele>
			</trkpt>
			<trkpt lat="47.1578332681" lon="8.5284269875">
				<ele>710.4</ele>
			</trkpt>
			<trkpt lat="47.1578601258" lon="8.5284729906">
				<ele>710.8</ele>
			</trkpt>
			<trkpt lat="47.1578904844" lon="8.5285408823">
				<ele>710.7</ele>
			</trkpt>
			<trkpt lat="47.1579124234" lon="8.5285813442">
				<ele>711.3</ele>
			</trkpt>
			<trkpt lat="47.1579381556" lon="8.5286145874">
				<ele>711.8</ele>
			</trkpt>
			<trkpt lat="47.1579562674" lon="8.5286658606">
				<ele>712.6</ele>
			</trkpt>
			<trkpt lat="47.1579836495" lon="8.5287864317">
				<ele>713.8</ele>
			</trkpt>
			<trkpt lat="47.1580202847" lon="8.5289780907">
				<ele>716.4</ele>
			</trkpt>
			<trkpt lat="47.1580533506" lon="8.5291533079">
				<ele>719.0</ele>
			</trkpt>
			<trkpt lat="47.1580724507" lon="8.5292318923">
				<ele>720.2</ele>
			</trkpt>
			<trkpt lat="47.1581002115" lon="8.5293124564">
				<ele>721.6</ele>
			</trkpt>
			<trkpt lat="47.1581304834" lon="8.5293894462">
				<ele>723.1</ele>
			</trkpt>
			<trkpt lat="47.1581558449" lon="8.5294626848">
				<ele>724.5</ele>
			</trkpt>
			<trkpt lat="47.1581749016" lon="8.5295449006">
				<ele>725.8</ele>
			</trkpt>
			<trkpt lat="47.1581865622" lon="8.5296233209">
				<ele>726.9</ele>
			</trkpt>
			<trkpt lat="47.1581866975" lon="8.5297396864">
				<ele>728.1</ele>
			</trkpt>
			<trkpt lat="47.1581651094" lon="8.5297938023">
				<ele>729.0</ele>
			</trkpt>
			<trkpt lat="47.1581302857" lon="8.5298021915">
				<ele>730.5</ele>
			</trkpt>
			<trkpt lat="47.1580931064" lon="8.5297996048">
				<ele>731.7</ele>
			</trkpt>
			<trkpt lat="47.1580574501" lon="8.5297679617">
				<ele>733.1</ele>
			</trkpt>
			<trkpt lat="47.1580132534" lon="8.5297197947">
				<ele>734.1</ele>
			</trkpt>
			<trkpt lat="47.1579516152" lon="8.5296803455">
				<ele>735.0</ele>
			</trkpt>
			<trkpt lat="47.1578725608" lon="8.5296460150">
				<ele>736.0</ele>
			</trkpt>
			<trkpt lat="47.1577763493" lon="8.5295913275">
				<ele>737.4</ele>
			</trkpt>
			<trkpt lat="47.1576931380" lon="8.5295451218">
				<ele>738.8</ele>
			</trkpt>
			<trkpt lat="47.1576384745" lon="8.5295140578">
				<ele>739.6</ele>
			</trkpt>
			<trkpt lat="47.1575694882" lon="8.5295346629">
				<ele>740.7</ele>
			</trkpt>
			<trkpt lat="47.1574804049" lon="8.5295991044">
				<ele>740.5</ele>
			</trkpt>
			<trkpt lat="47.1575694882" lon="8.5295346629">
				<ele>740.7</ele>
			</trkpt>
			<trkpt lat="47.1576384745" lon="8.5295140578">
				<ele>739.6</ele>
			</trkpt>
			<trkpt lat="47.1576931380" lon="8.5295451218">
				<ele>738.8</ele>
			</trkpt>
			<trkpt lat="47.1576745976" lon="8.5295965368">
				<ele>740.3</ele>
			</trkpt>
			<trkpt lat="47.1576667618" lon="8.5296381952">
				<ele>741.1</ele>
			</trkpt>
			<trkpt lat="47.1576611617" lon="8.5297053416">
				<ele>741.9</ele>
			</trkpt>
			<trkpt lat="47.1576606617" lon="8.5297580644">
				<ele>742.5</ele>
			</trkpt>
			<trkpt lat="47.1576451193" lon="8.5298286657">
				<ele>743.2</ele>
			</trkpt>
			<trkpt lat="47.1576260596" lon="8.5298755430">
				<ele>744.2</ele>
			</trkpt>
			<trkpt lat="47.1575922076" lon="8.5299148615">
				<ele>745.6</ele>
			</trkpt>
			<trkpt lat="47.1575531086" lon="8.5299831471">
				<ele>747.4</ele>
			</trkpt>
			<trkpt lat="47.1575136645" lon="8.5300878087">
				<ele>749.5</ele>
			</trkpt>
			<trkpt lat="47.1574955157" lon="8.5301710745">
				<ele>751.0</ele>
			</trkpt>
			<trkpt lat="47.1574770908" lon="8.5302834282">
				<ele>753.0</ele>
			</trkpt>
			<trkpt lat="47.1574525425" lon="8.5303865579">
				<ele>755.1</ele>
			</trkpt>
			<trkpt lat="47.1574106730" lon="8.5304857089">
				<ele>757.4</ele>
			</trkpt>
			<trkpt lat="47.1573364570" lon="8.5305969435">
				<ele>759.7</ele>
			</trkpt>
			<trkpt lat="47.1572788750" lon="8.5306855091">
				<ele>760.1</ele>
			</trkpt>
			<trkpt lat="47.1572202837" lon="8.5307175091">
				<ele>760.9</ele>
			</trkpt>
			<trkpt lat="47.1571765950" lon="8.5307741349">
				<ele>761.3</ele>
			</trkpt>
			<trkpt lat="47.1571326702" lon="8.5308537767">
				<ele>762.9</ele>
			</trkpt>
			<trkpt lat="47.1570650789" lon="8.5309472953">
				<ele>764.7</ele>
			</trkpt>
			<trkpt lat="47.1569998821" lon="8.5309977250">
				<ele>765.9</ele>
			</trkpt>
			<trkpt lat="47.1569504909" lon="8.5310340979">
				<ele>766.7</ele>
			</trkpt>
			<trkpt lat="47.1569111287" lon="8.5310476803">
				<ele>767.2</ele>
			</trkpt>
			<trkpt lat="47.1568209169" lon="8.5310458393">
				<ele>767.9</ele>
			</trkpt>
			<trkpt lat="47.1567638823" lon="8.5310619137">
				<ele>768.6</ele>
			</trkpt>
			<trkpt lat="47.1566752838" lon="8.5310946271">
				<ele>770.2</ele>
			</trkpt>
			<trkpt lat="47.1563665262" lon="8.5311774787">
				<ele>774.5</ele>
			</trkpt>
			<trkpt lat="47.1563329485" lon="8.5312026667">
				<ele>775.2</ele>
			</trkpt>
			<trkpt lat="47.1562596359" lon="8.5312788222">
				<ele>777.7</ele>
			</trkpt>
			<trkpt lat="47.1562177417" lon="8.5313527405">
				<ele>779.8</ele>
			</trkpt>
			<trkpt lat="47.1562011450" lon="8.5314472980">
				<ele>781.7</ele>
			</trkpt>
			<trkpt lat="47.1561903873" lon="8.5315477120">
				<ele>783.4</ele>
			</trkpt>
			<trkpt lat="47.1561678783" lon="8.5316450399">
				<ele>785.2</ele>
			</trkpt>
			<trkpt lat="47.1561357489" lon="8.5317248946">
				<ele>786.4</ele>
			</trkpt>
			<trkpt lat="47.1560815756" lon="8.5318503272">
				<ele>788.1</ele>
			</trkpt>
			<trkpt lat="47.1559895967" lon="8.5320353687">
				<ele>791.4</ele>
			</trkpt>
			<trkpt lat="47.1559456436" lon="8.5321178855">
				<ele>793.0</ele>
			</trkpt>
			<trkpt lat="47.1559194903" lon="8.5321863611">
				<ele>794.5</ele>
			</trkpt>
			<trkpt lat="47.1559000995" lon="8.5322624250">
				<ele>796.3</ele>
			</trkpt>
			<trkpt lat="47.1558372691" lon="8.5323623347">
				<ele>798.2</ele>
			</trkpt>
			<trkpt lat="47.1557804680" lon="8.5324536292">
				<ele>800.3</ele>
			</trkpt>
			<trkpt lat="47.1557515988" lon="8.5324861951">
				<ele>800.9</ele>
			</trkpt>
			<trkpt lat="47.1556917037" lon="8.5325268393">
				<ele>801.7</ele>
			</trkpt>
			<trkpt lat="47.1556067795" lon="8.5325722006">
				<ele>803.3</ele>
			</trkpt>
			<trkpt lat="47.1555289053" lon="8.5326281825">
				<ele>804.3</ele>
			</trkpt>
			<trkpt lat="47.1554519416" lon="8.5327103519">
				<ele>805.2</ele>
			</trkpt>
			<trkpt lat="47.1553905707" lon="8.5327823824">
				<ele>805.8</ele>
			</trkpt>
			<trkpt lat="47.1553254095" lon="8.5328770013">
				<ele>806.5</ele>
			</trkpt>
			<trkpt lat="47.1552901871" lon="8.5329513046">
				<ele>807.1</ele>
			</trkpt>
			<trkpt lat="47.1552618731" lon="8.5330501600">
				<ele>807.8</ele>
			</trkpt>
			<trkpt lat="47.1552392152" lon="8.5331805415">
				<ele>809.2</ele>
			</trkpt>
			<trkpt lat="47.1552189873" lon="8.5333057374">
				<ele>811.5</ele>
			</trkpt>
			<trkpt lat="47.1552003843" lon="8.5333838637">
				<ele>812.5</ele>
			</trkpt>
			<trkpt lat="47.1551747079" lon="8.5334566103">
				<ele>813.4</ele>
			</trkpt>
			<trkpt lat="47.1551360266" lon="8.5335186207">
				<ele>814.2</ele>
			</trkpt>
			<trkpt lat="47.1550673983" lon="8.5336027101">
				<ele>815.4</ele>
			</trkpt>
			<trkpt lat="47.1549880635" lon="8.5336865674">
				<ele>816.5</ele>
			</trkpt>
			<trkpt lat="47.1549506429" lon="8.5337416360">
				<ele>817.0</ele>
			</trkpt>
			<trkpt lat="47.1549586870" lon="8.5337714594">
				<ele>817.0</ele>
			</trkpt>
			<trkpt lat="47.1549132810" lon="8.5337914578">
				<ele>817.1</ele>
			</trkpt>
			<trkpt lat="47.1548677575" lon="8.5338219432">
				<ele>817.3</ele>
			</trkpt>
			<trkpt lat="47.1548185773" lon="8.5338628045">
				<ele>817.5</ele>
			</trkpt>
			<trkpt lat="47.1547669340" lon="8.5339123339">
				<ele>817.7</ele>
			</trkpt>
			<trkpt lat="47.1546851522" lon="8.5340031202">
				<ele>818.1</ele>
			</trkpt>
			<trkpt lat="47.1545660405" lon="8.5341384996">
				<ele>818.8</ele>
			</trkpt>
			<trkpt lat="47.1544420772" lon="8.5342842556">
				<ele>819.9</ele>
			</trkpt>
			<trkpt lat="47.1543373549" lon="8.5344094777">
				<ele>821.0</ele>
			</trkpt>
			<trkpt lat="47.1542627877" lon="8.5344916853">
				<ele>821.8</ele>
			</trkpt>
			<trkpt lat="47.1541991931" lon="8.5345461974">
				<ele>822.7</ele>
			</trkpt>
			<trkpt lat="47.1541381280" lon="8.5345850885">
				<ele>823.4</ele>
			</trkpt>
			<trkpt lat="47.1540844031" lon="8.5346031707">
				<ele>824.0</ele>
			</trkpt>
			<trkpt lat="47.1539997938" lon="8.5346153920">
				<ele>824.9</ele>
			</trkpt>
			<trkpt lat="47.1538747458" lon="8.5346250468">
				<ele>826.3</ele>
			</trkpt>
			<trkpt lat="47.1537427154" lon="8.5346188602">
				<ele>827.7</ele>
			</trkpt>
			<trkpt lat="47.1536524082" lon="8.5346030452">
				<ele>828.6</ele>
			</trkpt>
			<trkpt lat="47.1535727520" lon="8.5345803847">
				<ele>829.4</ele>
			</trkpt>
			<trkpt lat="47.1535004991" lon="8.5345598203">
				<ele>830.2</ele>
			</trkpt>
			<trkpt lat="47.1534210324" lon="8.5345320191">
				<ele>830.9</ele>
			</trkpt>
			<trkpt lat="47.1533865567" lon="8.5345278170">
				<ele>831.2</ele>
			</trkpt>
			<trkpt lat="47.1533617834" lon="8.5345351847">
				<ele>831.4</ele>
			</trkpt>
			<trkpt lat="47.1533449789" lon="8.5345461540">
				<ele>831.5</ele>
			</trkpt>
			<trkpt lat="47.1533267398" lon="8.5345721547">
				<ele>831.7</ele>
			</trkpt>
			<trkpt lat="47.1532654772" lon="8.5345275663">
				<ele>831.6</ele>
			</trkpt>
			<trkpt lat="47.1532104279" lon="8.5345076119">
				<ele>831.5</ele>
			</trkpt>
			<trkpt lat="47.1531680855" lon="8.5345010853">
				<ele>831.5</ele>
			</trkpt>
			<trkpt lat="47.1530948336" lon="8.5345014724">
				<ele>831.7</ele>
			</trkpt>
			<trkpt lat="47.1530344761" lon="8.5344983503">
				<ele>832.6</ele>
			</trkpt>
			<trkpt lat="47.1529947249" lon="8.5344900094">
				<ele>833.1</ele>
			</trkpt>
			<trkpt lat="47.1529525081" lon="8.5344702985">
				<ele>833.4</ele>
			</trkpt>
			<trkpt lat="47.1529065342" lon="8.5344392233">
				<ele>834.1</ele>
			</trkpt>
			<trkpt lat="47.1528720375" lon="8.5344196898">
				<ele>834.5</ele>
			</trkpt>
			<trkpt lat="47.1528194725" lon="8.5344073135">
				<ele>835.2</ele>
			</trkpt>
			<trkpt lat="47.1526911448" lon="8.5343896134">
				<ele>836.5</ele>
			</trkpt>
			<trkpt lat="47.1525615255" lon="8.5343737736">
				<ele>838.1</ele>
			</trkpt>
			<trkpt lat="47.1524793693" lon="8.5343645457">
				<ele>839.3</ele>
			</trkpt>
			<trkpt lat="47.1524023241" lon="8.5343592149">
				<ele>840.4</ele>
			</trkpt>
			<trkpt lat="47.1523161952" lon="8.5343631054">
				<ele>841.6</ele>
			</trkpt>
			<trkpt lat="47.1522416159" lon="8.5343691125">
				<ele>842.4</ele>
			</trkpt>
			<trkpt lat="47.1521928171" lon="8.5343662271">
				<ele>843.1</ele>
			</trkpt>
			<trkpt lat="47.1521338853" lon="8.5343480739">
				<ele>844.1</ele>
			</trkpt>
			<trkpt lat="47.1520774465" lon="8.5343375052">
				<ele>845.2</ele>
			</trkpt>
			<trkpt lat="47.1520261009" lon="8.5343326812">
				<ele>845.8</ele>
			</trkpt>
			<trkpt lat="47.1519105244" lon="8.5343246625">
				<ele>847.4</ele>
			</trkpt>
			<trkpt lat="47.1517756506" lon="8.5343200156">
				<ele>849.3</ele>
			</trkpt>
			<trkpt lat="47.1516279715" lon="8.5343113463">
				<ele>851.0</ele>
			</trkpt>
			<trkpt lat="47.1514495896" lon="8.5342869692">
				<ele>854.3</ele>
			</trkpt>
			<trkpt lat="47.1513198805" lon="8.5342805545">
				<ele>856.0</ele>
			</trkpt>
			<trkpt lat="47.1512312408" lon="8.5342787404">
				<ele>857.2</ele>
			</trkpt>
			<trkpt lat="47.1511451657" lon="8.5342769789">
				<ele>858.4</ele>
			</trkpt>
			<trkpt lat="47.1510925202" lon="8.5342721284">
				<ele>858.7</ele>
			</trkpt>
			<trkpt lat="47.1510386820" lon="8.5342578402">
				<ele>858.7</ele>
			</trkpt>
			<trkpt lat="47.1509260280" lon="8.5342159883">
				<ele>859.0</ele>
			</trkpt>
			<trkpt lat="47.1507737133" lon="8.5341525990">
				<ele>859.9</ele>
			</trkpt>
			<trkpt lat="47.1506392877" lon="8.5341008759">
				<ele>861.4</ele>
			</trkpt>
			<trkpt lat="47.1504996793" lon="8.5340528136">
				<ele>862.1</ele>
			</trkpt>
			<trkpt lat="47.1503895453" lon="8.5340147743">
				<ele>862.4</ele>
			</trkpt>
			<trkpt lat="47.1503139617" lon="8.5339906283">
				<ele>863.4</ele>
			</trkpt>
			<trkpt lat="47.1502574691" lon="8.5339856995">
				<ele>864.4</ele>
			</trkpt>
			<trkpt lat="47.1502058636" lon="8.5340072560">
				<ele>865.9</ele>
			</trkpt>
			<trkpt lat="47.1501308090" lon="8.5340640992">
				<ele>868.2</ele>
			</trkpt>
			<trkpt lat="47.1500530196" lon="8.5341359782">
				<ele>870.7</ele>
			</trkpt>
			<trkpt lat="47.1500115558" lon="8.5341727890">
				<ele>872.2</ele>
			</trkpt>
			<trkpt lat="47.1498887337" lon="8.5342512664">
				<ele>875.9</ele>
			</trkpt>
			<trkpt lat="47.1498137152" lon="8.5343024629">
				<ele>878.0</ele>
			</trkpt>
			<trkpt lat="47.1497178299" lon="8.5343871441">
				<ele>880.9</ele>
			</trkpt>
			<trkpt lat="47.1496413495" lon="8.5344571560">
				<ele>883.1</ele>
			</trkpt>
			<trkpt lat="47.1495702492" lon="8.5345027856">
				<ele>885.1</ele>
			</trkpt>
			<trkpt lat="47.1495148236" lon="8.5345204967">
				<ele>886.0</ele>
			</trkpt>
			<trkpt lat="47.1494556768" lon="8.5345249197">
				<ele>887.0</ele>
			</trkpt>
			<trkpt lat="47.1494056312" lon="8.5345182616">
				<ele>887.4</ele>
			</trkpt>
			<trkpt lat="47.1493734395" lon="8.5345251293">
				<ele>888.0</ele>
			</trkpt>
			<trkpt lat="47.1493475785" lon="8.5345415461">
				<ele>888.4</ele>
			</trkpt>
			<trkpt lat="47.1492845306" lon="8.5345515679">
				<ele>889.1</ele>
			</trkpt>
			<trkpt lat="47.1492408791" lon="8.5345468950">
				<ele>889.7</ele>
			</trkpt>
			<trkpt lat="47.1491870943" lon="8.5345288480">
				<ele>890.3</ele>
			</trkpt>
			<trkpt lat="47.1490820631" lon="8.5344927931">
				<ele>891.9</ele>
			</trkpt>
			<trkpt lat="47.1489538249" lon="8.5344656829">
				<ele>894.3</ele>
			</trkpt>
			<trkpt lat="47.1488614278" lon="8.5344543787">
				<ele>896.2</ele>
			</trkpt>
			<trkpt lat="47.1487521727" lon="8.5344578019">
				<ele>898.8</ele>
			</trkpt>
			<trkpt lat="47.1486428012" lon="8.5344743763">
				<ele>901.1</ele>
			</trkpt>
			<trkpt lat="47.1485733331" lon="8.5344823803">
				<ele>902.8</ele>
			</trkpt>
			<trkpt lat="47.1484936068" lon="8.5344882814">
				<ele>904.6</ele>
			</trkpt>
			<trkpt lat="47.1483751513" lon="8.5345141149">
				<ele>907.4</ele>
			</trkpt>
			<trkpt lat="47.1482695729" lon="8.5345364261">
				<ele>910.0</ele>
			</trkpt>
			<trkpt lat="47.1482077268" lon="8.5345539988">
				<ele>911.6</ele>
			</trkpt>
			<trkpt lat="47.1481846007" lon="8.5345535254">
				<ele>912.2</ele>
			</trkpt>
			<trkpt lat="47.1481424196" lon="8.5345300634">
				<ele>912.2</ele>
			</trkpt>
			<trkpt lat="47.1480847164" lon="8.5345175830">
				<ele>912.3</ele>
			</trkpt>
			<trkpt lat="47.1480231933" lon="8.5345012515">
				<ele>912.1</ele>
			</trkpt>
			<trkpt lat="47.1479540120" lon="8.5344809970">
				<ele>912.2</ele>
			</trkpt>
			<trkpt lat="47.1478900947" lon="8.5344457974">
				<ele>912.0</ele>
			</trkpt>
			<trkpt lat="47.1478005226" lon="8.5344062936">
				<ele>912.1</ele>
			</trkpt>
			<trkpt lat="47.1477582246" lon="8.5343960151">
				<ele>912.4</ele>
			</trkpt>
			<trkpt lat="47.1477170297" lon="8.5344045848">
				<ele>913.4</ele>
			</trkpt>
			<trkpt lat="47.1476807669" lon="8.5344339738">
				<ele>913.6</ele>
			</trkpt>
			<trkpt lat="47.1476197008" lon="8.5345043049">
				<ele>912.2</ele>
			</trkpt>
			<trkpt lat="47.1475534788" lon="8.5345763974">
				<ele>911.5</ele>
			</trkpt>
			<trkpt lat="47.1474589741" lon="8.5346516771">
				<ele>911.2</ele>
			</trkpt>
			<trkpt lat="47.1473917925" lon="8.5346898585">
				<ele>911.6</ele>
			</trkpt>
			<trkpt lat="47.1473375596" lon="8.5347169929">
				<ele>912.5</ele>
			</trkpt>
			<trkpt lat="47.1472963287" lon="8.5347293344">
				<ele>913.3</ele>
			</trkpt>
			<trkpt lat="47.1472603707" lon="8.5347267247">
				<ele>914.1</ele>
			</trkpt>
			<trkpt lat="47.1472180821" lon="8.5347145470">
				<ele>915.8</ele>
			</trkpt>
			<trkpt lat="47.1471899074" lon="8.5347045640">
				<ele>916.8</ele>
			</trkpt>
			<trkpt lat="47.1471564872" lon="8.5347057533">
				<ele>917.6</ele>
			</trkpt>
			<trkpt lat="47.1471176415" lon="8.5347369883">
				<ele>918.3</ele>
			</trkpt>
			<trkpt lat="47.1470695596" lon="8.5347943729">
				<ele>919.5</ele>
			</trkpt>
			<trkpt lat="47.1470081795" lon="8.5348967136">
				<ele>921.6</ele>
			</trkpt>
			<trkpt lat="47.1469537755" lon="8.5349445622">
				<ele>920.9</ele>
			</trkpt>
			<trkpt lat="47.1468957584" lon="8.5349640988">
				<ele>919.4</ele>
			</trkpt>
			<trkpt lat="47.1468456771" lon="8.5349611869">
				<ele>919.1</ele>
			</trkpt>
			<trkpt lat="47.1467725774" lon="8.5349465047">
				<ele>919.6</ele>
			</trkpt>
			<trkpt lat="47.1467068754" lon="8.5349640040">
				<ele>920.3</ele>
			</trkpt>
			<trkpt lat="47.1466423124" lon="8.5349965660">
				<ele>921.3</ele>
			</trkpt>
			<trkpt lat="47.1465999160" lon="8.5349956979">
				<ele>922.2</ele>
			</trkpt>
			<trkpt lat="47.1465640294" lon="8.5349874368">
				<ele>923.6</ele>
			</trkpt>
			<trkpt lat="47.1465219920" lon="8.5349489064">
				<ele>924.9</ele>
			</trkpt>
			<trkpt lat="47.1464798469" lon="8.5349216727">
				<ele>925.2</ele>
			</trkpt>
			<trkpt lat="47.1464413242" lon="8.5349190105">
				<ele>925.5</ele>
			</trkpt>
			<trkpt lat="47.1464078142" lon="8.5349296104">
				<ele>925.8</ele>
			</trkpt>
			<trkpt lat="47.1463625571" lon="8.5349588271">
				<ele>927.6</ele>
			</trkpt>
			<trkpt lat="47.1463330465" lon="8.5349544501">
				<ele>927.5</ele>
			</trkpt>
			<trkpt lat="47.1463035896" lon="8.5349444344">
				<ele>927.4</ele>
			</trkpt>
			<trkpt lat="47.1462407036" lon="8.5349356141">
				<ele>927.0</ele>
			</trkpt>
			<trkpt lat="47.1461918955" lon="8.5349346148">
				<ele>927.0</ele>
			</trkpt>
			<trkpt lat="47.1461287669" lon="8.5349521665">
				<ele>927.5</ele>
			</trkpt>
			<trkpt lat="47.1460629753" lon="8.5349790633">
				<ele>928.2</ele>
			</trkpt>
			<trkpt lat="47.1460269275" lon="8.5349858642">
				<ele>928.1</ele>
			</trkpt>
			<trkpt lat="47.1459718876" lon="8.5349640130">
				<ele>927.3</ele>
			</trkpt>
			<trkpt lat="47.1459347551" lon="8.5349500674">
				<ele>926.5</ele>
			</trkpt>
			<trkpt lat="47.1458986715" lon="8.5349606274">
				<ele>926.0</ele>
			</trkpt>
			<trkpt lat="47.1458147300" lon="8.5350059903">
				<ele>924.3</ele>
			</trkpt>
			<trkpt lat="47.1457179210" lon="8.5350510959">
				<ele>924.4</ele>
			</trkpt>
			<trkpt lat="47.1456173098" lon="8.5350923444">
				<ele>925.1</ele>
			</trkpt>
			<trkpt lat="47.1455554907" lon="8.5351061499">
				<ele>924.9</ele>
			</trkpt>
			<trkpt lat="47.1455257647" lon="8.5351243724">
				<ele>924.8</ele>
			</trkpt>
			<trkpt lat="47.1454970425" lon="8.5351727519">
				<ele>924.1</ele>
			</trkpt>
			<trkpt lat="47.1454761307" lon="8.5352100055">
				<ele>923.5</ele>
			</trkpt>
			<trkpt lat="47.1454260753" lon="8.5353389190">
				<ele>922.1</ele>
			</trkpt>
			<trkpt lat="47.1453982855" lon="8.5354230935">
				<ele>921.6</ele>
			</trkpt>
			<trkpt lat="47.1453770505" lon="8.5354942364">
				<ele>921.3</ele>
			</trkpt>
			<trkpt lat="47.1453446432" lon="8.5355237025">
				<ele>921.8</ele>
			</trkpt>
			<trkpt lat="47.1452813801" lon="8.5355544291">
				<ele>922.6</ele>
			</trkpt>
			<trkpt lat="47.1452182516" lon="8.5355719541">
				<ele>923.6</ele>
			</trkpt>
			<trkpt lat="47.1451604496" lon="8.5355707699">
				<ele>924.7</ele>
			</trkpt>
			<trkpt lat="47.1450681694" lon="8.5355462820">
				<ele>926.4</ele>
			</trkpt>
			<trkpt lat="47.1450092469" lon="8.5355262438">
				<ele>927.4</ele>
			</trkpt>
			<trkpt lat="47.1449504138" lon="8.5354986815">
				<ele>928.4</ele>
			</trkpt>
			<trkpt lat="47.1449107078" lon="8.5354846831">
				<ele>928.8</ele>
			</trkpt>
			<trkpt lat="47.1448954128" lon="8.5354839003">
				<ele>928.9</ele>
			</trkpt>
			<trkpt lat="47.1448490592" lon="8.5354815210">
				<ele>929.2</ele>
			</trkpt>
			<trkpt lat="47.1448180881" lon="8.5353603681">
				<ele>929.1</ele>
			</trkpt>
			<trkpt lat="47.1447785714" lon="8.5351938201">
				<ele>929.0</ele>
			</trkpt>
			<trkpt lat="47.1447415026" lon="8.5350386275">
				<ele>928.8</ele>
			</trkpt>
			<trkpt lat="47.1447069444" lon="8.5348891519">
				<ele>928.8</ele>
			</trkpt>
			<trkpt lat="47.1446859174" lon="8.5348020732">
				<ele>928.6</ele>
			</trkpt>
			<trkpt lat="47.1446621368" lon="8.5347356877">
				<ele>928.2</ele>
			</trkpt>
			<trkpt lat="47.1446304470" lon="8.5346917245">
				<ele>927.8</ele>
			</trkpt>
			<trkpt lat="47.1445794965" lon="8.5346435881">
				<ele>927.6</ele>
			</trkpt>
			<trkpt lat="47.1445042446" lon="8.5345855486">
				<ele>927.6</ele>
			</trkpt>
			<trkpt lat="47.1444207780" lon="8.5345229955">
				<ele>928.3</ele>
			</trkpt>
			<trkpt lat="47.1442975623" lon="8.5344306586">
				<ele>928.4</ele>
			</trkpt>
			<trkpt lat="47.1441508696" lon="8.5343184187">
				<ele>929.2</ele>
			</trkpt>
			<trkpt lat="47.1441095708" lon="8.5342890152">
				<ele>929.7</ele>
			</trkpt>
			<trkpt lat="47.1438868166" lon="8.5341751167">
				<ele>930.9</ele>
			</trkpt>
			<trkpt lat="47.1437667488" lon="8.5340861421">
				<ele>931.1</ele>
			</trkpt>
			<trkpt lat="47.1436938815" lon="8.5340400083">
				<ele>931.6</ele>
			</trkpt>
			<trkpt lat="47.1436721996" lon="8.5341176965">
				<ele>931.6</ele>
			</trkpt>
			<trkpt lat="47.1436656912" lon="8.5342012863">
				<ele>931.6</ele>
			</trkpt>
			<trkpt lat="47.1436730254" lon="8.5343011122">
				<ele>931.5</ele>
			</trkpt>
			<trkpt lat="47.1436861954" lon="8.5344030751">
				<ele>931.5</ele>
			</trkpt>
			<trkpt lat="47.1437174374" lon="8.5346296989">
				<ele>931.4</ele>
			</trkpt>
			<trkpt lat="47.1437487775" lon="8.5348469249">
				<ele>931.2</ele>
			</trkpt>
			<trkpt lat="47.1437810903" lon="8.5350961832">
				<ele>931.2</ele>
			</trkpt>
			<trkpt lat="47.1438171536" lon="8.5353568170">
				<ele>931.1</ele>
			</trkpt>
			<trkpt lat="47.1438604971" lon="8.5356627876">
				<ele>931.0</ele>
			</trkpt>
			<trkpt lat="47.1438869475" lon="8.5358535420">
				<ele>931.1</ele>
			</trkpt>
			<trkpt lat="47.1438974011" lon="8.5359705387">
				<ele>931.3</ele>
			</trkpt>
			<trkpt lat="47.1439016592" lon="8.5360628867">
				<ele>931.4</ele>
			</trkpt>
			<trkpt lat="47.1438983132" lon="8.5361437998">
				<ele>931.4</ele>
			</trkpt>
			<trkpt lat="47.1438908686" lon="8.5362509982">
				<ele>931.6</ele>
			</trkpt>
			<trkpt lat="47.1438727793" lon="8.5363956462">
				<ele>932.0</ele>
			</trkpt>
			<trkpt lat="47.1438533357" lon="8.5365477922">
				<ele>932.5</ele>
			</trkpt>
			<trkpt lat="47.1438327354" lon="8.5366867361">
				<ele>933.2</ele>
			</trkpt>
			<trkpt lat="47.1438124765" lon="8.5367898989">
				<ele>933.9</ele>
			</trkpt>
			<trkpt lat="47.1437804431" lon="8.5369154170">
				<ele>935.1</ele>
			</trkpt>
			<trkpt lat="47.1437470012" lon="8.5370540971">
				<ele>936.3</ele>
			</trkpt>
			<trkpt lat="47.1437084009" lon="8.5371367483">
				<ele>937.0</ele>
			</trkpt>
			<trkpt lat="47.1436696060" lon="8.5371872272">
				<ele>937.7</ele>
			</trkpt>
			<trkpt lat="47.1436192391" lon="8.5372276992">
				<ele>938.6</ele>
			</trkpt>
			<trkpt lat="47.1435338856" lon="8.5372674662">
				<ele>940.0</ele>
			</trkpt>
			<trkpt lat="47.1434001645" lon="8.5373135587">
				<ele>942.1</ele>
			</trkpt>
			<trkpt lat="47.1432598631" lon="8.5373497587">
				<ele>944.4</ele>
			</trkpt>
			<trkpt lat="47.1431681016" lon="8.5373625241">
				<ele>945.8</ele>
			</trkpt>
			<trkpt lat="47.1430632065" lon="8.5373554927">
				<ele>947.4</ele>
			</trkpt>
			<trkpt lat="47.1429151366" lon="8.5373329021">
				<ele>949.4</ele>
			</trkpt>
			<trkpt lat="47.1428185699" lon="8.5373260425">
				<ele>950.6</ele>
			</trkpt>
			<trkpt lat="47.1427202785" lon="8.5373264647">
				<ele>951.8</ele>
			</trkpt>
			<trkpt lat="47.1426119534" lon="8.5373291201">
				<ele>953.2</ele>
			</trkpt>
			<trkpt lat="47.1425319268" lon="8.5373348219">
				<ele>954.2</ele>
			</trkpt>
			<trkpt lat="47.1424519704" lon="8.5373331812">
				<ele>955.4</ele>
			</trkpt>
			<trkpt lat="47.1423721540" lon="8.5373168825">
				<ele>956.5</ele>
			</trkpt>
			<trkpt lat="47.1422657958" lon="8.5372878439">
				<ele>958.0</ele>
			</trkpt>
			<trkpt lat="47.1421793148" lon="8.5372714214">
				<ele>959.3</ele>
			</trkpt>
			<trkpt lat="47.1421126875" lon="8.5372700544">
				<ele>960.2</ele>
			</trkpt>
			<trkpt lat="47.1420293710" lon="8.5372707840">
				<ele>961.4</ele>
			</trkpt>
			<trkpt lat="47.1419575097" lon="8.5372937266">
				<ele>962.4</ele>
			</trkpt>
			<trkpt lat="47.1418855409" lon="8.5373288759">
				<ele>963.4</ele>
			</trkpt>
			<trkpt lat="47.1418151804" lon="8.5373689361">
				<ele>964.4</ele>
			</trkpt>
			<trkpt lat="47.1417513444" lon="8.5374237910">
				<ele>965.4</ele>
			</trkpt>
			<trkpt lat="47.1416923690" lon="8.5374934063">
				<ele>966.5</ele>
			</trkpt>
			<trkpt lat="47.1416213554" lon="8.5376018117">
				<ele>967.9</ele>
			</trkpt>
			<trkpt lat="47.1415551930" lon="8.5377250046">
				<ele>969.3</ele>
			</trkpt>
			<trkpt lat="47.1414991577" lon="8.5378361834">
				<ele>970.6</ele>
			</trkpt>
			<trkpt lat="47.1414530588" lon="8.5379524431">
				<ele>971.8</ele>
			</trkpt>
			<trkpt lat="47.1414186018" lon="8.5380713816">
				<ele>972.8</ele>
			</trkpt>
			<trkpt lat="47.1413926275" lon="8.5381733943">
				<ele>973.6</ele>
			</trkpt>
			<trkpt lat="47.1413661107" lon="8.5383340121">
				<ele>974.6</ele>
			</trkpt>
			<trkpt lat="47.1413498716" lon="8.5384630941">
				<ele>975.1</ele>
			</trkpt>
			<trkpt lat="47.1412318110" lon="8.5384386914">
				<ele>975.5</ele>
			</trkpt>
			<trkpt lat="47.1411356036" lon="8.5383951983">
				<ele>976.5</ele>
			</trkpt>
			<trkpt lat="47.1411121550" lon="8.5383835500">
				<ele>976.8</ele>
			</trkpt>
			<trkpt lat="47.1410178694" lon="8.5383366299">
				<ele>977.9</ele>
			</trkpt>
			<trkpt lat="47.1408322786" lon="8.5382302734">
				<ele>980.0</ele>
			</trkpt>
			<trkpt lat="47.1406650410" lon="8.5381218289">
				<ele>982.2</ele>
			</trkpt>
			<trkpt lat="47.1405658235" lon="8.5380440897">
				<ele>983.4</ele>
			</trkpt>
			<trkpt lat="47.1404932081" lon="8.5379717886">
				<ele>984.3</ele>
			</trkpt>
			<trkpt lat="47.1404058332" lon="8.5378747812">
				<ele>985.5</ele>
			</trkpt>
			<trkpt lat="47.1402741791" lon="8.5377035890">
				<ele>987.3</ele>
			</trkpt>
			<trkpt lat="47.1401508067" lon="8.5375374592">
				<ele>989.0</ele>
			</trkpt>
			<trkpt lat="47.1400868084" lon="8.5374360283">
				<ele>989.9</ele>
			</trkpt>
			<trkpt lat="47.1400310506" lon="8.5373421103">
				<ele>990.8</ele>
			</trkpt>
			<trkpt lat="47.1399608449" lon="8.5371917194">
				<ele>992.1</ele>
			</trkpt>
			<trkpt lat="47.1398759494" lon="8.5370092818">
				<ele>993.7</ele>
			</trkpt>
			<trkpt lat="47.1398074071" lon="8.5368589268">
				<ele>994.9</ele>
			</trkpt>
			<trkpt lat="47.1397436647" lon="8.5367306605">
				<ele>996.0</ele>
			</trkpt>
			<trkpt lat="47.1396912572" lon="8.5366343599">
				<ele>996.9</ele>
			</trkpt>
			<trkpt lat="47.1396386582" lon="8.5365600197">
				<ele>997.7</ele>
			</trkpt>
			<trkpt lat="47.1395958881" lon="8.5365029811">
				<ele>998.2</ele>
			</trkpt>
			<trkpt lat="47.1395266463" lon="8.5364258739">
				<ele>999.1</ele>
			</trkpt>
			<trkpt lat="47.1394408173" lon="8.5363410971">
				<ele>1000.1</ele>
			</trkpt>
			<trkpt lat="47.1393085878" lon="8.5362309537">
				<ele>1001.8</ele>
			</trkpt>
			<trkpt lat="47.1391993442" lon="8.5361554663">
				<ele>1003.0</ele>
			</trkpt>
			<trkpt lat="47.1390269640" lon="8.5360615872">
				<ele>1004.7</ele>
			</trkpt>
			<trkpt lat="47.1388761946" lon="8.5359730421">
				<ele>1006.5</ele>
			</trkpt>
			<trkpt lat="47.1387253320" lon="8.5358942513">
				<ele>1008.4</ele>
			</trkpt>
			<trkpt lat="47.1386504601" lon="8.5358829478">
				<ele>1009.3</ele>
			</trkpt>
			<trkpt lat="47.1385853427" lon="8.5358986995">
				<ele>1010.1</ele>
			</trkpt>
			<trkpt lat="47.1384965129" lon="8.5359530406">
				<ele>1010.8</ele>
			</trkpt>
			<trkpt lat="47.1383973971" lon="8.5360389157">
				<ele>1011.2</ele>
			</trkpt>
			<trkpt lat="47.1383249073" lon="8.5361277622">
				<ele>1011.3</ele>
			</trkpt>
			<trkpt lat="47.1382824496" lon="8.5362123599">
				<ele>1011.2</ele>
			</trkpt>
			<trkpt lat="47.1382513921" lon="8.5363240446">
				<ele>1010.7</ele>
			</trkpt>
			<trkpt lat="47.1382333839" lon="8.5364652907">
				<ele>1009.9</ele>
			</trkpt>
			<trkpt lat="47.1382239459" lon="8.5367556441">
				<ele>1008.2</ele>
			</trkpt>
			<trkpt lat="47.1382116834" lon="8.5369922440">
				<ele>1007.5</ele>
			</trkpt>
			<trkpt lat="47.1382003858" lon="8.5371287496">
				<ele>1007.7</ele>
			</trkpt>
			<trkpt lat="47.1381809780" lon="8.5372431124">
				<ele>1008.0</ele>
			</trkpt>
			<trkpt lat="47.1381484796" lon="8.5373303385">
				<ele>1008.3</ele>
			</trkpt>
			<trkpt lat="47.1381011695" lon="8.5374001749">
				<ele>1008.6</ele>
			</trkpt>
			<trkpt lat="47.1380440359" lon="8.5374502728">
				<ele>1008.9</ele>
			</trkpt>
			<trkpt lat="47.1379619489" lon="8.5374974189">
				<ele>1009.3</ele>
			</trkpt>
			<trkpt lat="47.1378768520" lon="8.5375103195">
				<ele>1009.7</ele>
			</trkpt>
			<trkpt lat="47.1378357236" lon="8.5375083059">
				<ele>1009.9</ele>
			</trkpt>
		</trkseg>
	</trk>
</gpx>
