<?xml version='1.0' encoding='utf-8'?>
<gpx xmlns="http://www.topografix.com/GPX/1/1" xmlns:xsi="http://www.w3.org/2001/XMLSchema-instance" version="1.1" xsi:schemaLocation="http://www.topografix.com/GPX/1/1 http://www.topografix.com/GPX/1/1/gpx.xsd">
	<metadata>
		<name>Biberegg_Guegi</name>
	</metadata>
	<trk type="snowshoe">
		<trkseg>
			<trkpt lat="47.1052895095" lon="8.6760129996">
				<ele>927.0</ele>
			</trkpt>
			<trkpt lat="47.1052673396" lon="8.6759890793">
				<ele>926.9</ele>
			</trkpt>
			<trkpt lat="47.1051452388" lon="8.6760113588">
				<ele>927.1</ele>
			</trkpt>
			<trkpt lat="47.1050612908" lon="8.6760261530">
				<ele>927.2</ele>
			</trkpt>
			<trkpt lat="47.1049697930" lon="8.6760351994">
				<ele>927.2</ele>
			</trkpt>
			<trkpt lat="47.1048460651" lon="8.6760323419">
				<ele>927.3</ele>
			</trkpt>
			<trkpt lat="47.1047509045" lon="8.6760273509">
				<ele>927.5</ele>
			</trkpt>
			<trkpt lat="47.1046367732" lon="8.6760163487">
				<ele>927.2</ele>
			</trkpt>
			<trkpt lat="47.1046231451" lon="8.6760170748">
				<ele>927.2</ele>
			</trkpt>
			<trkpt lat="47.1045360217" lon="8.6760000823">
				<ele>927.0</ele>
			</trkpt>
			<trkpt lat="47.1045353324" lon="8.6761326238">
				<ele>927.2</ele>
			</trkpt>
			<trkpt lat="47.1045564114" lon="8.6764733255">
				<ele>928.1</ele>
			</trkpt>
			<trkpt lat="47.1045712283" lon="8.6766679259">
				<ele>928.7</ele>
			</trkpt>
			<trkpt lat="47.1045780993" lon="8.6767582833">
				<ele>929.0</ele>
			</trkpt>
			<trkpt lat="47.1045755918" lon="8.6768140101">
				<ele>929.2</ele>
			</trkpt>
			<trkpt lat="47.1045676225" lon="8.6768472913">
				<ele>929.4</ele>
			</trkpt>
			<trkpt lat="47.1045368001" lon="8.6768800445">
				<ele>929.5</ele>
			</trkpt>
			<trkpt lat="47.1044773320" lon="8.6769205019">
				<ele>929.7</ele>
			</trkpt>
			<trkpt lat="47.1042393580" lon="8.6770934747">
				<ele>930.1</ele>
			</trkpt>
			<trkpt lat="47.1040761587" lon="8.6772180031">
				<ele>930.3</ele>
			</trkpt>
			<trkpt lat="47.1039704917" lon="8.6773047832">
				<ele>930.4</ele>
			</trkpt>
			<trkpt lat="47.1038051457" lon="8.6774515533">
				<ele>930.5</ele>
			</trkpt>
			<trkpt lat="47.1037648070" lon="8.6774840856">
				<ele>930.6</ele>
			</trkpt>
			<trkpt lat="47.1035419472" lon="8.6776685757">
				<ele>930.9</ele>
			</trkpt>
			<trkpt lat="47.1034745907" lon="8.6777339475">
				<ele>931.0</ele>
			</trkpt>
			<trkpt lat="47.1034672642" lon="8.6777425923">
				<ele>931.0</ele>
			</trkpt>
			<trkpt lat="47.1034514461" lon="8.6777612909">
				<ele>931.1</ele>
			</trkpt>
			<trkpt lat="47.1033683005" lon="8.6778793009">
				<ele>931.2</ele>
			</trkpt>
			<trkpt lat="47.1033017977" lon="8.6779830844">
				<ele>931.4</ele>
			</trkpt>
			<trkpt lat="47.1032133536" lon="8.6781211157">
				<ele>931.6</ele>
			</trkpt>
			<trkpt lat="47.1030879837" lon="8.6782688062">
				<ele>931.8</ele>
			</trkpt>
			<trkpt lat="47.1029879452" lon="8.6783641052">
				<ele>931.9</ele>
			</trkpt>
			<trkpt lat="47.1029207085" lon="8.6784183323">
				<ele>932.1</ele>
			</trkpt>
			<trkpt lat="47.1028057357" lon="8.6784853807">
				<ele>932.3</ele>
			</trkpt>
			<trkpt lat="47.1027503599" lon="8.6785008315">
				<ele>932.4</ele>
			</trkpt>
			<trkpt lat="47.1026988698" lon="8.6785080062">
				<ele>932.5</ele>
			</trkpt>
			<trkpt lat="47.1025426652" lon="8.6785127575">
				<ele>932.8</ele>
			</trkpt>
			<trkpt lat="47.1022549731" lon="8.6785284183">
				<ele>933.5</ele>
			</trkpt>
			<trkpt lat="47.1021864102" lon="8.6785296116">
				<ele>933.7</ele>
			</trkpt>
			<trkpt lat="47.1020035053" lon="8.6785393312">
				<ele>934.4</ele>
			</trkpt>
			<trkpt lat="47.1018491256" lon="8.6785524904">
				<ele>935.2</ele>
			</trkpt>
			<trkpt lat="47.1017556524" lon="8.6785670593">
				<ele>935.7</ele>
			</trkpt>
			<trkpt lat="47.1016049057" lon="8.6785970344">
				<ele>936.7</ele>
			</trkpt>
			<trkpt lat="47.1014040859" lon="8.6786788258">
				<ele>938.0</ele>
			</trkpt>
			<trkpt lat="47.1013620002" lon="8.6786973634">
				<ele>938.2</ele>
			</trkpt>
			<trkpt lat="47.1013200765" lon="8.6786991993">
				<ele>938.5</ele>
			</trkpt>
			<trkpt lat="47.1011468167" lon="8.6786979692">
				<ele>939.8</ele>
			</trkpt>
			<trkpt lat="47.1010174195" lon="8.6786893886">
				<ele>941.0</ele>
			</trkpt>
			<trkpt lat="47.1007947782" lon="8.6786758702">
				<ele>943.6</ele>
			</trkpt>
			<trkpt lat="47.1007051960" lon="8.6786849689">
				<ele>944.7</ele>
			</trkpt>
			<trkpt lat="47.1006593570" lon="8.6786978335">
				<ele>945.3</ele>
			</trkpt>
			<trkpt lat="47.1006172223" lon="8.6787191758">
				<ele>945.8</ele>
			</trkpt>
			<trkpt lat="47.1005917488" lon="8.6786989432">
				<ele>946.0</ele>
			</trkpt>
			<trkpt lat="47.1005670847" lon="8.6786927996">
				<ele>946.1</ele>
			</trkpt>
			<trkpt lat="47.1005917488" lon="8.6786989432">
				<ele>946.0</ele>
			</trkpt>
			<trkpt lat="47.1006172223" lon="8.6787191758">
				<ele>945.8</ele>
			</trkpt>
			<trkpt lat="47.1005901322" lon="8.6787603775">
				<ele>946.2</ele>
			</trkpt>
			<trkpt lat="47.1005704217" lon="8.6788212614">
				<ele>946.7</ele>
			</trkpt>
			<trkpt lat="47.1005286988" lon="8.6789820510">
				<ele>947.8</ele>
			</trkpt>
			<trkpt lat="47.1004947836" lon="8.6791262633">
				<ele>948.6</ele>
			</trkpt>
			<trkpt lat="47.1004786450" lon="8.6792095471">
				<ele>949.0</ele>
			</trkpt>
			<trkpt lat="47.1004627777" lon="8.6792677400">
				<ele>949.4</ele>
			</trkpt>
			<trkpt lat="47.1001749875" lon="8.6799972575">
				<ele>956.1</ele>
			</trkpt>
			<trkpt lat="47.1000163909" lon="8.6804007211">
				<ele>959.8</ele>
			</trkpt>
			<trkpt lat="47.0999889288" lon="8.6804753756">
				<ele>960.4</ele>
			</trkpt>
			<trkpt lat="47.0999579551" lon="8.6805220454">
				<ele>960.8</ele>
			</trkpt>
			<trkpt lat="47.0998515403" lon="8.6806785263">
				<ele>962.0</ele>
			</trkpt>
			<trkpt lat="47.0998224124" lon="8.6807308512">
				<ele>962.3</ele>
			</trkpt>
			<trkpt lat="47.0998085112" lon="8.6807835025">
				<ele>962.7</ele>
			</trkpt>
			<trkpt lat="47.0997860066" lon="8.6809279765">
				<ele>963.7</ele>
			</trkpt>
			<trkpt lat="47.0997714432" lon="8.6810419777">
				<ele>964.6</ele>
			</trkpt>
			<trkpt lat="47.0997490465" lon="8.6811805122">
				<ele>966.0</ele>
			</trkpt>
			<trkpt lat="47.0997364559" lon="8.6812741789">
				<ele>966.9</ele>
			</trkpt>
			<trkpt lat="47.0997221551" lon="8.6813804134">
				<ele>967.8</ele>
			</trkpt>
			<trkpt lat="47.0997136041" lon="8.6814540566">
				<ele>968.3</ele>
			</trkpt>
			<trkpt lat="47.0997064204" lon="8.6815293651">
				<ele>969.0</ele>
			</trkpt>
			<trkpt lat="47.0996991275" lon="8.6815772950">
				<ele>969.4</ele>
			</trkpt>
			<trkpt lat="47.0996894981" lon="8.6816084391">
				<ele>969.7</ele>
			</trkpt>
			<trkpt lat="47.0996803896" lon="8.6816254860">
				<ele>969.9</ele>
			</trkpt>
			<trkpt lat="47.0996659435" lon="8.6816403015">
				<ele>970.0</ele>
			</trkpt>
			<trkpt lat="47.0996005153" lon="8.6816827063">
				<ele>970.1</ele>
			</trkpt>
			<trkpt lat="47.0995715038" lon="8.6816909256">
				<ele>970.3</ele>
			</trkpt>
			<trkpt lat="47.0995586520" lon="8.6816906275">
				<ele>970.4</ele>
			</trkpt>
			<trkpt lat="47.0995264141" lon="8.6816769165">
				<ele>970.6</ele>
			</trkpt>
			<trkpt lat="47.0994905636" lon="8.6816454154">
				<ele>970.8</ele>
			</trkpt>
			<trkpt lat="47.0994717441" lon="8.6816254548">
				<ele>970.9</ele>
			</trkpt>
			<trkpt lat="47.0994513398" lon="8.6815747880">
				<ele>970.9</ele>
			</trkpt>
			<trkpt lat="47.0993645318" lon="8.6813273797">
				<ele>971.3</ele>
			</trkpt>
			<trkpt lat="47.0993275371" lon="8.6812261351">
				<ele>971.9</ele>
			</trkpt>
			<trkpt lat="47.0992902409" lon="8.6811527732">
				<ele>972.6</ele>
			</trkpt>
			<trkpt lat="47.0992508660" lon="8.6810960942">
				<ele>973.2</ele>
			</trkpt>
			<trkpt lat="47.0992226424" lon="8.6810647572">
				<ele>973.5</ele>
			</trkpt>
			<trkpt lat="47.0991716644" lon="8.6810245402">
				<ele>974.1</ele>
			</trkpt>
			<trkpt lat="47.0991242291" lon="8.6810095024">
				<ele>974.5</ele>
			</trkpt>
			<trkpt lat="47.0990595306" lon="8.6810052093">
				<ele>974.9</ele>
			</trkpt>
			<trkpt lat="47.0989945909" lon="8.6810232275">
				<ele>975.1</ele>
			</trkpt>
			<trkpt lat="47.0989045176" lon="8.6810769047">
				<ele>974.9</ele>
			</trkpt>
			<trkpt lat="47.0988394278" lon="8.6811088575">
				<ele>974.7</ele>
			</trkpt>
			<trkpt lat="47.0988070076" lon="8.6811136784">
				<ele>974.5</ele>
			</trkpt>
			<trkpt lat="47.0987803588" lon="8.6811130605">
				<ele>974.4</ele>
			</trkpt>
			<trkpt lat="47.0987481709" lon="8.6810955829">
				<ele>974.3</ele>
			</trkpt>
			<trkpt lat="47.0987395769" lon="8.6810900353">
				<ele>974.2</ele>
			</trkpt>
			<trkpt lat="47.0987050390" lon="8.6810369467">
				<ele>974.5</ele>
			</trkpt>
			<trkpt lat="47.0986947895" lon="8.6809598391">
				<ele>974.0</ele>
			</trkpt>
			<trkpt lat="47.0986912561" lon="8.6808464744">
				<ele>974.8</ele>
			</trkpt>
			<trkpt lat="47.0986817483" lon="8.6807231827">
				<ele>975.8</ele>
			</trkpt>
			<trkpt lat="47.0986651577" lon="8.6806726054">
				<ele>976.2</ele>
			</trkpt>
			<trkpt lat="47.0986427951" lon="8.6806274670">
				<ele>976.7</ele>
			</trkpt>
			<trkpt lat="47.0986069838" lon="8.6805931751">
				<ele>977.2</ele>
			</trkpt>
			<trkpt lat="47.0985633828" lon="8.6805754337">
				<ele>977.7</ele>
			</trkpt>
			<trkpt lat="47.0985121034" lon="8.6805630871">
				<ele>978.3</ele>
			</trkpt>
			<trkpt lat="47.0983692662" lon="8.6805653620">
				<ele>979.9</ele>
			</trkpt>
			<trkpt lat="47.0982301126" lon="8.6805788678">
				<ele>981.6</ele>
			</trkpt>
			<trkpt lat="47.0981521248" lon="8.6805714744">
				<ele>982.5</ele>
			</trkpt>
			<trkpt lat="47.0980800199" lon="8.6805475001">
				<ele>983.3</ele>
			</trkpt>
			<trkpt lat="47.0980004262" lon="8.6805121938">
				<ele>984.3</ele>
			</trkpt>
			<trkpt lat="47.0978416305" lon="8.6804053368">
				<ele>986.4</ele>
			</trkpt>
			<trkpt lat="47.0976035721" lon="8.6802325140">
				<ele>989.7</ele>
			</trkpt>
			<trkpt lat="47.0974847541" lon="8.6801265981">
				<ele>991.5</ele>
			</trkpt>
			<trkpt lat="47.0973545139" lon="8.6800203915">
				<ele>993.3</ele>
			</trkpt>
			<trkpt lat="47.0972599645" lon="8.6799596447">
				<ele>994.5</ele>
			</trkpt>
			<trkpt lat="47.0971310187" lon="8.6799092721">
				<ele>996.1</ele>
			</trkpt>
			<trkpt lat="47.0969506537" lon="8.6798604621">
				<ele>998.2</ele>
			</trkpt>
			<trkpt lat="47.0967397954" lon="8.6798137523">
				<ele>1001.0</ele>
			</trkpt>
			<trkpt lat="47.0966560649" lon="8.6798090333">
				<ele>1002.0</ele>
			</trkpt>
			<trkpt lat="47.0966317037" lon="8.6798116571">
				<ele>1002.4</ele>
			</trkpt>
			<trkpt lat="47.0965283349" lon="8.6798228049">
				<ele>1003.9</ele>
			</trkpt>
			<trkpt lat="47.0964654820" lon="8.6798241286">
				<ele>1004.7</ele>
			</trkpt>
			<trkpt lat="47.0964197938" lon="8.6798230703">
				<ele>1005.2</ele>
			</trkpt>
			<trkpt lat="47.0963800274" lon="8.6798026396">
				<ele>1005.8</ele>
			</trkpt>
			<trkpt lat="47.0962970798" lon="8.6797254326">
				<ele>1006.9</ele>
			</trkpt>
			<trkpt lat="47.0961934880" lon="8.6796198726">
				<ele>1008.5</ele>
			</trkpt>
			<trkpt lat="47.0960989988" lon="8.6795535437">
				<ele>1009.7</ele>
			</trkpt>
			<trkpt lat="47.0960461439" lon="8.6795104946">
				<ele>1010.5</ele>
			</trkpt>
			<trkpt lat="47.0958990403" lon="8.6793788330">
				<ele>1012.6</ele>
			</trkpt>
			<trkpt lat="47.0955911429" lon="8.6791486293">
				<ele>1017.0</ele>
			</trkpt>
			<trkpt lat="47.0954979297" lon="8.6790815805">
				<ele>1018.3</ele>
			</trkpt>
			<trkpt lat="47.0954298029" lon="8.6790423676">
				<ele>1019.3</ele>
			</trkpt>
			<trkpt lat="47.0953900285" lon="8.6790226227">
				<ele>1019.9</ele>
			</trkpt>
			<trkpt lat="47.0953587123" lon="8.6790135328">
				<ele>1020.3</ele>
			</trkpt>
			<trkpt lat="47.0953358680" lon="8.6790130040">
				<ele>1020.6</ele>
			</trkpt>
			<trkpt lat="47.0953115710" lon="8.6790145361">
				<ele>1020.8</ele>
			</trkpt>
			<trkpt lat="47.0952885237" lon="8.6790328139">
				<ele>1021.0</ele>
			</trkpt>
			<trkpt lat="47.0952588753" lon="8.6790600678">
				<ele>1021.2</ele>
			</trkpt>
			<trkpt lat="47.0952240971" lon="8.6791066727">
				<ele>1021.6</ele>
			</trkpt>
			<trkpt lat="47.0951988255" lon="8.6791534975">
				<ele>1022.0</ele>
			</trkpt>
			<trkpt lat="47.0951307336" lon="8.6792885392">
				<ele>1023.3</ele>
			</trkpt>
			<trkpt lat="47.0951166734" lon="8.6793551331">
				<ele>1023.8</ele>
			</trkpt>
			<trkpt lat="47.0951178967" lon="8.6794193010">
				<ele>1024.4</ele>
			</trkpt>
			<trkpt lat="47.0951288374" lon="8.6794641586">
				<ele>1024.9</ele>
			</trkpt>
			<trkpt lat="47.0951568510" lon="8.6795149966">
				<ele>1025.4</ele>
			</trkpt>
			<trkpt lat="47.0952626331" lon="8.6795927305">
				<ele>1026.9</ele>
			</trkpt>
			<trkpt lat="47.0954119531" lon="8.6796965677">
				<ele>1029.1</ele>
			</trkpt>
			<trkpt lat="47.0954400869" lon="8.6797362644">
				<ele>1029.7</ele>
			</trkpt>
			<trkpt lat="47.0954529252" lon="8.6797811662">
				<ele>1030.2</ele>
			</trkpt>
			<trkpt lat="47.0954543109" lon="8.6798286085">
				<ele>1030.8</ele>
			</trkpt>
			<trkpt lat="47.0954481785" lon="8.6798674854">
				<ele>1031.3</ele>
			</trkpt>
			<trkpt lat="47.0954325693" lon="8.6799033895">
				<ele>1031.8</ele>
			</trkpt>
			<trkpt lat="47.0954017972" lon="8.6799305510">
				<ele>1032.2</ele>
			</trkpt>
			<trkpt lat="47.0953251737" lon="8.6799733801">
				<ele>1033.1</ele>
			</trkpt>
			<trkpt lat="47.0952447669" lon="8.6800133423">
				<ele>1034.1</ele>
			</trkpt>
			<trkpt lat="47.0951584380" lon="8.6800727026">
				<ele>1035.3</ele>
			</trkpt>
			<trkpt lat="47.0950297220" lon="8.6801784643">
				<ele>1037.2</ele>
			</trkpt>
			<trkpt lat="47.0949472186" lon="8.6802351070">
				<ele>1038.4</ele>
			</trkpt>
			<trkpt lat="47.0948783845" lon="8.6802613862">
				<ele>1039.3</ele>
			</trkpt>
			<trkpt lat="47.0948154119" lon="8.6802738772">
				<ele>1040.1</ele>
			</trkpt>
			<trkpt lat="47.0947240949" lon="8.6802661763">
				<ele>1041.2</ele>
			</trkpt>
			<trkpt lat="47.0945738296" lon="8.6802515502">
				<ele>1042.8</ele>
			</trkpt>
			<trkpt lat="47.0945033086" lon="8.6802582812">
				<ele>1043.6</ele>
			</trkpt>
			<trkpt lat="47.0944498123" lon="8.6802737711">
				<ele>1044.4</ele>
			</trkpt>
			<trkpt lat="47.0944133471" lon="8.6803008000">
				<ele>1045.0</ele>
			</trkpt>
			<trkpt lat="47.0943844302" lon="8.6803335893">
				<ele>1045.7</ele>
			</trkpt>
			<trkpt lat="47.0943668451" lon="8.6803750056">
				<ele>1046.3</ele>
			</trkpt>
			<trkpt lat="47.0943605015" lon="8.6804334122">
				<ele>1047.1</ele>
			</trkpt>
			<trkpt lat="47.0943808155" lon="8.6804924365">
				<ele>1047.8</ele>
			</trkpt>
			<trkpt lat="47.0944050453" lon="8.6805404073">
				<ele>1048.6</ele>
			</trkpt>
			<trkpt lat="47.0944778431" lon="8.6806759313">
				<ele>1050.6</ele>
			</trkpt>
			<trkpt lat="47.0945622139" lon="8.6807977736">
				<ele>1052.3</ele>
			</trkpt>
			<trkpt lat="47.0946357346" lon="8.6808663966">
				<ele>1053.6</ele>
			</trkpt>
			<trkpt lat="47.0947111230" lon="8.6809378555">
				<ele>1054.9</ele>
			</trkpt>
			<trkpt lat="47.0949312330" lon="8.6811855394">
				<ele>1058.8</ele>
			</trkpt>
			<trkpt lat="47.0950741170" lon="8.6813561507">
				<ele>1061.5</ele>
			</trkpt>
			<trkpt lat="47.0952844605" lon="8.6816259138">
				<ele>1065.8</ele>
			</trkpt>
			<trkpt lat="47.0955082315" lon="8.6818876388">
				<ele>1070.1</ele>
			</trkpt>
			<trkpt lat="47.0955720462" lon="8.6819727692">
				<ele>1071.5</ele>
			</trkpt>
			<trkpt lat="47.0956019654" lon="8.6820236533">
				<ele>1072.2</ele>
			</trkpt>
			<trkpt lat="47.0956185859" lon="8.6820714360">
				<ele>1072.9</ele>
			</trkpt>
			<trkpt lat="47.0956217568" lon="8.6821300646">
				<ele>1073.4</ele>
			</trkpt>
			<trkpt lat="47.0956130727" lon="8.6821818709">
				<ele>1073.8</ele>
			</trkpt>
			<trkpt lat="47.0955935868" lon="8.6822259703">
				<ele>1074.1</ele>
			</trkpt>
			<trkpt lat="47.0955685311" lon="8.6822560432">
				<ele>1074.2</ele>
			</trkpt>
			<trkpt lat="47.0955265201" lon="8.6822717715">
				<ele>1074.3</ele>
			</trkpt>
			<trkpt lat="47.0954637099" lon="8.6822758861">
				<ele>1074.5</ele>
			</trkpt>
			<trkpt lat="47.0954124424" lon="8.6822691240">
				<ele>1074.8</ele>
			</trkpt>
			<trkpt lat="47.0953574821" lon="8.6822511452">
				<ele>1075.4</ele>
			</trkpt>
			<trkpt lat="47.0952364586" lon="8.6821870552">
				<ele>1077.2</ele>
			</trkpt>
			<trkpt lat="47.0951078473" lon="8.6821200231">
				<ele>1079.4</ele>
			</trkpt>
			<trkpt lat="47.0949166548" lon="8.6820376020">
				<ele>1082.4</ele>
			</trkpt>
			<trkpt lat="47.0947347878" lon="8.6819721277">
				<ele>1085.3</ele>
			</trkpt>
			<trkpt lat="47.0946380483" lon="8.6819476076">
				<ele>1086.9</ele>
			</trkpt>
			<trkpt lat="47.0945925131" lon="8.6819381865">
				<ele>1087.6</ele>
			</trkpt>
			<trkpt lat="47.0945468483" lon="8.6819399065">
				<ele>1088.2</ele>
			</trkpt>
			<trkpt lat="47.0944629075" lon="8.6819630401">
				<ele>1089.4</ele>
			</trkpt>
			<trkpt lat="47.0943674211" lon="8.6819997902">
				<ele>1090.7</ele>
			</trkpt>
			<trkpt lat="47.0943255004" lon="8.6820071821">
				<ele>1091.2</ele>
			</trkpt>
			<trkpt lat="47.0942684616" lon="8.6820058586">
				<ele>1092.0</ele>
			</trkpt>
			<trkpt lat="47.0941602365" lon="8.6819894241">
				<ele>1093.6</ele>
			</trkpt>
			<trkpt lat="47.0940823383" lon="8.6819820446">
				<ele>1094.9</ele>
			</trkpt>
			<trkpt lat="47.0940347757" lon="8.6819837337">
				<ele>1095.7</ele>
			</trkpt>
			<trkpt lat="47.0939869633" lon="8.6820076788">
				<ele>1096.6</ele>
			</trkpt>
			<trkpt lat="47.0939466781" lon="8.6820401769">
				<ele>1097.3</ele>
			</trkpt>
			<trkpt lat="47.0939194539" lon="8.6820952265">
				<ele>1097.9</ele>
			</trkpt>
			<trkpt lat="47.0939111522" lon="8.6821590932">
				<ele>1098.6</ele>
			</trkpt>
			<trkpt lat="47.0939201766" lon="8.6822038528">
				<ele>1099.0</ele>
			</trkpt>
			<trkpt lat="47.0939405450" lon="8.6822544479">
				<ele>1099.6</ele>
			</trkpt>
			<trkpt lat="47.0939649676" lon="8.6822828754">
				<ele>1100.1</ele>
			</trkpt>
			<trkpt lat="47.0940859609" lon="8.6823497425">
				<ele>1102.0</ele>
			</trkpt>
			<trkpt lat="47.0941538706" lon="8.6824014416">
				<ele>1103.0</ele>
			</trkpt>
			<trkpt lat="47.0942738996" lon="8.6825573886">
				<ele>1104.9</ele>
			</trkpt>
			<trkpt lat="47.0943692221" lon="8.6827127757">
				<ele>1106.6</ele>
			</trkpt>
			<trkpt lat="47.0945031327" lon="8.6829915939">
				<ele>1109.4</ele>
			</trkpt>
			<trkpt lat="47.0946014060" lon="8.6832250089">
				<ele>1111.6</ele>
			</trkpt>
			<trkpt lat="47.0946381953" lon="8.6833400591">
				<ele>1112.7</ele>
			</trkpt>
			<trkpt lat="47.0946800233" lon="8.6835164691">
				<ele>1114.3</ele>
			</trkpt>
			<trkpt lat="47.0947119219" lon="8.6837316530">
				<ele>1116.2</ele>
			</trkpt>
			<trkpt lat="47.0947198385" lon="8.6838794269">
				<ele>1117.2</ele>
			</trkpt>
			<trkpt lat="47.0947293115" lon="8.6840578908">
				<ele>1118.3</ele>
			</trkpt>
			<trkpt lat="47.0947227858" lon="8.6841329307">
				<ele>1118.7</ele>
			</trkpt>
			<trkpt lat="47.0947088290" lon="8.6841938738">
				<ele>1119.0</ele>
			</trkpt>
			<trkpt lat="47.0946852481" lon="8.6842629446">
				<ele>1119.5</ele>
			</trkpt>
			<trkpt lat="47.0946504230" lon="8.6843178436">
				<ele>1120.1</ele>
			</trkpt>
			<trkpt lat="47.0946081400" lon="8.6843586325">
				<ele>1120.7</ele>
			</trkpt>
			<trkpt lat="47.0945602455" lon="8.6843909258">
				<ele>1121.3</ele>
			</trkpt>
			<trkpt lat="47.0944628124" lon="8.6844304316">
				<ele>1122.4</ele>
			</trkpt>
			<trkpt lat="47.0944444244" lon="8.6844360033">
				<ele>1122.6</ele>
			</trkpt>
			<trkpt lat="47.0943006198" lon="8.6844795769">
				<ele>1124.3</ele>
			</trkpt>
			<trkpt lat="47.0941004406" lon="8.6845250584">
				<ele>1127.1</ele>
			</trkpt>
			<trkpt lat="47.0939422850" lon="8.6845520083">
				<ele>1129.5</ele>
			</trkpt>
			<trkpt lat="47.0938527411" lon="8.6845666424">
				<ele>1130.8</ele>
			</trkpt>
			<trkpt lat="47.0938221430" lon="8.6845826342">
				<ele>1131.2</ele>
			</trkpt>
			<trkpt lat="47.0937932826" lon="8.6846125900">
				<ele>1131.7</ele>
			</trkpt>
			<trkpt lat="47.0937410792" lon="8.6846921518">
				<ele>1132.6</ele>
			</trkpt>
			<trkpt lat="47.0936477567" lon="8.6848793526">
				<ele>1134.8</ele>
			</trkpt>
			<trkpt lat="47.0936131338" lon="8.6849147330">
				<ele>1135.4</ele>
			</trkpt>
			<trkpt lat="47.0935805684" lon="8.6849362641">
				<ele>1135.8</ele>
			</trkpt>
			<trkpt lat="47.0935291499" lon="8.6849434330">
				<ele>1136.7</ele>
			</trkpt>
			<trkpt lat="47.0934285254" lon="8.6849271555">
				<ele>1138.2</ele>
			</trkpt>
			<trkpt lat="47.0933580762" lon="8.6849338690">
				<ele>1139.2</ele>
			</trkpt>
			<trkpt lat="47.0932703697" lon="8.6849541039">
				<ele>1140.4</ele>
			</trkpt>
			<trkpt lat="47.0931921179" lon="8.6849801440">
				<ele>1141.4</ele>
			</trkpt>
			<trkpt lat="47.0930773972" lon="8.6850359493">
				<ele>1143.0</ele>
			</trkpt>
			<trkpt lat="47.0929168908" lon="8.6851046258">
				<ele>1145.1</ele>
			</trkpt>
			<trkpt lat="47.0928268814" lon="8.6851339745">
				<ele>1146.4</ele>
			</trkpt>
			<trkpt lat="47.0926935919" lon="8.6851774000">
				<ele>1148.3</ele>
			</trkpt>
			<trkpt lat="47.0924130035" lon="8.6852711281">
				<ele>1152.3</ele>
			</trkpt>
			<trkpt lat="47.0923748479" lon="8.6852813716">
				<ele>1152.8</ele>
			</trkpt>
			<trkpt lat="47.0923310292" lon="8.6852887168">
				<ele>1153.4</ele>
			</trkpt>
			<trkpt lat="47.0922170634" lon="8.6852749217">
				<ele>1154.9</ele>
			</trkpt>
			<trkpt lat="47.0921182848" lon="8.6852642722">
				<ele>1156.1</ele>
			</trkpt>
			<trkpt lat="47.0920612461" lon="8.6852629453">
				<ele>1156.8</ele>
			</trkpt>
			<trkpt lat="47.0920155208" lon="8.6852702333">
				<ele>1157.5</ele>
			</trkpt>
			<trkpt lat="47.0919620658" lon="8.6852884846">
				<ele>1158.2</ele>
			</trkpt>
			<trkpt lat="47.0919256143" lon="8.6853182753">
				<ele>1158.8</ele>
			</trkpt>
			<trkpt lat="47.0918909095" lon="8.6853620297">
				<ele>1159.6</ele>
			</trkpt>
			<trkpt lat="47.0918617468" lon="8.6854198234">
				<ele>1160.4</ele>
			</trkpt>
			<trkpt lat="47.0918420601" lon="8.6854806297">
				<ele>1161.1</ele>
			</trkpt>
			<trkpt lat="47.0918532668" lon="8.6854990948">
				<ele>1161.2</ele>
			</trkpt>
			<trkpt lat="47.0918613654" lon="8.6855457171">
				<ele>1161.9</ele>
			</trkpt>
			<trkpt lat="47.0918622335" lon="8.6855507143">
				<ele>1162.0</ele>
			</trkpt>
			<trkpt lat="47.0918643693" lon="8.6856283096">
				<ele>1163.3</ele>
			</trkpt>
			<trkpt lat="47.0918647437" lon="8.6857023859">
				<ele>1164.4</ele>
			</trkpt>
			<trkpt lat="47.0918720983" lon="8.6857922869">
				<ele>1165.8</ele>
			</trkpt>
			<trkpt lat="47.0918782655" lon="8.6858821859">
				<ele>1167.0</ele>
			</trkpt>
			<trkpt lat="47.0918829735" lon="8.6859424142">
				<ele>1167.4</ele>
			</trkpt>
			<trkpt lat="47.0918887739" lon="8.6860113878">
				<ele>1167.7</ele>
			</trkpt>
			<trkpt lat="47.0918947262" lon="8.6860655325">
				<ele>1168.0</ele>
			</trkpt>
			<trkpt lat="47.0919031373" lon="8.6861127929">
				<ele>1168.6</ele>
			</trkpt>
			<trkpt lat="47.0919175314" lon="8.6861566888">
				<ele>1169.6</ele>
			</trkpt>
			<trkpt lat="47.0919388863" lon="8.6862181738">
				<ele>1170.7</ele>
			</trkpt>
			<trkpt lat="47.0919585364" lon="8.6862717820">
				<ele>1171.2</ele>
			</trkpt>
			<trkpt lat="47.0919771791" lon="8.6863088082">
				<ele>1171.6</ele>
			</trkpt>
			<trkpt lat="47.0919928541" lon="8.6863448969">
				<ele>1171.9</ele>
			</trkpt>
			<trkpt lat="47.0919972999" lon="8.6863737554">
				<ele>1172.0</ele>
			</trkpt>
			<trkpt lat="47.0919957436" lon="8.6864077040">
				<ele>1171.7</ele>
			</trkpt>
			<trkpt lat="47.0919870752" lon="8.6864379961">
				<ele>1171.6</ele>
			</trkpt>
			<trkpt lat="47.0919726226" lon="8.6864542038">
				<ele>1171.8</ele>
			</trkpt>
			<trkpt lat="47.0919493049" lon="8.6864641197">
				<ele>1171.8</ele>
			</trkpt>
			<trkpt lat="47.0919195239" lon="8.6864677863">
				<ele>1171.8</ele>
			</trkpt>
			<trkpt lat="47.0918825653" lon="8.6864730110">
				<ele>1172.2</ele>
			</trkpt>
			<trkpt lat="47.0918598124" lon="8.6864864309">
				<ele>1172.3</ele>
			</trkpt>
			<trkpt lat="47.0918471212" lon="8.6865044314">
				<ele>1172.5</ele>
			</trkpt>
			<trkpt lat="47.0918367478" lon="8.6865277157">
				<ele>1172.8</ele>
			</trkpt>
			<trkpt lat="47.0918328646" lon="8.6865572500">
				<ele>1173.1</ele>
			</trkpt>
			<trkpt lat="47.0918354350" lon="8.6865939156">
				<ele>1173.8</ele>
			</trkpt>
			<trkpt lat="47.0918451936" lon="8.6866272448">
				<ele>1174.6</ele>
			</trkpt>
			<trkpt lat="47.0918702523" lon="8.6866748801">
				<ele>1176.2</ele>
			</trkpt>
			<trkpt lat="47.0918935480" lon="8.6867224735">
				<ele>1177.8</ele>
			</trkpt>
			<trkpt lat="47.0919173625" lon="8.6867753090">
				<ele>1179.1</ele>
			</trkpt>
			<trkpt lat="47.0919423067" lon="8.6868351260">
				<ele>1180.1</ele>
			</trkpt>
			<trkpt lat="47.0919613985" lon="8.6868845978">
				<ele>1180.4</ele>
			</trkpt>
			<trkpt lat="47.0919843347" lon="8.6869652859">
				<ele>1181.6</ele>
			</trkpt>
			<trkpt lat="47.0920000172" lon="8.6870545122">
				<ele>1183.8</ele>
			</trkpt>
			<trkpt lat="47.0920134765" lon="8.6871297627">
				<ele>1184.8</ele>
			</trkpt>
			<trkpt lat="47.0920273232" lon="8.6871701554">
				<ele>1185.1</ele>
			</trkpt>
			<trkpt lat="47.0920493469" lon="8.6872246885">
				<ele>1185.7</ele>
			</trkpt>
			<trkpt lat="47.0920809994" lon="8.6872689998">
				<ele>1186.3</ele>
			</trkpt>
			<trkpt lat="47.0921091573" lon="8.6873062618">
				<ele>1186.9</ele>
			</trkpt>
			<trkpt lat="47.0921374097" lon="8.6873347932">
				<ele>1187.3</ele>
			</trkpt>
			<trkpt lat="47.0921691294" lon="8.6873721116">
				<ele>1188.0</ele>
			</trkpt>
			<trkpt lat="47.0922100891" lon="8.6874358061">
				<ele>1189.7</ele>
			</trkpt>
			<trkpt lat="47.0922498707" lon="8.6874994604">
				<ele>1191.6</ele>
			</trkpt>
			<trkpt lat="47.0922766518" lon="8.6875541176">
				<ele>1193.0</ele>
			</trkpt>
			<trkpt lat="47.0922988178" lon="8.6875947045">
				<ele>1193.7</ele>
			</trkpt>
			<trkpt lat="47.0923195213" lon="8.6876614181">
				<ele>1195.3</ele>
			</trkpt>
			<trkpt lat="47.0923448222" lon="8.6877421622">
				<ele>1197.4</ele>
			</trkpt>
			<trkpt lat="47.0923679569" lon="8.6878037027">
				<ele>1199.1</ele>
			</trkpt>
			<trkpt lat="47.0923948048" lon="8.6878513670">
				<ele>1200.7</ele>
			</trkpt>
			<trkpt lat="47.0924275875" lon="8.6879009353">
				<ele>1202.1</ele>
			</trkpt>
			<trkpt lat="47.0924710629" lon="8.6879524783">
				<ele>1203.4</ele>
			</trkpt>
			<trkpt lat="47.0925203697" lon="8.6880146163">
				<ele>1205.3</ele>
			</trkpt>
			<trkpt lat="47.0925591531" lon="8.6880608339">
				<ele>1206.9</ele>
			</trkpt>
			<trkpt lat="47.0925872920" lon="8.6880998215">
				<ele>1208.0</ele>
			</trkpt>
			<trkpt lat="47.0926191625" lon="8.6881232216">
				<ele>1208.6</ele>
			</trkpt>
			<trkpt lat="47.0926524279" lon="8.6881292264">
				<ele>1209.2</ele>
			</trkpt>
			<trkpt lat="47.0927012102" lon="8.6881303638">
				<ele>1210.2</ele>
			</trkpt>
			<trkpt lat="47.0927749877" lon="8.6881303321">
				<ele>1212.5</ele>
			</trkpt>
			<trkpt lat="47.0928071135" lon="8.6881310812">
				<ele>1213.3</ele>
			</trkpt>
			<trkpt lat="47.0928426962" lon="8.6881423699">
				<ele>1214.1</ele>
			</trkpt>
			<trkpt lat="47.0928782600" lon="8.6881553972">
				<ele>1214.7</ele>
			</trkpt>
			<trkpt lat="47.0929100550" lon="8.6881857632">
				<ele>1215.6</ele>
			</trkpt>
			<trkpt lat="47.0929441942" lon="8.6882214138">
				<ele>1216.8</ele>
			</trkpt>
			<trkpt lat="47.0929784861" lon="8.6882413797">
				<ele>1217.5</ele>
			</trkpt>
			<trkpt lat="47.0930093402" lon="8.6882490810">
				<ele>1217.6</ele>
			</trkpt>
			<trkpt lat="47.0930462616" lon="8.6882464510">
				<ele>1217.6</ele>
			</trkpt>
			<trkpt lat="47.0930831454" lon="8.6882473111">
				<ele>1217.8</ele>
			</trkpt>
			<trkpt lat="47.0931174752" lon="8.6882637871">
				<ele>1218.0</ele>
			</trkpt>
			<trkpt lat="47.0931515866" lon="8.6883011891">
				<ele>1218.8</ele>
			</trkpt>
			<trkpt lat="47.0931808175" lon="8.6883489100">
				<ele>1219.9</ele>
			</trkpt>
			<trkpt lat="47.0932146726" lon="8.6884107017">
				<ele>1221.1</ele>
			</trkpt>
			<trkpt lat="47.0932448731" lon="8.6884776254">
				<ele>1222.2</ele>
			</trkpt>
			<trkpt lat="47.0932773048" lon="8.6885602759">
				<ele>1223.1</ele>
			</trkpt>
			<trkpt lat="47.0933096890" lon="8.6886464300">
				<ele>1224.7</ele>
			</trkpt>
			<trkpt lat="47.0933327288" lon="8.6887166770">
				<ele>1226.6</ele>
			</trkpt>
			<trkpt lat="47.0933593578" lon="8.6887852559">
				<ele>1227.7</ele>
			</trkpt>
			<trkpt lat="47.0933849799" lon="8.6888363840">
				<ele>1228.3</ele>
			</trkpt>
			<trkpt lat="47.0934068891" lon="8.6889013749">
				<ele>1229.1</ele>
			</trkpt>
			<trkpt lat="47.0934275641" lon="8.6889698288">
				<ele>1230.0</ele>
			</trkpt>
			<trkpt lat="47.0934563589" lon="8.6890576250">
				<ele>1231.0</ele>
			</trkpt>
			<trkpt lat="47.0934839472" lon="8.6891471450">
				<ele>1232.3</ele>
			</trkpt>
			<trkpt lat="47.0935058751" lon="8.6892103975">
				<ele>1233.0</ele>
			</trkpt>
			<trkpt lat="47.0935383917" lon="8.6892843443">
				<ele>1233.9</ele>
			</trkpt>
			<trkpt lat="47.0935649547" lon="8.6893581523">
				<ele>1234.7</ele>
			</trkpt>
			<trkpt lat="47.0935878700" lon="8.6894405954">
				<ele>1235.7</ele>
			</trkpt>
			<trkpt lat="47.0935918789" lon="8.6895086591">
				<ele>1236.7</ele>
			</trkpt>
			<trkpt lat="47.0935817755" lon="8.6895624327">
				<ele>1237.3</ele>
			</trkpt>
			<trkpt lat="47.0935679119" lon="8.6896335701">
				<ele>1238.2</ele>
			</trkpt>
			<trkpt lat="47.0935601259" lon="8.6896926270">
				<ele>1239.2</ele>
			</trkpt>
			<trkpt lat="47.0935522451" lon="8.6897604002">
				<ele>1239.8</ele>
			</trkpt>
			<trkpt lat="47.0935261501" lon="8.6898626175">
				<ele>1241.0</ele>
			</trkpt>
			<trkpt lat="47.0934928390" lon="8.6899698826">
				<ele>1242.3</ele>
			</trkpt>
			<trkpt lat="47.0934764781" lon="8.6900513942">
				<ele>1243.9</ele>
			</trkpt>
			<trkpt lat="47.0934544755" lon="8.6901049026">
				<ele>1245.0</ele>
			</trkpt>
			<trkpt lat="47.0934326434" lon="8.6901427514">
				<ele>1245.8</ele>
			</trkpt>
			<trkpt lat="47.0934001002" lon="8.6901803244">
				<ele>1247.2</ele>
			</trkpt>
			<trkpt lat="47.0933617259" lon="8.6902073011">
				<ele>1247.8</ele>
			</trkpt>
			<trkpt lat="47.0933294292" lon="8.6902222343">
				<ele>1248.8</ele>
			</trkpt>
			<trkpt lat="47.0932920522" lon="8.6902666633">
				<ele>1250.4</ele>
			</trkpt>
			<trkpt lat="47.0932605441" lon="8.6903182095">
				<ele>1251.6</ele>
			</trkpt>
			<trkpt lat="47.0932253227" lon="8.6903836054">
				<ele>1252.9</ele>
			</trkpt>
			<trkpt lat="47.0931900634" lon="8.6904524784">
				<ele>1254.3</ele>
			</trkpt>
			<trkpt lat="47.0931669405" lon="8.6904990040">
				<ele>1255.0</ele>
			</trkpt>
			<trkpt lat="47.0931354894" lon="8.6905453093">
				<ele>1256.1</ele>
			</trkpt>
			<trkpt lat="47.0931103716" lon="8.6905569191">
				<ele>1256.5</ele>
			</trkpt>
			<trkpt lat="47.0930841717" lon="8.6905580597">
				<ele>1256.9</ele>
			</trkpt>
			<trkpt lat="47.0930355031" lon="8.6905464628">
				<ele>1257.7</ele>
			</trkpt>
			<trkpt lat="47.0930307495" lon="8.6905448740">
				<ele>1257.7</ele>
			</trkpt>
		<trkpt lat="47.0930355031" lon="8.6905464628">
				<ele>1257.7</ele>
			</trkpt>
			<trkpt lat="47.0930841717" lon="8.6905580597">
				<ele>1256.9</ele>
			</trkpt>
			<trkpt lat="47.0931103716" lon="8.6905569191">
				<ele>1256.5</ele>
			</trkpt>
			<trkpt lat="47.0931354894" lon="8.6905453093">
				<ele>1256.1</ele>
			</trkpt>
			<trkpt lat="47.0931669405" lon="8.6904990040">
				<ele>1255.0</ele>
			</trkpt>
			<trkpt lat="47.0931900634" lon="8.6904524784">
				<ele>1254.3</ele>
			</trkpt>
			<trkpt lat="47.0932253227" lon="8.6903836054">
				<ele>1252.9</ele>
			</trkpt>
			<trkpt lat="47.0932605441" lon="8.6903182095">
				<ele>1251.6</ele>
			</trkpt>
			<trkpt lat="47.0932920522" lon="8.6902666633">
				<ele>1250.4</ele>
			</trkpt>
			<trkpt lat="47.0933294292" lon="8.6902222343">
				<ele>1248.8</ele>
			</trkpt>
			<trkpt lat="47.0933617259" lon="8.6902073011">
				<ele>1247.8</ele>
			</trkpt>
			<trkpt lat="47.0934001002" lon="8.6901803244">
				<ele>1247.2</ele>
			</trkpt>
			<trkpt lat="47.0934326434" lon="8.6901427514">
				<ele>1245.8</ele>
			</trkpt>
			<trkpt lat="47.0934544755" lon="8.6901049026">
				<ele>1245.0</ele>
			</trkpt>
			<trkpt lat="47.0934764781" lon="8.6900513942">
				<ele>1243.9</ele>
			</trkpt>
			<trkpt lat="47.0934928390" lon="8.6899698826">
				<ele>1242.3</ele>
			</trkpt>
			<trkpt lat="47.0935261501" lon="8.6898626175">
				<ele>1241.0</ele>
			</trkpt>
			<trkpt lat="47.0935522451" lon="8.6897604002">
				<ele>1239.8</ele>
			</trkpt>
			<trkpt lat="47.0935601259" lon="8.6896926270">
				<ele>1239.2</ele>
			</trkpt>
			<trkpt lat="47.0935679119" lon="8.6896335701">
				<ele>1238.2</ele>
			</trkpt>
			<trkpt lat="47.0935817755" lon="8.6895624327">
				<ele>1237.3</ele>
			</trkpt>
			<trkpt lat="47.0935918789" lon="8.6895086591">
				<ele>1236.7</ele>
			</trkpt>
			<trkpt lat="47.0935878700" lon="8.6894405954">
				<ele>1235.7</ele>
			</trkpt>
			<trkpt lat="47.0935649547" lon="8.6893581523">
				<ele>1234.7</ele>
			</trkpt>
			<trkpt lat="47.0935383917" lon="8.6892843443">
				<ele>1233.9</ele>
			</trkpt>
			<trkpt lat="47.0935058751" lon="8.6892103975">
				<ele>1233.0</ele>
			</trkpt>
			<trkpt lat="47.0934839472" lon="8.6891471450">
				<ele>1232.3</ele>
			</trkpt>
			<trkpt lat="47.0934563589" lon="8.6890576250">
				<ele>1231.0</ele>
			</trkpt>
			<trkpt lat="47.0934275641" lon="8.6889698288">
				<ele>1230.0</ele>
			</trkpt>
			<trkpt lat="47.0934068891" lon="8.6889013749">
				<ele>1229.1</ele>
			</trkpt>
			<trkpt lat="47.0933849799" lon="8.6888363840">
				<ele>1228.3</ele>
			</trkpt>
			<trkpt lat="47.0933593578" lon="8.6887852559">
				<ele>1227.7</ele>
			</trkpt>
			<trkpt lat="47.0933327288" lon="8.6887166770">
				<ele>1226.6</ele>
			</trkpt>
			<trkpt lat="47.0933096890" lon="8.6886464300">
				<ele>1224.7</ele>
			</trkpt>
			<trkpt lat="47.0932773048" lon="8.6885602759">
				<ele>1223.1</ele>
			</trkpt>
			<trkpt lat="47.0932448731" lon="8.6884776254">
				<ele>1222.2</ele>
			</trkpt>
			<trkpt lat="47.0932146726" lon="8.6884107017">
				<ele>1221.1</ele>
			</trkpt>
			<trkpt lat="47.0931808175" lon="8.6883489100">
				<ele>1219.9</ele>
			</trkpt>
			<trkpt lat="47.0931515866" lon="8.6883011891">
				<ele>1218.8</ele>
			</trkpt>
			<trkpt lat="47.0931174752" lon="8.6882637871">
				<ele>1218.0</ele>
			</trkpt>
			<trkpt lat="47.0930831454" lon="8.6882473111">
				<ele>1217.8</ele>
			</trkpt>
			<trkpt lat="47.0930462616" lon="8.6882464510">
				<ele>1217.6</ele>
			</trkpt>
			<trkpt lat="47.0930093402" lon="8.6882490810">
				<ele>1217.6</ele>
			</trkpt>
			<trkpt lat="47.0929784861" lon="8.6882413797">
				<ele>1217.5</ele>
			</trkpt>
			<trkpt lat="47.0929441942" lon="8.6882214138">
				<ele>1216.8</ele>
			</trkpt>
			<trkpt lat="47.0929100550" lon="8.6881857632">
				<ele>1215.6</ele>
			</trkpt>
			<trkpt lat="47.0928782600" lon="8.6881553972">
				<ele>1214.7</ele>
			</trkpt>
			<trkpt lat="47.0928426962" lon="8.6881423699">
				<ele>1214.1</ele>
			</trkpt>
			<trkpt lat="47.0928071135" lon="8.6881310812">
				<ele>1213.3</ele>
			</trkpt>
			<trkpt lat="47.0927749877" lon="8.6881303321">
				<ele>1212.5</ele>
			</trkpt>
			<trkpt lat="47.0927012102" lon="8.6881303638">
				<ele>1210.2</ele>
			</trkpt>
			<trkpt lat="47.0926524279" lon="8.6881292264">
				<ele>1209.2</ele>
			</trkpt>
			<trkpt lat="47.0926191625" lon="8.6881232216">
				<ele>1208.6</ele>
			</trkpt>
			<trkpt lat="47.0925872920" lon="8.6880998215">
				<ele>1208.0</ele>
			</trkpt>
			<trkpt lat="47.0925591531" lon="8.6880608339">
				<ele>1206.9</ele>
			</trkpt>
			<trkpt lat="47.0925203697" lon="8.6880146163">
				<ele>1205.3</ele>
			</trkpt>
			<trkpt lat="47.0924710629" lon="8.6879524783">
				<ele>1203.4</ele>
			</trkpt>
			<trkpt lat="47.0924275875" lon="8.6879009353">
				<ele>1202.1</ele>
			</trkpt>
			<trkpt lat="47.0923948048" lon="8.6878513670">
				<ele>1200.7</ele>
			</trkpt>
			<trkpt lat="47.0923679569" lon="8.6878037027">
				<ele>1199.1</ele>
			</trkpt>
			<trkpt lat="47.0923448222" lon="8.6877421622">
				<ele>1197.4</ele>
			</trkpt>
			<trkpt lat="47.0923195213" lon="8.6876614181">
				<ele>1195.3</ele>
			</trkpt>
			<trkpt lat="47.0922988178" lon="8.6875947045">
				<ele>1193.7</ele>
			</trkpt>
			<trkpt lat="47.0922766518" lon="8.6875541176">
				<ele>1193.0</ele>
			</trkpt>
			<trkpt lat="47.0922498707" lon="8.6874994604">
				<ele>1191.6</ele>
			</trkpt>
			<trkpt lat="47.0922100891" lon="8.6874358061">
				<ele>1189.7</ele>
			</trkpt>
			<trkpt lat="47.0921691294" lon="8.6873721116">
				<ele>1188.0</ele>
			</trkpt>
			<trkpt lat="47.0921374097" lon="8.6873347932">
				<ele>1187.3</ele>
			</trkpt>
			<trkpt lat="47.0921091573" lon="8.6873062618">
				<ele>1186.9</ele>
			</trkpt>
			<trkpt lat="47.0920809994" lon="8.6872689998">
				<ele>1186.3</ele>
			</trkpt>
			<trkpt lat="47.0920493469" lon="8.6872246885">
				<ele>1185.7</ele>
			</trkpt>
			<trkpt lat="47.0920273232" lon="8.6871701554">
				<ele>1185.1</ele>
			</trkpt>
			<trkpt lat="47.0920134765" lon="8.6871297627">
				<ele>1184.8</ele>
			</trkpt>
			<trkpt lat="47.0920000172" lon="8.6870545122">
				<ele>1183.8</ele>
			</trkpt>
			<trkpt lat="47.0919843347" lon="8.6869652859">
				<ele>1181.6</ele>
			</trkpt>
			<trkpt lat="47.0919613985" lon="8.6868845978">
				<ele>1180.4</ele>
			</trkpt>
			<trkpt lat="47.0919423067" lon="8.6868351260">
				<ele>1180.1</ele>
			</trkpt>
			<trkpt lat="47.0919173625" lon="8.6867753090">
				<ele>1179.1</ele>
			</trkpt>
			<trkpt lat="47.0918935480" lon="8.6867224735">
				<ele>1177.8</ele>
			</trkpt>
			<trkpt lat="47.0918702523" lon="8.6866748801">
				<ele>1176.2</ele>
			</trkpt>
			<trkpt lat="47.0918451936" lon="8.6866272448">
				<ele>1174.6</ele>
			</trkpt>
			<trkpt lat="47.0918354350" lon="8.6865939156">
				<ele>1173.8</ele>
			</trkpt>
			<trkpt lat="47.0918328646" lon="8.6865572500">
				<ele>1173.1</ele>
			</trkpt>
			<trkpt lat="47.0918367478" lon="8.6865277157">
				<ele>1172.8</ele>
			</trkpt>
			<trkpt lat="47.0918471212" lon="8.6865044314">
				<ele>1172.5</ele>
			</trkpt>
			<trkpt lat="47.0918598124" lon="8.6864864309">
				<ele>1172.3</ele>
			</trkpt>
			<trkpt lat="47.0918825653" lon="8.6864730110">
				<ele>1172.2</ele>
			</trkpt>
			<trkpt lat="47.0919195239" lon="8.6864677863">
				<ele>1171.8</ele>
			</trkpt>
			<trkpt lat="47.0919493049" lon="8.6864641197">
				<ele>1171.8</ele>
			</trkpt>
			<trkpt lat="47.0919726226" lon="8.6864542038">
				<ele>1171.8</ele>
			</trkpt>
			<trkpt lat="47.0919870752" lon="8.6864379961">
				<ele>1171.6</ele>
			</trkpt>
			<trkpt lat="47.0919957436" lon="8.6864077040">
				<ele>1171.7</ele>
			</trkpt>
			<trkpt lat="47.0919972999" lon="8.6863737554">
				<ele>1172.0</ele>
			</trkpt>
			<trkpt lat="47.0919928541" lon="8.6863448969">
				<ele>1171.9</ele>
			</trkpt>
			<trkpt lat="47.0919771791" lon="8.6863088082">
				<ele>1171.6</ele>
			</trkpt>
			<trkpt lat="47.0919585364" lon="8.6862717820">
				<ele>1171.2</ele>
			</trkpt>
			<trkpt lat="47.0919388863" lon="8.6862181738">
				<ele>1170.7</ele>
			</trkpt>
			<trkpt lat="47.0919175314" lon="8.6861566888">
				<ele>1169.6</ele>
			</trkpt>
			<trkpt lat="47.0919031373" lon="8.6861127929">
				<ele>1168.6</ele>
			</trkpt>
			<trkpt lat="47.0918947262" lon="8.6860655325">
				<ele>1168.0</ele>
			</trkpt>
			<trkpt lat="47.0918887739" lon="8.6860113878">
				<ele>1167.7</ele>
			</trkpt>
			<trkpt lat="47.0918829735" lon="8.6859424142">
				<ele>1167.4</ele>
			</trkpt>
			<trkpt lat="47.0918782655" lon="8.6858821859">
				<ele>1167.0</ele>
			</trkpt>
			<trkpt lat="47.0918720983" lon="8.6857922869">
				<ele>1165.8</ele>
			</trkpt>
			<trkpt lat="47.0918647437" lon="8.6857023859">
				<ele>1164.4</ele>
			</trkpt>
			<trkpt lat="47.0918643693" lon="8.6856283096">
				<ele>1163.3</ele>
			</trkpt>
			<trkpt lat="47.0918622335" lon="8.6855507143">
				<ele>1162.0</ele>
			</trkpt>
			<trkpt lat="47.0918613654" lon="8.6855457171">
				<ele>1161.9</ele>
			</trkpt>
			<trkpt lat="47.0918532668" lon="8.6854990948">
				<ele>1161.2</ele>
			</trkpt>
			<trkpt lat="47.0918420601" lon="8.6854806297">
				<ele>1161.1</ele>
			</trkpt>
			<trkpt lat="47.0918617468" lon="8.6854198234">
				<ele>1160.4</ele>
			</trkpt>
			<trkpt lat="47.0918909095" lon="8.6853620297">
				<ele>1159.6</ele>
			</trkpt>
			<trkpt lat="47.0919256143" lon="8.6853182753">
				<ele>1158.8</ele>
			</trkpt>
			<trkpt lat="47.0919620658" lon="8.6852884846">
				<ele>1158.2</ele>
			</trkpt>
			<trkpt lat="47.0920155208" lon="8.6852702333">
				<ele>1157.5</ele>
			</trkpt>
			<trkpt lat="47.0920612461" lon="8.6852629453">
				<ele>1156.8</ele>
			</trkpt>
			<trkpt lat="47.0921182848" lon="8.6852642722">
				<ele>1156.1</ele>
			</trkpt>
			<trkpt lat="47.0922170634" lon="8.6852749217">
				<ele>1154.9</ele>
			</trkpt>
			<trkpt lat="47.0923310292" lon="8.6852887168">
				<ele>1153.4</ele>
			</trkpt>
			<trkpt lat="47.0923748479" lon="8.6852813716">
				<ele>1152.8</ele>
			</trkpt>
			<trkpt lat="47.0924130035" lon="8.6852711281">
				<ele>1152.3</ele>
			</trkpt>
			<trkpt lat="47.0926935919" lon="8.6851774000">
				<ele>1148.3</ele>
			</trkpt>
			<trkpt lat="47.0928268814" lon="8.6851339745">
				<ele>1146.4</ele>
			</trkpt>
			<trkpt lat="47.0929168908" lon="8.6851046258">
				<ele>1145.1</ele>
			</trkpt>
			<trkpt lat="47.0930773972" lon="8.6850359493">
				<ele>1143.0</ele>
			</trkpt>
			<trkpt lat="47.0931921179" lon="8.6849801440">
				<ele>1141.4</ele>
			</trkpt>
			<trkpt lat="47.0932703697" lon="8.6849541039">
				<ele>1140.4</ele>
			</trkpt>
			<trkpt lat="47.0933580762" lon="8.6849338690">
				<ele>1139.2</ele>
			</trkpt>
			<trkpt lat="47.0934285254" lon="8.6849271555">
				<ele>1138.2</ele>
			</trkpt>
			<trkpt lat="47.0935291499" lon="8.6849434330">
				<ele>1136.7</ele>
			</trkpt>
			<trkpt lat="47.0935805684" lon="8.6849362641">
				<ele>1135.8</ele>
			</trkpt>
			<trkpt lat="47.0936131338" lon="8.6849147330">
				<ele>1135.4</ele>
			</trkpt>
			<trkpt lat="47.0936477567" lon="8.6848793526">
				<ele>1134.8</ele>
			</trkpt>
			<trkpt lat="47.0937410792" lon="8.6846921518">
				<ele>1132.6</ele>
			</trkpt>
			<trkpt lat="47.0937932826" lon="8.6846125900">
				<ele>1131.7</ele>
			</trkpt>
			<trkpt lat="47.0938221430" lon="8.6845826342">
				<ele>1131.2</ele>
			</trkpt>
			<trkpt lat="47.0938527411" lon="8.6845666424">
				<ele>1130.8</ele>
			</trkpt>
			<trkpt lat="47.0939422850" lon="8.6845520083">
				<ele>1129.5</ele>
			</trkpt>
			<trkpt lat="47.0941004406" lon="8.6845250584">
				<ele>1127.1</ele>
			</trkpt>
			<trkpt lat="47.0943006198" lon="8.6844795769">
				<ele>1124.3</ele>
			</trkpt>
			<trkpt lat="47.0944444244" lon="8.6844360033">
				<ele>1122.6</ele>
			</trkpt>
			<trkpt lat="47.0944628124" lon="8.6844304316">
				<ele>1122.4</ele>
			</trkpt>
			<trkpt lat="47.0945602455" lon="8.6843909258">
				<ele>1121.3</ele>
			</trkpt>
			<trkpt lat="47.0946081400" lon="8.6843586325">
				<ele>1120.7</ele>
			</trkpt>
			<trkpt lat="47.0946504230" lon="8.6843178436">
				<ele>1120.1</ele>
			</trkpt>
			<trkpt lat="47.0946852481" lon="8.6842629446">
				<ele>1119.5</ele>
			</trkpt>
			<trkpt lat="47.0947088290" lon="8.6841938738">
				<ele>1119.0</ele>
			</trkpt>
			<trkpt lat="47.0947227858" lon="8.6841329307">
				<ele>1118.7</ele>
			</trkpt>
			<trkpt lat="47.0947293115" lon="8.6840578908">
				<ele>1118.3</ele>
			</trkpt>
			<trkpt lat="47.0947198385" lon="8.6838794269">
				<ele>1117.2</ele>
			</trkpt>
			<trkpt lat="47.0947119219" lon="8.6837316530">
				<ele>1116.2</ele>
			</trkpt>
			<trkpt lat="47.0946800233" lon="8.6835164691">
				<ele>1114.3</ele>
			</trkpt>
			<trkpt lat="47.0946381953" lon="8.6833400591">
				<ele>1112.7</ele>
			</trkpt>
			<trkpt lat="47.0946014060" lon="8.6832250089">
				<ele>1111.6</ele>
			</trkpt>
			<trkpt lat="47.0945031327" lon="8.6829915939">
				<ele>1109.4</ele>
			</trkpt>
			<trkpt lat="47.0943692221" lon="8.6827127757">
				<ele>1106.6</ele>
			</trkpt>
			<trkpt lat="47.0942738996" lon="8.6825573886">
				<ele>1104.9</ele>
			</trkpt>
			<trkpt lat="47.0941538706" lon="8.6824014416">
				<ele>1103.0</ele>
			</trkpt>
			<trkpt lat="47.0940859609" lon="8.6823497425">
				<ele>1102.0</ele>
			</trkpt>
			<trkpt lat="47.0939649676" lon="8.6822828754">
				<ele>1100.1</ele>
			</trkpt>
			<trkpt lat="47.0939405450" lon="8.6822544479">
				<ele>1099.6</ele>
			</trkpt>
			<trkpt lat="47.0939201766" lon="8.6822038528">
				<ele>1099.0</ele>
			</trkpt>
			<trkpt lat="47.0939111522" lon="8.6821590932">
				<ele>1098.6</ele>
			</trkpt>
			<trkpt lat="47.0939194539" lon="8.6820952265">
				<ele>1097.9</ele>
			</trkpt>
			<trkpt lat="47.0939466781" lon="8.6820401769">
				<ele>1097.3</ele>
			</trkpt>
			<trkpt lat="47.0939869633" lon="8.6820076788">
				<ele>1096.6</ele>
			</trkpt>
			<trkpt lat="47.0940347757" lon="8.6819837337">
				<ele>1095.7</ele>
			</trkpt>
			<trkpt lat="47.0940823383" lon="8.6819820446">
				<ele>1094.9</ele>
			</trkpt>
			<trkpt lat="47.0941602365" lon="8.6819894241">
				<ele>1093.6</ele>
			</trkpt>
			<trkpt lat="47.0942684616" lon="8.6820058586">
				<ele>1092.0</ele>
			</trkpt>
			<trkpt lat="47.0943255004" lon="8.6820071821">
				<ele>1091.2</ele>
			</trkpt>
			<trkpt lat="47.0943674211" lon="8.6819997902">
				<ele>1090.7</ele>
			</trkpt>
			<trkpt lat="47.0944629075" lon="8.6819630401">
				<ele>1089.4</ele>
			</trkpt>
			<trkpt lat="47.0945468483" lon="8.6819399065">
				<ele>1088.2</ele>
			</trkpt>
			<trkpt lat="47.0945925131" lon="8.6819381865">
				<ele>1087.6</ele>
			</trkpt>
			<trkpt lat="47.0946380483" lon="8.6819476076">
				<ele>1086.9</ele>
			</trkpt>
			<trkpt lat="47.0947347878" lon="8.6819721277">
				<ele>1085.3</ele>
			</trkpt>
			<trkpt lat="47.0949166548" lon="8.6820376020">
				<ele>1082.4</ele>
			</trkpt>
			<trkpt lat="47.0951078473" lon="8.6821200231">
				<ele>1079.4</ele>
			</trkpt>
			<trkpt lat="47.0952364586" lon="8.6821870552">
				<ele>1077.2</ele>
			</trkpt>
			<trkpt lat="47.0953574821" lon="8.6822511452">
				<ele>1075.4</ele>
			</trkpt>
			<trkpt lat="47.0954124424" lon="8.6822691240">
				<ele>1074.8</ele>
			</trkpt>
			<trkpt lat="47.0954637099" lon="8.6822758861">
				<ele>1074.5</ele>
			</trkpt>
			<trkpt lat="47.0955265201" lon="8.6822717715">
				<ele>1074.3</ele>
			</trkpt>
			<trkpt lat="47.0955685311" lon="8.6822560432">
				<ele>1074.2</ele>
			</trkpt>
			<trkpt lat="47.0955935868" lon="8.6822259703">
				<ele>1074.1</ele>
			</trkpt>
			<trkpt lat="47.0956130727" lon="8.6821818709">
				<ele>1073.8</ele>
			</trkpt>
			<trkpt lat="47.0956217568" lon="8.6821300646">
				<ele>1073.4</ele>
			</trkpt>
			<trkpt lat="47.0956185859" lon="8.6820714360">
				<ele>1072.9</ele>
			</trkpt>
			<trkpt lat="47.0956019654" lon="8.6820236533">
				<ele>1072.2</ele>
			</trkpt>
			<trkpt lat="47.0955720462" lon="8.6819727692">
				<ele>1071.5</ele>
			</trkpt>
			<trkpt lat="47.0955082315" lon="8.6818876388">
				<ele>1070.1</ele>
			</trkpt>
			<trkpt lat="47.0952844605" lon="8.6816259138">
				<ele>1065.8</ele>
			</trkpt>
			<trkpt lat="47.0950741170" lon="8.6813561507">
				<ele>1061.5</ele>
			</trkpt>
			<trkpt lat="47.0949312330" lon="8.6811855394">
				<ele>1058.8</ele>
			</trkpt>
			<trkpt lat="47.0947111230" lon="8.6809378555">
				<ele>1054.9</ele>
			</trkpt>
			<trkpt lat="47.0946357346" lon="8.6808663966">
				<ele>1053.6</ele>
			</trkpt>
			<trkpt lat="47.0945622139" lon="8.6807977736">
				<ele>1052.3</ele>
			</trkpt>
			<trkpt lat="47.0944778431" lon="8.6806759313">
				<ele>1050.6</ele>
			</trkpt>
			<trkpt lat="47.0944050453" lon="8.6805404073">
				<ele>1048.6</ele>
			</trkpt>
			<trkpt lat="47.0943808155" lon="8.6804924365">
				<ele>1047.8</ele>
			</trkpt>
			<trkpt lat="47.0943605015" lon="8.6804334122">
				<ele>1047.1</ele>
			</trkpt>
			<trkpt lat="47.0943668451" lon="8.6803750056">
				<ele>1046.3</ele>
			</trkpt>
			<trkpt lat="47.0943844302" lon="8.6803335893">
				<ele>1045.7</ele>
			</trkpt>
			<trkpt lat="47.0944133471" lon="8.6803008000">
				<ele>1045.0</ele>
			</trkpt>
			<trkpt lat="47.0944498123" lon="8.6802737711">
				<ele>1044.4</ele>
			</trkpt>
			<trkpt lat="47.0945033086" lon="8.6802582812">
				<ele>1043.6</ele>
			</trkpt>
			<trkpt lat="47.0945738296" lon="8.6802515502">
				<ele>1042.8</ele>
			</trkpt>
			<trkpt lat="47.0947240949" lon="8.6802661763">
				<ele>1041.2</ele>
			</trkpt>
			<trkpt lat="47.0948154119" lon="8.6802738772">
				<ele>1040.1</ele>
			</trkpt>
			<trkpt lat="47.0948783845" lon="8.6802613862">
				<ele>1039.3</ele>
			</trkpt>
			<trkpt lat="47.0949472186" lon="8.6802351070">
				<ele>1038.4</ele>
			</trkpt>
			<trkpt lat="47.0950297220" lon="8.6801784643">
				<ele>1037.2</ele>
			</trkpt>
			<trkpt lat="47.0951584380" lon="8.6800727026">
				<ele>1035.3</ele>
			</trkpt>
			<trkpt lat="47.0952447669" lon="8.6800133423">
				<ele>1034.1</ele>
			</trkpt>
			<trkpt lat="47.0953251737" lon="8.6799733801">
				<ele>1033.1</ele>
			</trkpt>
			<trkpt lat="47.0954017972" lon="8.6799305510">
				<ele>1032.2</ele>
			</trkpt>
			<trkpt lat="47.0954325693" lon="8.6799033895">
				<ele>1031.8</ele>
			</trkpt>
			<trkpt lat="47.0954481785" lon="8.6798674854">
				<ele>1031.3</ele>
			</trkpt>
			<trkpt lat="47.0954543109" lon="8.6798286085">
				<ele>1030.8</ele>
			</trkpt>
			<trkpt lat="47.0954529252" lon="8.6797811662">
				<ele>1030.2</ele>
			</trkpt>
			<trkpt lat="47.0954400869" lon="8.6797362644">
				<ele>1029.7</ele>
			</trkpt>
			<trkpt lat="47.0954119531" lon="8.6796965677">
				<ele>1029.1</ele>
			</trkpt>
			<trkpt lat="47.0952626331" lon="8.6795927305">
				<ele>1026.9</ele>
			</trkpt>
			<trkpt lat="47.0951568510" lon="8.6795149966">
				<ele>1025.4</ele>
			</trkpt>
			<trkpt lat="47.0951288374" lon="8.6794641586">
				<ele>1024.9</ele>
			</trkpt>
			<trkpt lat="47.0951178967" lon="8.6794193010">
				<ele>1024.4</ele>
			</trkpt>
			<trkpt lat="47.0951166734" lon="8.6793551331">
				<ele>1023.8</ele>
			</trkpt>
			<trkpt lat="47.0951307336" lon="8.6792885392">
				<ele>1023.3</ele>
			</trkpt>
			<trkpt lat="47.0951988255" lon="8.6791534975">
				<ele>1022.0</ele>
			</trkpt>
			<trkpt lat="47.0952240971" lon="8.6791066727">
				<ele>1021.6</ele>
			</trkpt>
			<trkpt lat="47.0952588753" lon="8.6790600678">
				<ele>1021.2</ele>
			</trkpt>
			<trkpt lat="47.0952885237" lon="8.6790328139">
				<ele>1021.0</ele>
			</trkpt>
			<trkpt lat="47.0953115710" lon="8.6790145361">
				<ele>1020.8</ele>
			</trkpt>
			<trkpt lat="47.0953358680" lon="8.6790130040">
				<ele>1020.6</ele>
			</trkpt>
			<trkpt lat="47.0953587123" lon="8.6790135328">
				<ele>1020.3</ele>
			</trkpt>
			<trkpt lat="47.0953900285" lon="8.6790226227">
				<ele>1019.9</ele>
			</trkpt>
			<trkpt lat="47.0954298029" lon="8.6790423676">
				<ele>1019.3</ele>
			</trkpt>
			<trkpt lat="47.0954979297" lon="8.6790815805">
				<ele>1018.3</ele>
			</trkpt>
			<trkpt lat="47.0955911429" lon="8.6791486293">
				<ele>1017.0</ele>
			</trkpt>
			<trkpt lat="47.0958990403" lon="8.6793788330">
				<ele>1012.6</ele>
			</trkpt>
			<trkpt lat="47.0960461439" lon="8.6795104946">
				<ele>1010.5</ele>
			</trkpt>
			<trkpt lat="47.0960989988" lon="8.6795535437">
				<ele>1009.7</ele>
			</trkpt>
			<trkpt lat="47.0961934880" lon="8.6796198726">
				<ele>1008.5</ele>
			</trkpt>
			<trkpt lat="47.0962970798" lon="8.6797254326">
				<ele>1006.9</ele>
			</trkpt>
			<trkpt lat="47.0963800274" lon="8.6798026396">
				<ele>1005.8</ele>
			</trkpt>
			<trkpt lat="47.0964197938" lon="8.6798230703">
				<ele>1005.2</ele>
			</trkpt>
			<trkpt lat="47.0964654820" lon="8.6798241286">
				<ele>1004.7</ele>
			</trkpt>
			<trkpt lat="47.0965283349" lon="8.6798228049">
				<ele>1003.9</ele>
			</trkpt>
			<trkpt lat="47.0966317037" lon="8.6798116571">
				<ele>1002.4</ele>
			</trkpt>
			<trkpt lat="47.0966560649" lon="8.6798090333">
				<ele>1002.0</ele>
			</trkpt>
			<trkpt lat="47.0967397954" lon="8.6798137523">
				<ele>1001.0</ele>
			</trkpt>
			<trkpt lat="47.0969506537" lon="8.6798604621">
				<ele>998.2</ele>
			</trkpt>
			<trkpt lat="47.0971310187" lon="8.6799092721">
				<ele>996.1</ele>
			</trkpt>
			<trkpt lat="47.0972599645" lon="8.6799596447">
				<ele>994.5</ele>
			</trkpt>
			<trkpt lat="47.0973545139" lon="8.6800203915">
				<ele>993.3</ele>
			</trkpt>
			<trkpt lat="47.0974847541" lon="8.6801265981">
				<ele>991.5</ele>
			</trkpt>
			<trkpt lat="47.0976035721" lon="8.6802325140">
				<ele>989.7</ele>
			</trkpt>
			<trkpt lat="47.0978416305" lon="8.6804053368">
				<ele>986.4</ele>
			</trkpt>
			<trkpt lat="47.0980004262" lon="8.6805121938">
				<ele>984.3</ele>
			</trkpt>
			<trkpt lat="47.0980800199" lon="8.6805475001">
				<ele>983.3</ele>
			</trkpt>
			<trkpt lat="47.0981521248" lon="8.6805714744">
				<ele>982.5</ele>
			</trkpt>
			<trkpt lat="47.0982301126" lon="8.6805788678">
				<ele>981.6</ele>
			</trkpt>
			<trkpt lat="47.0983692662" lon="8.6805653620">
				<ele>979.9</ele>
			</trkpt>
			<trkpt lat="47.0985121034" lon="8.6805630871">
				<ele>978.3</ele>
			</trkpt>
			<trkpt lat="47.0985633828" lon="8.6805754337">
				<ele>977.7</ele>
			</trkpt>
			<trkpt lat="47.0986069838" lon="8.6805931751">
				<ele>977.2</ele>
			</trkpt>
			<trkpt lat="47.0986427951" lon="8.6806274670">
				<ele>976.7</ele>
			</trkpt>
			<trkpt lat="47.0986651577" lon="8.6806726054">
				<ele>976.2</ele>
			</trkpt>
			<trkpt lat="47.0986817483" lon="8.6807231827">
				<ele>975.8</ele>
			</trkpt>
			<trkpt lat="47.0986912561" lon="8.6808464744">
				<ele>974.8</ele>
			</trkpt>
			<trkpt lat="47.0986947895" lon="8.6809598391">
				<ele>974.0</ele>
			</trkpt>
			<trkpt lat="47.0987050390" lon="8.6810369467">
				<ele>974.5</ele>
			</trkpt>
			<trkpt lat="47.0987395769" lon="8.6810900353">
				<ele>974.2</ele>
			</trkpt>
			<trkpt lat="47.0987481709" lon="8.6810955829">
				<ele>974.3</ele>
			</trkpt>
			<trkpt lat="47.0987803588" lon="8.6811130605">
				<ele>974.4</ele>
			</trkpt>
			<trkpt lat="47.0988070076" lon="8.6811136784">
				<ele>974.5</ele>
			</trkpt>
			<trkpt lat="47.0988394278" lon="8.6811088575">
				<ele>974.7</ele>
			</trkpt>
			<trkpt lat="47.0989045176" lon="8.6810769047">
				<ele>974.9</ele>
			</trkpt>
			<trkpt lat="47.0989945909" lon="8.6810232275">
				<ele>975.1</ele>
			</trkpt>
			<trkpt lat="47.0990595306" lon="8.6810052093">
				<ele>974.9</ele>
			</trkpt>
			<trkpt lat="47.0991242291" lon="8.6810095024">
				<ele>974.5</ele>
			</trkpt>
			<trkpt lat="47.0991716644" lon="8.6810245402">
				<ele>974.1</ele>
			</trkpt>
			<trkpt lat="47.0992226424" lon="8.6810647572">
				<ele>973.5</ele>
			</trkpt>
			<trkpt lat="47.0992508660" lon="8.6810960942">
				<ele>973.2</ele>
			</trkpt>
			<trkpt lat="47.0992902409" lon="8.6811527732">
				<ele>972.6</ele>
			</trkpt>
			<trkpt lat="47.0993275371" lon="8.6812261351">
				<ele>971.9</ele>
			</trkpt>
			<trkpt lat="47.0993645318" lon="8.6813273797">
				<ele>971.3</ele>
			</trkpt>
			<trkpt lat="47.0994513398" lon="8.6815747880">
				<ele>970.9</ele>
			</trkpt>
			<trkpt lat="47.0994717441" lon="8.6816254548">
				<ele>970.9</ele>
			</trkpt>
			<trkpt lat="47.0994905636" lon="8.6816454154">
				<ele>970.8</ele>
			</trkpt>
			<trkpt lat="47.0995264141" lon="8.6816769165">
				<ele>970.6</ele>
			</trkpt>
			<trkpt lat="47.0995586520" lon="8.6816906275">
				<ele>970.4</ele>
			</trkpt>
			<trkpt lat="47.0995715038" lon="8.6816909256">
				<ele>970.3</ele>
			</trkpt>
			<trkpt lat="47.0996005153" lon="8.6816827063">
				<ele>970.1</ele>
			</trkpt>
			<trkpt lat="47.0996659435" lon="8.6816403015">
				<ele>970.0</ele>
			</trkpt>
			<trkpt lat="47.0996803896" lon="8.6816254860">
				<ele>969.9</ele>
			</trkpt>
			<trkpt lat="47.0996894981" lon="8.6816084391">
				<ele>969.7</ele>
			</trkpt>
			<trkpt lat="47.0996991275" lon="8.6815772950">
				<ele>969.4</ele>
			</trkpt>
			<trkpt lat="47.0997064204" lon="8.6815293651">
				<ele>969.0</ele>
			</trkpt>
			<trkpt lat="47.0997136041" lon="8.6814540566">
				<ele>968.3</ele>
			</trkpt>
			<trkpt lat="47.0997221551" lon="8.6813804134">
				<ele>967.8</ele>
			</trkpt>
			<trkpt lat="47.0997364559" lon="8.6812741789">
				<ele>966.9</ele>
			</trkpt>
			<trkpt lat="47.0997490465" lon="8.6811805122">
				<ele>966.0</ele>
			</trkpt>
			<trkpt lat="47.0997714432" lon="8.6810419777">
				<ele>964.6</ele>
			</trkpt>
			<trkpt lat="47.0997860066" lon="8.6809279765">
				<ele>963.7</ele>
			</trkpt>
			<trkpt lat="47.0998085112" lon="8.6807835025">
				<ele>962.7</ele>
			</trkpt>
			<trkpt lat="47.0998224124" lon="8.6807308512">
				<ele>962.3</ele>
			</trkpt>
			<trkpt lat="47.0998515403" lon="8.6806785263">
				<ele>962.0</ele>
			</trkpt>
			<trkpt lat="47.0999579551" lon="8.6805220454">
				<ele>960.8</ele>
			</trkpt>
			<trkpt lat="47.0999889288" lon="8.6804753756">
				<ele>960.4</ele>
			</trkpt>
			<trkpt lat="47.1000163909" lon="8.6804007211">
				<ele>959.8</ele>
			</trkpt>
			<trkpt lat="47.1001749875" lon="8.6799972575">
				<ele>956.1</ele>
			</trkpt>
			<trkpt lat="47.1004627777" lon="8.6792677400">
				<ele>949.4</ele>
			</trkpt>
			<trkpt lat="47.1004786450" lon="8.6792095471">
				<ele>949.0</ele>
			</trkpt>
			<trkpt lat="47.1004947836" lon="8.6791262633">
				<ele>948.6</ele>
			</trkpt>
			<trkpt lat="47.1005286988" lon="8.6789820510">
				<ele>947.8</ele>
			</trkpt>
			<trkpt lat="47.1005704217" lon="8.6788212614">
				<ele>946.7</ele>
			</trkpt>
			<trkpt lat="47.1005901322" lon="8.6787603775">
				<ele>946.2</ele>
			</trkpt>
			<trkpt lat="47.1006172223" lon="8.6787191758">
				<ele>945.8</ele>
			</trkpt>
			<trkpt lat="47.1005917488" lon="8.6786989432">
				<ele>946.0</ele>
			</trkpt>
			<trkpt lat="47.1005670847" lon="8.6786927996">
				<ele>946.1</ele>
			</trkpt>
			<trkpt lat="47.1005917488" lon="8.6786989432">
				<ele>946.0</ele>
			</trkpt>
			<trkpt lat="47.1006172223" lon="8.6787191758">
				<ele>945.8</ele>
			</trkpt>
			<trkpt lat="47.1006593570" lon="8.6786978335">
				<ele>945.3</ele>
			</trkpt>
			<trkpt lat="47.1007051960" lon="8.6786849689">
				<ele>944.7</ele>
			</trkpt>
			<trkpt lat="47.1007947782" lon="8.6786758702">
				<ele>943.6</ele>
			</trkpt>
			<trkpt lat="47.1010174195" lon="8.6786893886">
				<ele>941.0</ele>
			</trkpt>
			<trkpt lat="47.1011468167" lon="8.6786979692">
				<ele>939.8</ele>
			</trkpt>
			<trkpt lat="47.1013200765" lon="8.6786991993">
				<ele>938.5</ele>
			</trkpt>
			<trkpt lat="47.1013620002" lon="8.6786973634">
				<ele>938.2</ele>
			</trkpt>
			<trkpt lat="47.1014040859" lon="8.6786788258">
				<ele>938.0</ele>
			</trkpt>
			<trkpt lat="47.1016049057" lon="8.6785970344">
				<ele>936.7</ele>
			</trkpt>
			<trkpt lat="47.1017556524" lon="8.6785670593">
				<ele>935.7</ele>
			</trkpt>
			<trkpt lat="47.1018491256" lon="8.6785524904">
				<ele>935.2</ele>
			</trkpt>
			<trkpt lat="47.1020035053" lon="8.6785393312">
				<ele>934.4</ele>
			</trkpt>
			<trkpt lat="47.1021864102" lon="8.6785296116">
				<ele>933.7</ele>
			</trkpt>
			<trkpt lat="47.1022549731" lon="8.6785284183">
				<ele>933.5</ele>
			</trkpt>
			<trkpt lat="47.1025426652" lon="8.6785127575">
				<ele>932.8</ele>
			</trkpt>
			<trkpt lat="47.1026988698" lon="8.6785080062">
				<ele>932.5</ele>
			</trkpt>
			<trkpt lat="47.1027503599" lon="8.6785008315">
				<ele>932.4</ele>
			</trkpt>
			<trkpt lat="47.1028057357" lon="8.6784853807">
				<ele>932.3</ele>
			</trkpt>
			<trkpt lat="47.1029207085" lon="8.6784183323">
				<ele>932.1</ele>
			</trkpt>
			<trkpt lat="47.1029879452" lon="8.6783641052">
				<ele>931.9</ele>
			</trkpt>
			<trkpt lat="47.1030879837" lon="8.6782688062">
				<ele>931.8</ele>
			</trkpt>
			<trkpt lat="47.1032133536" lon="8.6781211157">
				<ele>931.6</ele>
			</trkpt>
			<trkpt lat="47.1033017977" lon="8.6779830844">
				<ele>931.4</ele>
			</trkpt>
			<trkpt lat="47.1033683005" lon="8.6778793009">
				<ele>931.2</ele>
			</trkpt>
			<trkpt lat="47.1034514461" lon="8.6777612909">
				<ele>931.1</ele>
			</trkpt>
			<trkpt lat="47.1034672642" lon="8.6777425923">
				<ele>931.0</ele>
			</trkpt>
			<trkpt lat="47.1034745907" lon="8.6777339475">
				<ele>931.0</ele>
			</trkpt>
			<trkpt lat="47.1035419472" lon="8.6776685757">
				<ele>930.9</ele>
			</trkpt>
			<trkpt lat="47.1037648070" lon="8.6774840856">
				<ele>930.6</ele>
			</trkpt>
			<trkpt lat="47.1038051457" lon="8.6774515533">
				<ele>930.5</ele>
			</trkpt>
			<trkpt lat="47.1039704917" lon="8.6773047832">
				<ele>930.4</ele>
			</trkpt>
			<trkpt lat="47.1040761587" lon="8.6772180031">
				<ele>930.3</ele>
			</trkpt>
			<trkpt lat="47.1042393580" lon="8.6770934747">
				<ele>930.1</ele>
			</trkpt>
			<trkpt lat="47.1044773320" lon="8.6769205019">
				<ele>929.7</ele>
			</trkpt>
			<trkpt lat="47.1045368001" lon="8.6768800445">
				<ele>929.5</ele>
			</trkpt>
			<trkpt lat="47.1045676225" lon="8.6768472913">
				<ele>929.4</ele>
			</trkpt>
			<trkpt lat="47.1045755918" lon="8.6768140101">
				<ele>929.2</ele>
			</trkpt>
			<trkpt lat="47.1045780993" lon="8.6767582833">
				<ele>929.0</ele>
			</trkpt>
			<trkpt lat="47.1045712283" lon="8.6766679259">
				<ele>928.7</ele>
			</trkpt>
			<trkpt lat="47.1045564114" lon="8.6764733255">
				<ele>928.1</ele>
			</trkpt>
			<trkpt lat="47.1045353324" lon="8.6761326238">
				<ele>927.2</ele>
			</trkpt>
			<trkpt lat="47.1045360217" lon="8.6760000823">
				<ele>927.0</ele>
			</trkpt>
			<trkpt lat="47.1046231451" lon="8.6760170748">
				<ele>927.2</ele>
			</trkpt>
			<trkpt lat="47.1046367732" lon="8.6760163487">
				<ele>927.2</ele>
			</trkpt>
			<trkpt lat="47.1047509045" lon="8.6760273509">
				<ele>927.5</ele>
			</trkpt>
			<trkpt lat="47.1048460651" lon="8.6760323419">
				<ele>927.3</ele>
			</trkpt>
			<trkpt lat="47.1049697930" lon="8.6760351994">
				<ele>927.2</ele>
			</trkpt>
			<trkpt lat="47.1050612908" lon="8.6760261530">
				<ele>927.2</ele>
			</trkpt>
			<trkpt lat="47.1051452388" lon="8.6760113588">
				<ele>927.1</ele>
			</trkpt>
			<trkpt lat="47.1052673396" lon="8.6759890793">
				<ele>926.9</ele>
			</trkpt>
			<trkpt lat="47.1052895095" lon="8.6760129996">
				<ele>927.0</ele>
			</trkpt>
			</trkseg>
	</trk>
</gpx>